{"type":"FeatureCollection","pref_code":"06","features":[{"type":"Feature","properties":{"code":"06203","name":"鶴岡市","pref_code":"06","pref":"山形県"},"geometry":{"type":"MultiPolygon","coordinates":[[[[139.5471,38.553],[139.5471,38.553],[139.5472,38.5531],[139.5471,38.553]]],[[[139.5467,38.553],[139.5467,38.5531],[139.5468,38.5532],[139.5467,38.553]]],[[[139.5467,38.5531],[139.5467,38.5531],[139.5467,38.5532],[139.5467,38.5531]]],[[[139.5473,38.5531],[139.5472,38.5531],[139.5473,38.5532],[139.5473,38.5531]]],[[[139.5465,38.5532],[139.5466,38.5532],[139.5466,38.5532],[139.5465,38.5532]]],[[[139.547,38.5531],[139.5469,38.5532],[139.5471,38.5532],[139.547,38.5531]]],[[[139.5468,38.5534],[139.5467,38.5534],[139.5469,38.5535],[139.5468,38.5534]]],[[[139.5462,38.5538],[139.5461,38.5539],[139.5463,38.554],[139.5462,38.5538]]],[[[139.5421,38.5572],[139.5422,38.5573],[139.5424,38.5568],[139.5421,38.5572]]],[[[139.5383,38.5576],[139.5382,38.5577],[139.5382,38.5577],[139.5383,38.5576]]],[[[139.5394,38.5578],[139.5391,38.5576],[139.5391,38.5578],[139.5394,38.5578]]],[[[139.5383,38.5578],[139.5384,38.5578],[139.5384,38.5578],[139.5383,38.5578]]],[[[139.5409,38.5611],[139.5412,38.5613],[139.5413,38.5609],[139.5409,38.5611]]],[[[139.5457,38.5637],[139.546,38.5637],[139.5458,38.5635],[139.5457,38.5637]]],[[[139.5444,38.5637],[139.5441,38.5634],[139.544,38.5637],[139.5444,38.5637]]],[[[139.5468,38.5639],[139.5468,38.564],[139.5469,38.564],[139.5468,38.5639]]],[[[139.5446,38.564],[139.5446,38.5641],[139.5447,38.564],[139.5446,38.564]]],[[[139.5464,38.5639],[139.5462,38.5639],[139.5465,38.5641],[139.5464,38.5639]]],[[[139.5446,38.5642],[139.5447,38.5641],[139.5446,38.5641],[139.5446,38.5642]]],[[[139.5448,38.5642],[139.5448,38.5642],[139.5447,38.5641],[139.5448,38.5642]]],[[[139.5469,38.5645],[139.5467,38.5644],[139.5469,38.5647],[139.5469,38.5645]]],[[[139.5472,38.5651],[139.5473,38.5651],[139.5473,38.5651],[139.5472,38.5651]]],[[[139.5473,38.5651],[139.5473,38.5651],[139.5473,38.5651],[139.5473,38.5651]]],[[[139.5474,38.5652],[139.5474,38.5652],[139.5474,38.5652],[139.5474,38.5652]]],[[[139.5401,38.5666],[139.5407,38.5681],[139.541,38.5624],[139.5401,38.5666]]],[[[139.5473,38.5654],[139.5474,38.5654],[139.5473,38.5652],[139.5473,38.5654]]],[[[139.5474,38.5654],[139.5474,38.5653],[139.5474,38.5653],[139.5474,38.5654]]],[[[139.5474,38.5654],[139.5474,38.5654],[139.5474,38.5654],[139.5474,38.5654]]],[[[139.5474,38.5655],[139.5473,38.5655],[139.5473,38.5655],[139.5474,38.5655]]],[[[139.5472,38.5655],[139.5472,38.5656],[139.5473,38.5656],[139.5472,38.5655]]],[[[139.5474,38.5656],[139.5474,38.5656],[139.5473,38.5656],[139.5474,38.5656]]],[[[139.5474,38.5666],[139.5475,38.5665],[139.5473,38.5664],[139.5474,38.5666]]],[[[139.5491,38.567],[139.5489,38.5667],[139.5488,38.5667],[139.5491,38.567]]],[[[139.5474,38.5669],[139.5473,38.5669],[139.5474,38.5669],[139.5474,38.5669]]],[[[139.5466,38.5669],[139.5467,38.5669],[139.5466,38.5669],[139.5466,38.5669]]],[[[139.5475,38.5669],[139.5475,38.567],[139.5475,38.567],[139.5475,38.5669]]],[[[139.5469,38.5671],[139.5469,38.5671],[139.5468,38.567],[139.5469,38.5671]]],[[[139.5463,38.5672],[139.5464,38.5672],[139.5464,38.5671],[139.5463,38.5672]]],[[[139.5473,38.5674],[139.5473,38.567],[139.5464,38.5675],[139.5473,38.5674]]],[[[139.5486,38.5673],[139.5485,38.5673],[139.5485,38.5674],[139.5486,38.5673]]],[[[139.5499,38.5676],[139.5498,38.5676],[139.5497,38.5676],[139.5499,38.5676]]],[[[139.5472,38.5677],[139.5473,38.5676],[139.5472,38.5676],[139.5472,38.5677]]],[[[139.5499,38.5676],[139.5499,38.5676],[139.5499,38.5676],[139.5499,38.5676]]],[[[139.55,38.5677],[139.55,38.5677],[139.55,38.5677],[139.55,38.5677]]],[[[139.5506,38.5681],[139.5504,38.5678],[139.55,38.5682],[139.5506,38.5681]]],[[[139.5508,38.5684],[139.5507,38.5683],[139.5507,38.5684],[139.5508,38.5684]]],[[[139.5498,38.5683],[139.5498,38.5683],[139.5498,38.5684],[139.5498,38.5683]]],[[[139.5497,38.5683],[139.5497,38.5683],[139.5497,38.5684],[139.5497,38.5683]]],[[[139.5497,38.5684],[139.5497,38.5684],[139.5497,38.5684],[139.5497,38.5684]]],[[[139.5498,38.5684],[139.5498,38.5684],[139.5498,38.5684],[139.5498,38.5684]]],[[[139.5498,38.5684],[139.5497,38.5684],[139.5498,38.5684],[139.5498,38.5684]]],[[[139.5498,38.5684],[139.5498,38.5684],[139.5498,38.5684],[139.5498,38.5684],[139.5498,38.5684]]],[[[139.5497,38.5684],[139.5497,38.5684],[139.5497,38.5684],[139.5497,38.5684]]],[[[139.5509,38.5685],[139.5509,38.5685],[139.5509,38.5685],[139.5509,38.5685]]],[[[139.5509,38.5686],[139.551,38.5686],[139.551,38.5685],[139.5509,38.5686]]],[[[139.5497,38.5686],[139.5498,38.5686],[139.5498,38.5686],[139.5497,38.5686]]],[[[139.5498,38.5687],[139.5498,38.5687],[139.5497,38.5687],[139.5498,38.5687]]],[[[139.5498,38.5687],[139.5498,38.5688],[139.5498,38.5688],[139.5498,38.5687]]],[[[139.5511,38.5688],[139.5511,38.5688],[139.5511,38.5688],[139.5511,38.5688]]],[[[139.5501,38.5688],[139.5502,38.5688],[139.5501,38.5688],[139.5501,38.5688]]],[[[139.5499,38.5688],[139.5498,38.5688],[139.5499,38.5688],[139.5499,38.5688]]],[[[139.5511,38.5689],[139.5511,38.5689],[139.5511,38.5689],[139.5511,38.5689]]],[[[139.55,38.569],[139.55,38.569],[139.5499,38.569],[139.55,38.569]]],[[[139.5517,38.5692],[139.5517,38.5692],[139.5517,38.5692],[139.5517,38.5692]]],[[[139.5499,38.5697],[139.5499,38.5698],[139.5499,38.5698],[139.5499,38.5697]]],[[[139.55,38.5698],[139.55,38.5698],[139.55,38.5698],[139.55,38.5698]]],[[[139.5502,38.5697],[139.55,38.5699],[139.5501,38.5699],[139.5502,38.5697]]],[[[139.5528,38.5738],[139.5528,38.5739],[139.5529,38.5739],[139.5528,38.5738]]],[[[139.5534,38.5752],[139.5533,38.5743],[139.5527,38.5749],[139.5534,38.5752]]],[[[139.5535,38.5755],[139.5535,38.5754],[139.5533,38.5754],[139.5535,38.5755]]],[[[139.5545,38.5776],[139.5544,38.5776],[139.5545,38.5777],[139.5545,38.5776]]],[[[139.5546,38.5778],[139.5547,38.5779],[139.5548,38.5779],[139.5546,38.5778]]],[[[139.5572,38.581],[139.5569,38.581],[139.557,38.5812],[139.5572,38.581]]],[[[139.5577,38.5827],[139.5577,38.5829],[139.558,38.5829],[139.5577,38.5827]]],[[[139.5574,38.5839],[139.5573,38.5839],[139.5573,38.584],[139.5574,38.5839]]],[[[139.5578,38.5839],[139.5577,38.584],[139.5578,38.5841],[139.5578,38.5839]]],[[[139.5581,38.5855],[139.5579,38.5854],[139.558,38.5856],[139.5581,38.5855]]],[[[139.5609,38.5894],[139.5609,38.5895],[139.5612,38.5894],[139.5609,38.5894]]],[[[139.5615,38.5893],[139.5614,38.5894],[139.5615,38.5895],[139.5615,38.5893]]],[[[139.5613,38.5896],[139.5613,38.5897],[139.5614,38.5898],[139.5613,38.5896]]],[[[139.561,38.5899],[139.561,38.59],[139.5612,38.59],[139.561,38.5899]]],[[[139.5638,38.5947],[139.5635,38.5947],[139.5634,38.5949],[139.5638,38.5947]]],[[[139.5737,38.6099],[139.5735,38.6099],[139.5735,38.6101],[139.5737,38.6099]]],[[[139.5746,38.6117],[139.5743,38.6116],[139.5745,38.612],[139.5746,38.6117]]],[[[139.5759,38.6133],[139.5759,38.6132],[139.5758,38.6132],[139.5759,38.6133]]],[[[139.5763,38.6134],[139.5761,38.6135],[139.5762,38.6136],[139.5763,38.6134]]],[[[139.5785,38.6158],[139.5785,38.6159],[139.5788,38.6159],[139.5785,38.6158]]],[[[139.5796,38.6166],[139.5796,38.6167],[139.5796,38.6168],[139.5796,38.6166]]],[[[139.5795,38.6167],[139.5792,38.6168],[139.5792,38.6168],[139.5795,38.6167]]],[[[139.5811,38.6175],[139.5811,38.6175],[139.5811,38.6174],[139.5811,38.6175]]],[[[139.5811,38.6175],[139.5811,38.6176],[139.5811,38.6176],[139.5811,38.6175]]],[[[139.5805,38.6182],[139.5804,38.6178],[139.5799,38.6181],[139.5805,38.6182]]],[[[139.5813,38.6183],[139.5812,38.6183],[139.5812,38.6184],[139.5813,38.6183]]],[[[139.5864,38.6269],[139.5864,38.6269],[139.5863,38.6269],[139.5864,38.6269]]],[[[139.5868,38.6272],[139.5867,38.6272],[139.5868,38.6272],[139.5868,38.6272]]],[[[139.5872,38.6272],[139.5872,38.6272],[139.5872,38.6272],[139.5872,38.6272]]],[[[139.5868,38.6273],[139.5869,38.6273],[139.5868,38.6272],[139.5868,38.6273]]],[[[139.5871,38.6272],[139.5871,38.6273],[139.5871,38.6273],[139.5871,38.6272]]],[[[139.5871,38.6273],[139.5871,38.6273],[139.5871,38.6273],[139.5871,38.6273]]],[[[139.5873,38.6274],[139.5873,38.6274],[139.5874,38.6275],[139.5873,38.6274]]],[[[139.5871,38.6276],[139.5873,38.6275],[139.5869,38.6275],[139.5871,38.6276]]],[[[139.5877,38.6275],[139.5876,38.6275],[139.5876,38.6276],[139.5877,38.6275]]],[[[139.5874,38.6276],[139.5874,38.6275],[139.5874,38.6276],[139.5874,38.6276]]],[[[139.5873,38.6277],[139.5873,38.6276],[139.5873,38.6277],[139.5873,38.6277]]],[[[139.5876,38.6277],[139.5877,38.6277],[139.5877,38.6276],[139.5876,38.6277]]],[[[139.5872,38.6277],[139.5872,38.6277],[139.5872,38.6278],[139.5872,38.6277]]],[[[139.5875,38.6277],[139.5874,38.6277],[139.5874,38.6278],[139.5875,38.6277]]],[[[139.5876,38.6278],[139.5875,38.6278],[139.5876,38.6279],[139.5876,38.6278]]],[[[139.5873,38.6279],[139.5873,38.6279],[139.5873,38.6279],[139.5873,38.6279]]],[[[139.5877,38.6279],[139.5877,38.6279],[139.5877,38.6279],[139.5877,38.6279]]],[[[139.5876,38.628],[139.5876,38.6279],[139.5876,38.6279],[139.5876,38.628]]],[[[139.5873,38.628],[139.5873,38.628],[139.5873,38.628],[139.5873,38.628]]],[[[139.5873,38.6281],[139.5873,38.6281],[139.5874,38.6281],[139.5873,38.6281]]],[[[139.5884,38.6283],[139.5883,38.6284],[139.5884,38.6284],[139.5884,38.6283]]],[[[139.5878,38.6285],[139.5878,38.6285],[139.5878,38.6285],[139.5878,38.6285]]],[[[139.5884,38.6285],[139.5885,38.6285],[139.5882,38.6285],[139.5884,38.6285]]],[[[139.5879,38.6287],[139.5879,38.6286],[139.5879,38.6286],[139.5879,38.6287]]],[[[139.5883,38.6286],[139.5883,38.6287],[139.5884,38.6287],[139.5883,38.6286]]],[[[139.5884,38.6288],[139.5884,38.6287],[139.5884,38.6287],[139.5884,38.6288]]],[[[139.5881,38.6288],[139.5881,38.6288],[139.5881,38.6288],[139.5881,38.6288]]],[[[139.5883,38.629],[139.5882,38.629],[139.5884,38.6291],[139.5883,38.629]]],[[[139.5878,38.629],[139.5875,38.629],[139.5876,38.6291],[139.5878,38.629]]],[[[139.5882,38.629],[139.5881,38.629],[139.5882,38.6291],[139.5882,38.629]]],[[[139.5882,38.6292],[139.5882,38.6292],[139.5883,38.6292],[139.5882,38.6292]]],[[[139.5883,38.6293],[139.5883,38.6293],[139.5883,38.6294],[139.5883,38.6293]]],[[[139.5884,38.6297],[139.5883,38.6298],[139.5884,38.6298],[139.5884,38.6297]]],[[[139.5881,38.6301],[139.5882,38.6301],[139.5882,38.6301],[139.5881,38.6301]]],[[[139.5881,38.6302],[139.5881,38.6302],[139.5881,38.6301],[139.5881,38.6302]]],[[[139.5879,38.6302],[139.5879,38.6302],[139.5879,38.6302],[139.5879,38.6302]]],[[[139.588,38.6303],[139.588,38.6302],[139.588,38.6302],[139.588,38.6303]]],[[[139.5882,38.6302],[139.5882,38.6303],[139.5883,38.6302],[139.5882,38.6302]]],[[[139.5881,38.6303],[139.5881,38.6303],[139.588,38.6303],[139.5881,38.6303]]],[[[139.5883,38.6303],[139.5882,38.6304],[139.5882,38.6304],[139.5883,38.6303]]],[[[139.5881,38.6304],[139.5881,38.6304],[139.5881,38.6304],[139.5881,38.6304]]],[[[139.5878,38.6305],[139.5879,38.6305],[139.5879,38.6304],[139.5878,38.6305]]],[[[139.5883,38.6305],[139.5883,38.6305],[139.5883,38.6305],[139.5883,38.6305]]],[[[139.5878,38.6305],[139.5877,38.6305],[139.5878,38.6305],[139.5878,38.6305]]],[[[139.5884,38.6305],[139.5884,38.6305],[139.5884,38.6305],[139.5884,38.6305]]],[[[139.5879,38.6307],[139.5879,38.6306],[139.5879,38.6306],[139.5879,38.6307]]],[[[139.588,38.6307],[139.5879,38.6308],[139.5879,38.6309],[139.588,38.6307]]],[[[139.5884,38.6296],[139.5885,38.6296],[139.5885,38.6295],[139.5884,38.6296]]],[[[139.5887,38.6322],[139.5887,38.6321],[139.5887,38.6322],[139.5887,38.6322]]],[[[139.5886,38.6322],[139.5886,38.6322],[139.5887,38.6322],[139.5886,38.6322]]],[[[139.5887,38.6323],[139.5886,38.6322],[139.5886,38.6323],[139.5887,38.6323]]],[[[139.5886,38.6324],[139.5887,38.6324],[139.5887,38.6324],[139.5886,38.6324]]],[[[139.589,38.6324],[139.5888,38.6324],[139.589,38.6326],[139.589,38.6324]]],[[[139.5892,38.6326],[139.5893,38.6325],[139.5892,38.6324],[139.5892,38.6326]]],[[[139.5887,38.6324],[139.5887,38.6324],[139.5888,38.6326],[139.5887,38.6324]]],[[[139.5892,38.6328],[139.589,38.6328],[139.5893,38.6329],[139.5892,38.6328]]],[[[139.5902,38.633],[139.5903,38.633],[139.5902,38.633],[139.5902,38.633]]],[[[139.5906,38.633],[139.5906,38.633],[139.5906,38.633],[139.5906,38.633]]],[[[139.5906,38.633],[139.5907,38.633],[139.5907,38.633],[139.5906,38.633]]],[[[139.5905,38.633],[139.5905,38.633],[139.5904,38.633],[139.5905,38.633]]],[[[139.5904,38.633],[139.5903,38.633],[139.5904,38.6331],[139.5904,38.633]]],[[[139.5905,38.6331],[139.5905,38.6331],[139.5906,38.6331],[139.5905,38.6331]]],[[[139.5907,38.6331],[139.5908,38.6331],[139.5907,38.6331],[139.5907,38.6331]]],[[[139.5901,38.6331],[139.5902,38.6331],[139.5902,38.6331],[139.5901,38.6331]]],[[[139.5909,38.6332],[139.5909,38.6332],[139.5909,38.6332],[139.5909,38.6332]]],[[[139.5893,38.6332],[139.5892,38.6333],[139.5893,38.6333],[139.5893,38.6332]]],[[[139.5908,38.6332],[139.5908,38.6333],[139.5909,38.6333],[139.5908,38.6332]]],[[[139.5899,38.6333],[139.5899,38.6333],[139.5899,38.6333],[139.5899,38.6333]]],[[[139.5909,38.6333],[139.5909,38.6333],[139.5909,38.6333],[139.5909,38.6333]]],[[[139.5909,38.6333],[139.5909,38.6333],[139.5909,38.6333],[139.5909,38.6333]]],[[[139.5906,38.6334],[139.5906,38.6333],[139.5906,38.6333],[139.5906,38.6334]]],[[[139.5898,38.6334],[139.5899,38.6334],[139.5898,38.6333],[139.5898,38.6334]]],[[[139.5907,38.6334],[139.5907,38.6334],[139.5907,38.6334],[139.5907,38.6334]]],[[[139.5909,38.6334],[139.5909,38.6334],[139.591,38.6334],[139.5909,38.6334]]],[[[139.5906,38.6334],[139.5905,38.6334],[139.5906,38.6334],[139.5906,38.6334]]],[[[139.5904,38.6335],[139.5905,38.6335],[139.5904,38.6334],[139.5904,38.6335]]],[[[139.5906,38.6335],[139.5905,38.6335],[139.5906,38.6336],[139.5906,38.6335]]],[[[139.5909,38.6337],[139.5908,38.6337],[139.5909,38.6338],[139.5909,38.6337]]],[[[139.5911,38.6354],[139.5914,38.6352],[139.5913,38.6351],[139.5911,38.6354]]],[[[139.5916,38.6355],[139.5915,38.6354],[139.5914,38.6355],[139.5916,38.6355]]],[[[139.591,38.636],[139.591,38.636],[139.5909,38.636],[139.591,38.636]]],[[[139.591,38.6362],[139.5911,38.6362],[139.591,38.6361],[139.591,38.6362]]],[[[139.5907,38.6362],[139.5909,38.6363],[139.5908,38.6361],[139.5907,38.6362]]],[[[139.5913,38.6362],[139.5913,38.6363],[139.5913,38.6363],[139.5913,38.6362]]],[[[139.5912,38.6362],[139.5911,38.6362],[139.5912,38.6363],[139.5912,38.6362]]],[[[139.5916,38.6365],[139.5918,38.6364],[139.5917,38.6363],[139.5916,38.6365]]],[[[139.596,38.6409],[139.5959,38.6406],[139.5957,38.6407],[139.596,38.6409]]],[[[139.5926,38.6424],[139.5926,38.6422],[139.5917,38.642],[139.5926,38.6424]]],[[[139.5949,38.6424],[139.5945,38.6424],[139.5945,38.6425],[139.5949,38.6424]]],[[[139.5947,38.6428],[139.5946,38.6428],[139.5947,38.643],[139.5947,38.6428]]],[[[139.5957,38.6471],[139.5958,38.6469],[139.5953,38.647],[139.5957,38.6471]]],[[[139.5978,38.6504],[139.5979,38.6506],[139.5981,38.6497],[139.5978,38.6504]]],[[[139.6049,38.6594],[139.6048,38.6595],[139.6049,38.6596],[139.6049,38.6594]]],[[[139.6051,38.66],[139.6048,38.66],[139.6048,38.6602],[139.6051,38.66]]],[[[139.605,38.6613],[139.6054,38.6612],[139.6053,38.6611],[139.605,38.6613]]],[[[139.6057,38.6614],[139.6057,38.6618],[139.6058,38.6615],[139.6057,38.6614]]],[[[139.6045,38.6615],[139.6046,38.6617],[139.6047,38.6615],[139.6045,38.6615]]],[[[139.606,38.6615],[139.6063,38.662],[139.6064,38.6617],[139.606,38.6615]]],[[[139.6065,38.6632],[139.6068,38.6632],[139.6067,38.663],[139.6065,38.6632]]],[[[139.6097,38.664],[139.6095,38.6638],[139.6094,38.6641],[139.6097,38.664]]],[[[139.6096,38.6693],[139.6093,38.6693],[139.6094,38.6694],[139.6096,38.6693]]],[[[139.6118,38.6702],[139.6118,38.6703],[139.612,38.6702],[139.6118,38.6702]]],[[[139.6116,38.6702],[139.6114,38.6702],[139.6115,38.6705],[139.6116,38.6702]]],[[[139.6205,38.6788],[139.6203,38.6788],[139.6204,38.679],[139.6205,38.6788]]],[[[139.6201,38.6801],[139.6205,38.6805],[139.6206,38.68],[139.6201,38.6801]]],[[[139.6227,38.6824],[139.6229,38.6827],[139.6229,38.6825],[139.6227,38.6824]]],[[[139.6241,38.6839],[139.6237,38.6834],[139.6237,38.6836],[139.6241,38.6839]]],[[[139.6252,38.6855],[139.6251,38.6852],[139.6249,38.6853],[139.6252,38.6855]]],[[[139.6171,38.6868],[139.6178,38.6872],[139.6177,38.6869],[139.6171,38.6868]]],[[[139.6179,38.6877],[139.618,38.6877],[139.6179,38.6874],[139.6179,38.6877]]],[[[139.6394,38.688],[139.6393,38.6879],[139.6392,38.688],[139.6394,38.688]]],[[[139.6401,38.6883],[139.6398,38.6883],[139.6398,38.6884],[139.6401,38.6883]]],[[[139.6311,38.6885],[139.6312,38.6887],[139.6324,38.6885],[139.6311,38.6885]]],[[[139.6412,38.6898],[139.641,38.6894],[139.6409,38.6897],[139.6412,38.6898]]],[[[139.6509,38.6983],[139.6508,38.6982],[139.6508,38.6982],[139.6509,38.6983]]],[[[139.6512,38.6983],[139.6511,38.6985],[139.6512,38.6985],[139.6512,38.6983]]],[[[139.6509,38.6985],[139.6509,38.6986],[139.651,38.6986],[139.6509,38.6985]]],[[[139.653,38.7026],[139.6527,38.7027],[139.6528,38.7027],[139.653,38.7026]]],[[[139.6534,38.703],[139.6533,38.7029],[139.6532,38.7029],[139.6534,38.703]]],[[[139.6559,38.7031],[139.6556,38.7034],[139.6558,38.7034],[139.6559,38.7031]]],[[[139.6586,38.7039],[139.6586,38.704],[139.6587,38.704],[139.6586,38.7039]]],[[[139.6584,38.7042],[139.6585,38.704],[139.6584,38.704],[139.6584,38.7042]]],[[[139.6586,38.7043],[139.6585,38.7043],[139.6586,38.7044],[139.6586,38.7043]]],[[[139.6587,38.7045],[139.6588,38.7049],[139.6589,38.7045],[139.6587,38.7045]]],[[[139.6609,38.7054],[139.6608,38.7055],[139.6609,38.7056],[139.6609,38.7054]]],[[[139.6614,38.7079],[139.6615,38.7078],[139.6614,38.7077],[139.6614,38.7079]]],[[[139.6619,38.7103],[139.6616,38.7105],[139.6619,38.7107],[139.6619,38.7103]]],[[[139.6616,38.7108],[139.6616,38.7107],[139.6613,38.7107],[139.6616,38.7108]]],[[[139.6636,38.7131],[139.6637,38.713],[139.6635,38.7131],[139.6636,38.7131]]],[[[139.6638,38.7132],[139.6637,38.7132],[139.6637,38.7133],[139.6638,38.7132]]],[[[139.6651,38.7137],[139.665,38.714],[139.6652,38.7137],[139.6651,38.7137]]],[[[139.6668,38.7153],[139.6665,38.715],[139.6664,38.7152],[139.6668,38.7153]]],[[[139.6664,38.7157],[139.6664,38.7157],[139.6667,38.7155],[139.6664,38.7157]]],[[[139.6669,38.7162],[139.667,38.7163],[139.6671,38.7162],[139.6669,38.7162]]],[[[139.6684,38.7173],[139.6682,38.7174],[139.6684,38.7174],[139.6684,38.7173]]],[[[139.6686,38.7179],[139.6688,38.7178],[139.6688,38.7177],[139.6686,38.7179]]],[[[139.6692,38.7182],[139.6693,38.7182],[139.6692,38.7181],[139.6692,38.7182]]],[[[139.676,38.7189],[139.6761,38.7189],[139.6761,38.7188],[139.676,38.7189]]],[[[139.6755,38.7189],[139.6754,38.7188],[139.6754,38.7189],[139.6755,38.7189]]],[[[139.6757,38.7189],[139.6757,38.719],[139.6758,38.7189],[139.6757,38.7189]]],[[[139.6709,38.7191],[139.6709,38.7189],[139.6708,38.7191],[139.6709,38.7191]]],[[[139.6761,38.7191],[139.676,38.719],[139.676,38.719],[139.6761,38.7191]]],[[[139.6747,38.7191],[139.6748,38.719],[139.6747,38.719],[139.6747,38.7191]]],[[[139.6761,38.7192],[139.6762,38.7192],[139.6762,38.7191],[139.6761,38.7192]]],[[[139.6757,38.7192],[139.6756,38.7193],[139.6757,38.7193],[139.6757,38.7192]]],[[[139.6733,38.7192],[139.6733,38.7192],[139.6733,38.7193],[139.6733,38.7192]]],[[[139.6746,38.7193],[139.6747,38.7193],[139.6746,38.7192],[139.6746,38.7193]]],[[[139.6746,38.7194],[139.6745,38.7193],[139.6745,38.7194],[139.6746,38.7194]]],[[[139.6748,38.7193],[139.6747,38.7194],[139.6748,38.7196],[139.6748,38.7193]]],[[[139.6762,38.7194],[139.6762,38.7195],[139.6762,38.7194],[139.6762,38.7194]]],[[[139.6763,38.7195],[139.6763,38.7195],[139.6763,38.7195],[139.6763,38.7195]]],[[[139.6738,38.7196],[139.6739,38.7195],[139.6738,38.7195],[139.6738,38.7196]]],[[[139.6744,38.7196],[139.6745,38.7196],[139.6745,38.7195],[139.6744,38.7196]]],[[[139.6738,38.7197],[139.6738,38.7197],[139.6737,38.7197],[139.6738,38.7197]]],[[[139.6826,38.7204],[139.6826,38.7203],[139.6825,38.7203],[139.6826,38.7204]]],[[[139.6829,38.7203],[139.6829,38.7204],[139.6831,38.7204],[139.6829,38.7203]]],[[[139.6834,38.7207],[139.6835,38.7207],[139.6835,38.7206],[139.6834,38.7207]]],[[[139.6829,38.7206],[139.6833,38.7207],[139.6832,38.7207],[139.6829,38.7206]]],[[[139.6818,38.7208],[139.6818,38.7208],[139.6819,38.7209],[139.6818,38.7208]]],[[[139.684,38.7212],[139.6841,38.7212],[139.6838,38.7208],[139.684,38.7212]]],[[[139.6754,38.7216],[139.6751,38.7208],[139.6749,38.7209],[139.6754,38.7216]]],[[[139.6841,38.7212],[139.684,38.7213],[139.6842,38.7215],[139.6841,38.7212]]],[[[139.6845,38.7219],[139.6846,38.7219],[139.6843,38.7214],[139.6845,38.7219]]],[[[139.6786,38.7217],[139.6768,38.7215],[139.679,38.7222],[139.6791,38.7221],[139.6786,38.7217]]],[[[139.684,38.7219],[139.6839,38.7219],[139.684,38.722],[139.684,38.7219]]],[[[139.684,38.7221],[139.684,38.722],[139.6839,38.7221],[139.684,38.7221]]],[[[139.6844,38.7223],[139.6844,38.7222],[139.6844,38.7222],[139.6844,38.7223]]],[[[139.6843,38.7223],[139.6842,38.7223],[139.6842,38.7223],[139.6843,38.7223]]],[[[139.6845,38.7224],[139.6845,38.7224],[139.6845,38.7224],[139.6845,38.7224]]],[[[139.6841,38.7224],[139.6841,38.7224],[139.6841,38.7224],[139.6841,38.7224]]],[[[139.6844,38.7225],[139.6844,38.7225],[139.6844,38.7225],[139.6844,38.7225]]],[[[139.6738,38.7244],[139.6738,38.7244],[139.6735,38.7244],[139.6738,38.7244]]],[[[139.6812,38.7251],[139.6829,38.7261],[139.6842,38.725],[139.6841,38.723],[139.6812,38.7251]]],[[[139.681,38.7248],[139.681,38.7247],[139.681,38.7247],[139.681,38.7248]]],[[[139.681,38.725],[139.6814,38.7247],[139.6808,38.7249],[139.681,38.725]]],[[[139.6819,38.7261],[139.682,38.7261],[139.6819,38.7261],[139.6819,38.7261]]],[[[139.6928,38.7267],[139.6926,38.7269],[139.6927,38.727],[139.6928,38.7267]]],[[[139.6931,38.7274],[139.6932,38.7274],[139.6932,38.7274],[139.6931,38.7274]]],[[[139.6963,38.7297],[139.6961,38.7297],[139.6964,38.7301],[139.6963,38.7297]]],[[[139.6998,38.7383],[139.7,38.7381],[139.6998,38.738],[139.6998,38.7383]]],[[[139.702,38.7402],[139.702,38.74],[139.7017,38.7401],[139.702,38.7402]]],[[[139.7053,38.7446],[139.7054,38.7443],[139.7051,38.7442],[139.7053,38.7446]]],[[[139.7084,38.7517],[139.7082,38.7516],[139.7082,38.7517],[139.7084,38.7517]]],[[[139.709,38.7519],[139.7088,38.7519],[139.7089,38.752],[139.709,38.7519]]],[[[139.7092,38.7523],[139.7093,38.7522],[139.7092,38.7523],[139.7092,38.7523]]],[[[139.7209,38.759],[139.7209,38.759],[139.7209,38.759],[139.7209,38.759]]],[[[139.7209,38.7591],[139.7209,38.7591],[139.7209,38.759],[139.7209,38.7591]]],[[[139.7223,38.7588],[139.7223,38.7588],[139.7223,38.7588],[139.7223,38.7588]]],[[[139.7224,38.7588],[139.7224,38.7588],[139.7224,38.7589],[139.7224,38.7588]]],[[[139.7217,38.7589],[139.7217,38.7589],[139.7217,38.7589],[139.7217,38.7589]]],[[[139.7223,38.7588],[139.7222,38.759],[139.7223,38.759],[139.7223,38.7588]]],[[[139.7228,38.759],[139.7228,38.759],[139.7228,38.759],[139.7228,38.759]]],[[[139.7229,38.7591],[139.7229,38.759],[139.7228,38.759],[139.7229,38.7591]]],[[[139.7221,38.759],[139.7221,38.7591],[139.7221,38.7591],[139.7221,38.759]]],[[[139.7228,38.7591],[139.7228,38.7591],[139.7228,38.7591],[139.7228,38.7591]]],[[[139.7228,38.7591],[139.7228,38.7591],[139.7228,38.7591],[139.7228,38.7591]]],[[[139.7225,38.759],[139.7224,38.7592],[139.7226,38.7593],[139.7225,38.759]]],[[[139.7231,38.7591],[139.7231,38.7591],[139.7231,38.7591],[139.7231,38.7591]]],[[[139.723,38.7591],[139.723,38.7591],[139.723,38.7591],[139.723,38.7591]]],[[[139.7228,38.7591],[139.7228,38.7591],[139.7228,38.7591],[139.7228,38.7591]]],[[[139.7231,38.7591],[139.7231,38.7592],[139.7231,38.7592],[139.7231,38.7591]]],[[[139.723,38.7592],[139.723,38.7591],[139.723,38.7592],[139.723,38.7592]]],[[[139.7219,38.7591],[139.7219,38.7592],[139.7219,38.7592],[139.7219,38.7591]]],[[[139.7233,38.7592],[139.7233,38.7592],[139.7233,38.7592],[139.7233,38.7592]]],[[[139.7218,38.7592],[139.7218,38.7592],[139.7218,38.7592],[139.7218,38.7592]]],[[[139.7232,38.7592],[139.7231,38.7592],[139.7231,38.7592],[139.7232,38.7592]]],[[[139.7231,38.7592],[139.7231,38.7592],[139.7231,38.7592],[139.7231,38.7592]]],[[[139.723,38.7593],[139.7231,38.7593],[139.7231,38.7592],[139.723,38.7593]]],[[[139.7229,38.7591],[139.7227,38.7594],[139.7227,38.7594],[139.7229,38.7591]]],[[[139.7219,38.7592],[139.7219,38.7593],[139.7219,38.7593],[139.7219,38.7592]]],[[[139.722,38.7593],[139.722,38.7593],[139.7221,38.7593],[139.722,38.7593]]],[[[139.7231,38.7593],[139.7231,38.7593],[139.7231,38.7593],[139.7231,38.7593]]],[[[139.7231,38.7593],[139.7231,38.7593],[139.7231,38.7593],[139.7231,38.7593]]],[[[139.7229,38.7593],[139.7229,38.7593],[139.723,38.7593],[139.7229,38.7593]]],[[[139.7231,38.7593],[139.7232,38.7593],[139.7232,38.7593],[139.7231,38.7593]]],[[[139.7232,38.7593],[139.7232,38.7593],[139.7232,38.7593],[139.7232,38.7593]]],[[[139.723,38.7593],[139.723,38.7594],[139.723,38.7594],[139.723,38.7593]]],[[[139.7214,38.7594],[139.7214,38.7594],[139.7214,38.7594],[139.7214,38.7594]]],[[[139.7216,38.7594],[139.7216,38.7594],[139.7216,38.7594],[139.7216,38.7594]]],[[[139.7232,38.7594],[139.7232,38.7594],[139.7231,38.7594],[139.7232,38.7594]]],[[[139.7228,38.7595],[139.7228,38.7595],[139.7228,38.7595],[139.7228,38.7595]]],[[[139.7228,38.7595],[139.7228,38.7595],[139.7228,38.7595],[139.7228,38.7595]]],[[[139.7226,38.7597],[139.7226,38.7597],[139.7226,38.7597],[139.7226,38.7597]]],[[[139.7224,38.7598],[139.7223,38.7598],[139.7224,38.7598],[139.7224,38.7598]]],[[[139.7227,38.7599],[139.7227,38.7599],[139.7227,38.7599],[139.7227,38.7599]]],[[[139.7228,38.7599],[139.7228,38.7599],[139.7228,38.7599],[139.7228,38.7599]]],[[[139.7226,38.7599],[139.7226,38.7599],[139.7226,38.7599],[139.7226,38.7599]]],[[[139.7235,38.7604],[139.7235,38.7604],[139.7236,38.7605],[139.7235,38.7604]]],[[[139.7235,38.7605],[139.7235,38.7605],[139.7235,38.7605],[139.7235,38.7605]]],[[[139.7234,38.7606],[139.7233,38.7606],[139.7233,38.7607],[139.7234,38.7606]]],[[[139.7243,38.7612],[139.7243,38.7612],[139.7242,38.7612],[139.7243,38.7612]]],[[[139.7238,38.7612],[139.7237,38.7612],[139.7239,38.7613],[139.7238,38.7612]]],[[[139.7243,38.7612],[139.7242,38.7612],[139.7244,38.7612],[139.7243,38.7612]]],[[[139.724,38.7613],[139.724,38.7613],[139.7239,38.7613],[139.724,38.7613]]],[[[139.7238,38.7614],[139.7237,38.7614],[139.7237,38.7615],[139.7238,38.7614]]],[[[139.7239,38.7615],[139.7239,38.7614],[139.7238,38.7615],[139.7239,38.7615]]],[[[139.7238,38.7616],[139.7238,38.7615],[139.7237,38.7616],[139.7238,38.7616]]],[[[139.7238,38.7617],[139.7238,38.7617],[139.7239,38.7617],[139.7238,38.7617]]],[[[139.724,38.7621],[139.724,38.7621],[139.7239,38.7621],[139.724,38.7621]]],[[[139.7263,38.7624],[139.7262,38.7625],[139.7263,38.7625],[139.7263,38.7624]]],[[[139.7258,38.7626],[139.7258,38.7626],[139.7257,38.7626],[139.7258,38.7626]]],[[[139.7262,38.7627],[139.7263,38.7626],[139.7263,38.7626],[139.7262,38.7627]]],[[[139.7259,38.7627],[139.7259,38.7628],[139.7262,38.7629],[139.7259,38.7627]]],[[[139.7279,38.7629],[139.7282,38.7629],[139.7279,38.7629],[139.7279,38.7629]]],[[[139.7234,38.7631],[139.7234,38.763],[139.7234,38.7631],[139.7234,38.7631]]],[[[139.7269,38.7633],[139.7272,38.7633],[139.727,38.7631],[139.7269,38.7633]]],[[[139.7224,38.7632],[139.7223,38.7632],[139.7224,38.7633],[139.7224,38.7632]]],[[[139.7229,38.7633],[139.7229,38.7633],[139.7227,38.7633],[139.7229,38.7633]]],[[[139.7226,38.7633],[139.7226,38.7634],[139.7226,38.7634],[139.7226,38.7633]]],[[[139.7222,38.7633],[139.722,38.7632],[139.7219,38.7636],[139.7222,38.7633]]],[[[139.7228,38.7634],[139.7227,38.7635],[139.7229,38.7634],[139.7228,38.7634]]],[[[139.7222,38.7635],[139.7222,38.7635],[139.7222,38.7635],[139.7222,38.7635]]],[[[139.7223,38.7636],[139.7223,38.7635],[139.7223,38.7635],[139.7223,38.7636]]],[[[139.7226,38.7636],[139.7226,38.7636],[139.7226,38.7636],[139.7226,38.7636]]],[[[139.7275,38.7635],[139.7275,38.7636],[139.7282,38.7638],[139.7275,38.7635]]],[[[139.7273,38.7667],[139.727,38.768],[139.7273,38.7681],[139.7273,38.7667]]],[[[139.7261,38.7689],[139.7256,38.7677],[139.726,38.769],[139.7268,38.7694],[139.7261,38.7689]]],[[[139.732,38.7649],[139.7321,38.765],[139.7321,38.7649],[139.732,38.7649]]],[[[139.7318,38.7653],[139.7318,38.7652],[139.7318,38.7652],[139.7318,38.7653]]],[[[139.7318,38.7655],[139.7318,38.7654],[139.7318,38.7654],[139.7318,38.7655]]],[[[139.7314,38.7655],[139.7315,38.7655],[139.7314,38.7655],[139.7314,38.7655]]],[[[139.7282,38.7659],[139.7283,38.7667],[139.7292,38.7646],[139.7282,38.7659]]],[[[139.7312,38.7658],[139.7313,38.7658],[139.7313,38.7658],[139.7312,38.7658]]],[[[139.7321,38.7672],[139.732,38.7672],[139.7321,38.7672],[139.7321,38.7672]]],[[[139.7323,38.7673],[139.7323,38.7673],[139.7324,38.7673],[139.7323,38.7673]]],[[[139.7321,38.7674],[139.7321,38.7674],[139.7321,38.7674],[139.7321,38.7674]]],[[[139.7328,38.7678],[139.7328,38.7678],[139.7328,38.7678],[139.7328,38.7678]]],[[[139.7326,38.7679],[139.7325,38.7679],[139.7326,38.7679],[139.7326,38.7679]]],[[[139.7332,38.7679],[139.7331,38.7679],[139.7332,38.768],[139.7332,38.7679]]],[[[139.733,38.768],[139.733,38.768],[139.733,38.768],[139.733,38.768]]],[[[139.7334,38.7681],[139.7333,38.7681],[139.7333,38.7681],[139.7334,38.7681]]],[[[139.7323,38.7681],[139.7323,38.7681],[139.7323,38.7681],[139.7323,38.7681]]],[[[139.7323,38.7682],[139.7323,38.7681],[139.7323,38.7681],[139.7323,38.7682]]],[[[139.7334,38.7681],[139.7334,38.7682],[139.7334,38.7681],[139.7334,38.7681]]],[[[139.7332,38.7682],[139.7333,38.7682],[139.7333,38.7682],[139.7332,38.7682]]],[[[139.7334,38.7682],[139.7334,38.7682],[139.7335,38.7682],[139.7334,38.7682]]],[[[139.7334,38.7682],[139.7334,38.7682],[139.7334,38.7682],[139.7334,38.7682]]],[[[139.7333,38.7682],[139.7334,38.7683],[139.7334,38.7682],[139.7333,38.7682]]],[[[139.7334,38.7683],[139.7335,38.7683],[139.7335,38.7683],[139.7334,38.7683]]],[[[139.7334,38.7683],[139.7334,38.7683],[139.7334,38.7683],[139.7334,38.7683]]],[[[139.7333,38.7683],[139.7333,38.7683],[139.7333,38.7683],[139.7333,38.7683]]],[[[139.7334,38.7684],[139.7334,38.7684],[139.7334,38.7683],[139.7334,38.7684]]],[[[139.7333,38.7683],[139.7333,38.7683],[139.7333,38.7683],[139.7333,38.7683]]],[[[139.7334,38.7683],[139.7334,38.7684],[139.7335,38.7683],[139.7334,38.7683]]],[[[139.7328,38.7684],[139.7328,38.7684],[139.7328,38.7684],[139.7328,38.7684]]],[[[139.7333,38.7684],[139.7333,38.7684],[139.7333,38.7684],[139.7333,38.7684]]],[[[139.7327,38.7684],[139.7327,38.7684],[139.7327,38.7684],[139.7327,38.7684]]],[[[139.7333,38.7684],[139.7333,38.7685],[139.7333,38.7685],[139.7333,38.7684]]],[[[139.7337,38.7685],[139.7337,38.7685],[139.7337,38.7685],[139.7337,38.7685]]],[[[139.7332,38.7685],[139.7332,38.7685],[139.7332,38.7685],[139.7332,38.7685]]],[[[139.7339,38.7686],[139.7339,38.7686],[139.7338,38.7686],[139.7339,38.7686]]],[[[139.7338,38.7686],[139.7338,38.7686],[139.7338,38.7686],[139.7338,38.7686]]],[[[139.7329,38.7685],[139.7329,38.7687],[139.733,38.7686],[139.7329,38.7685]]],[[[139.7338,38.7687],[139.7338,38.7686],[139.7337,38.7686],[139.7338,38.7687]]],[[[139.7339,38.7687],[139.7339,38.7687],[139.7339,38.7686],[139.7339,38.7687]]],[[[139.734,38.7687],[139.734,38.7687],[139.734,38.7687],[139.734,38.7687]]],[[[139.7339,38.7687],[139.734,38.7687],[139.734,38.7687],[139.7339,38.7687]]],[[[139.7339,38.7687],[139.7339,38.7687],[139.7339,38.7687],[139.7339,38.7687]]],[[[139.7342,38.7687],[139.7342,38.7687],[139.7342,38.7687],[139.7342,38.7687]]],[[[139.7343,38.7687],[139.7343,38.7687],[139.7343,38.7687],[139.7343,38.7687]]],[[[139.7343,38.7688],[139.7344,38.7687],[139.7343,38.7687],[139.7343,38.7688]]],[[[139.734,38.7688],[139.7339,38.7688],[139.734,38.7688],[139.734,38.7688]]],[[[139.7343,38.7688],[139.7343,38.7688],[139.7343,38.7688],[139.7343,38.7688]]],[[[139.7342,38.7689],[139.7343,38.7689],[139.7343,38.7689],[139.7342,38.7689]]],[[[139.7336,38.7689],[139.7337,38.7689],[139.7337,38.7689],[139.7336,38.7689]]],[[[139.734,38.769],[139.734,38.7691],[139.7341,38.769],[139.734,38.769]]],[[[139.7348,38.7691],[139.7349,38.7691],[139.7349,38.769],[139.7348,38.7691]]],[[[139.7346,38.7691],[139.7347,38.7691],[139.7346,38.7691],[139.7346,38.7691]]],[[[139.7349,38.7692],[139.735,38.7692],[139.7349,38.7691],[139.7349,38.7692]]],[[[139.7348,38.7692],[139.7348,38.7692],[139.7348,38.7692],[139.7348,38.7692]]],[[[139.7353,38.7692],[139.7353,38.7692],[139.7353,38.7692],[139.7353,38.7692]]],[[[139.7353,38.7692],[139.7354,38.7692],[139.7353,38.7692],[139.7353,38.7692]]],[[[139.7354,38.7692],[139.7354,38.7692],[139.7354,38.7693],[139.7354,38.7692]]],[[[139.7358,38.7693],[139.7358,38.7693],[139.7358,38.7693],[139.7358,38.7693]]],[[[139.7357,38.7693],[139.7357,38.7693],[139.7357,38.7693],[139.7357,38.7693]]],[[[139.7355,38.7694],[139.7356,38.7692],[139.7355,38.7692],[139.7355,38.7694]]],[[[139.7359,38.7693],[139.7359,38.7693],[139.7359,38.7693],[139.7359,38.7693]]],[[[139.7357,38.7694],[139.7356,38.7693],[139.7356,38.7694],[139.7357,38.7694]]],[[[139.736,38.7694],[139.736,38.7694],[139.736,38.7694],[139.736,38.7694]]],[[[139.7359,38.7694],[139.7359,38.7694],[139.7359,38.7694],[139.7359,38.7694]]],[[[139.7359,38.7694],[139.7359,38.7694],[139.7359,38.7694],[139.7359,38.7694]]],[[[139.7351,38.7694],[139.7351,38.7695],[139.7351,38.7695],[139.7351,38.7694]]],[[[139.736,38.7694],[139.736,38.7695],[139.736,38.7694],[139.736,38.7694]]],[[[139.7361,38.7695],[139.736,38.7696],[139.7361,38.7695],[139.7361,38.7695]]],[[[139.7354,38.7697],[139.7354,38.7697],[139.7354,38.7697],[139.7354,38.7697]]],[[[139.7364,38.7697],[139.7364,38.7697],[139.7364,38.7697],[139.7364,38.7697]]],[[[139.7363,38.7698],[139.7363,38.7698],[139.7363,38.7698],[139.7363,38.7698]]],[[[139.7364,38.7699],[139.7368,38.7703],[139.7369,38.7702],[139.7364,38.7699]]],[[[139.7378,38.7703],[139.7378,38.7703],[139.7379,38.7703],[139.7378,38.7703]]],[[[139.738,38.7703],[139.7379,38.7703],[139.7379,38.7703],[139.738,38.7703]]],[[[139.7371,38.7703],[139.7371,38.7703],[139.7371,38.7703],[139.7371,38.7703]]],[[[139.738,38.7703],[139.7379,38.7703],[139.7379,38.7703],[139.738,38.7703]]],[[[139.7378,38.7703],[139.7378,38.7704],[139.7378,38.7704],[139.7378,38.7703]]],[[[139.7382,38.7704],[139.7382,38.7704],[139.7382,38.7704],[139.7382,38.7704]]],[[[139.7378,38.7704],[139.7378,38.7704],[139.7378,38.7704],[139.7378,38.7704]]],[[[139.7375,38.7704],[139.7375,38.7704],[139.7375,38.7704],[139.7375,38.7704]]],[[[139.7376,38.7704],[139.7376,38.7704],[139.7376,38.7704],[139.7376,38.7704]]],[[[139.7383,38.7704],[139.7383,38.7704],[139.7383,38.7704],[139.7383,38.7704]]],[[[139.7375,38.7704],[139.7375,38.7704],[139.7375,38.7704],[139.7375,38.7704]]],[[[139.7377,38.7704],[139.7377,38.7704],[139.7377,38.7704],[139.7377,38.7704]]],[[[139.7383,38.7704],[139.7383,38.7704],[139.7382,38.7704],[139.7383,38.7704]]],[[[139.7378,38.7704],[139.7378,38.7704],[139.7378,38.7704],[139.7378,38.7704]]],[[[139.7379,38.7704],[139.7379,38.7704],[139.738,38.7704],[139.7379,38.7704]]],[[[139.7382,38.7704],[139.7382,38.7704],[139.7382,38.7704],[139.7382,38.7704]]],[[[139.7377,38.7704],[139.7377,38.7704],[139.7377,38.7704],[139.7377,38.7704]]],[[[139.7377,38.7704],[139.7376,38.7704],[139.7376,38.7704],[139.7377,38.7704]]],[[[139.7378,38.7704],[139.7378,38.7704],[139.7378,38.7704],[139.7378,38.7704]]],[[[139.7381,38.7704],[139.738,38.7704],[139.738,38.7705],[139.7381,38.7704]]],[[[139.738,38.7705],[139.738,38.7705],[139.7379,38.7704],[139.738,38.7705]]],[[[139.7378,38.7705],[139.7377,38.7705],[139.7377,38.7705],[139.7378,38.7705]]],[[[139.7378,38.7705],[139.7378,38.7705],[139.7379,38.7705],[139.7378,38.7705]]],[[[139.738,38.7706],[139.738,38.7706],[139.738,38.7705],[139.738,38.7706]]],[[[139.7383,38.7705],[139.7383,38.7705],[139.7382,38.7705],[139.7381,38.7706],[139.7383,38.7705]]],[[[139.7379,38.7705],[139.7378,38.7706],[139.7378,38.7706],[139.7379,38.7705]]],[[[139.738,38.7706],[139.738,38.7705],[139.7379,38.7706],[139.738,38.7706]]],[[[139.7381,38.7706],[139.7381,38.7706],[139.7381,38.7705],[139.7381,38.7706]]],[[[139.7387,38.7705],[139.7387,38.7706],[139.7387,38.7706],[139.7387,38.7705]]],[[[139.7374,38.7705],[139.7373,38.7706],[139.7374,38.7706],[139.7374,38.7705]]],[[[139.738,38.7706],[139.738,38.7706],[139.738,38.7706],[139.738,38.7706]]],[[[139.738,38.7706],[139.738,38.7706],[139.738,38.7706],[139.738,38.7706]]],[[[139.7383,38.7705],[139.7382,38.7707],[139.7383,38.7707],[139.7383,38.7705]]],[[[139.7381,38.7706],[139.7381,38.7706],[139.7381,38.7706],[139.7381,38.7706]]],[[[139.738,38.7706],[139.738,38.7706],[139.738,38.7706],[139.738,38.7706]]],[[[139.7378,38.7706],[139.7379,38.7706],[139.7379,38.7706],[139.7378,38.7706]]],[[[139.738,38.7706],[139.7379,38.7707],[139.7379,38.7707],[139.738,38.7706]]],[[[139.7388,38.7707],[139.7387,38.7706],[139.7387,38.7706],[139.7388,38.7707]]],[[[139.7388,38.7707],[139.7388,38.7707],[139.7388,38.7706],[139.7388,38.7707]]],[[[139.7384,38.7707],[139.7384,38.7707],[139.7384,38.7707],[139.7384,38.7707]]],[[[139.7381,38.7707],[139.7381,38.7707],[139.7381,38.7707],[139.7381,38.7707]]],[[[139.7378,38.7707],[139.7378,38.7707],[139.7378,38.7707],[139.7378,38.7707]]],[[[139.7388,38.7707],[139.7388,38.7707],[139.7388,38.7707],[139.7388,38.7707]]],[[[139.7389,38.7707],[139.7389,38.7707],[139.7389,38.7707],[139.7389,38.7707]]],[[[139.7382,38.7707],[139.7381,38.7707],[139.7383,38.7707],[139.7382,38.7707]]],[[[139.7385,38.7707],[139.7384,38.7707],[139.7384,38.7707],[139.7385,38.7707]]],[[[139.7381,38.7707],[139.7381,38.7707],[139.7381,38.7707],[139.7381,38.7707]]],[[[139.7386,38.7707],[139.7386,38.7707],[139.7386,38.7707],[139.7386,38.7707]]],[[[139.7392,38.7707],[139.7392,38.7708],[139.7392,38.7708],[139.7392,38.7707]]],[[[139.7372,38.7708],[139.7373,38.7708],[139.7373,38.7708],[139.7372,38.7708]]],[[[139.7392,38.7708],[139.7392,38.7708],[139.7392,38.7708],[139.7392,38.7708]]],[[[139.7391,38.7708],[139.7391,38.7708],[139.7391,38.7708],[139.7391,38.7708]]],[[[139.7393,38.7708],[139.7393,38.7708],[139.7393,38.7708],[139.7393,38.7708]]],[[[139.739,38.7708],[139.739,38.7708],[139.7391,38.7708],[139.739,38.7708]]],[[[139.7391,38.7709],[139.7391,38.7709],[139.739,38.7709],[139.7391,38.7709]]],[[[139.7384,38.7709],[139.7384,38.7709],[139.7384,38.7709],[139.7384,38.7709]]],[[[139.7384,38.7709],[139.7384,38.7709],[139.7384,38.7709],[139.7384,38.7709]]],[[[139.7384,38.7709],[139.7384,38.7709],[139.7384,38.7709],[139.7384,38.7709]]],[[[139.7392,38.7709],[139.7393,38.7709],[139.7393,38.7709],[139.7392,38.7709]]],[[[139.7392,38.771],[139.7392,38.771],[139.7393,38.7711],[139.7392,38.771]]],[[[139.7391,38.7711],[139.7391,38.7711],[139.7391,38.7711],[139.7391,38.7711]]],[[[139.739,38.7712],[139.739,38.7712],[139.739,38.7712],[139.739,38.7712]]],[[[139.7389,38.7712],[139.7389,38.7712],[139.7389,38.7712],[139.7389,38.7712]]],[[[139.7393,38.7712],[139.7391,38.7713],[139.7393,38.7713],[139.7393,38.7712]]],[[[139.7391,38.7718],[139.7391,38.7718],[139.7392,38.7718],[139.7391,38.7718]]],[[[139.7388,38.7719],[139.7388,38.7719],[139.7388,38.7718],[139.7388,38.7719]]],[[[139.7388,38.7719],[139.7388,38.7719],[139.7388,38.7719],[139.7388,38.7719]]],[[[139.7392,38.772],[139.7392,38.772],[139.7392,38.772],[139.7392,38.772]]],[[[139.739,38.7721],[139.739,38.7721],[139.739,38.7721],[139.739,38.7721]]],[[[139.6694,38.7179],[139.6735,38.7192],[139.6759,38.7184],[139.6775,38.7198],[139.6762,38.7184],[139.6766,38.7173],[139.6812,38.7176],[139.6812,38.7189],[139.679,38.7189],[139.6783,38.7181],[139.6771,38.718],[139.677,38.7182],[139.6789,38.719],[139.6824,38.719],[139.6832,38.7196],[139.6831,38.7189],[139.6852,38.7229],[139.6903,38.7231],[139.6895,38.7233],[139.6916,38.7243],[139.6936,38.7277],[139.6934,38.728],[139.6965,38.7285],[139.6985,38.7305],[139.697,38.7351],[139.7005,38.7373],[139.7057,38.7445],[139.7076,38.7438],[139.7088,38.7448],[139.7063,38.746],[139.7079,38.7474],[139.7074,38.7504],[139.71,38.7527],[139.7169,38.7548],[139.7165,38.7558],[139.7178,38.757],[139.7234,38.7591],[139.7249,38.7608],[139.7242,38.7607],[139.7244,38.7612],[139.7242,38.7619],[139.724,38.7621],[139.7223,38.7629],[139.7226,38.7633],[139.7245,38.7625],[139.7265,38.7624],[139.7265,38.7629],[139.7272,38.7624],[139.7275,38.7629],[139.7277,38.7627],[139.7285,38.7629],[139.7285,38.7632],[139.7288,38.7632],[139.7293,38.7645],[139.7295,38.7634],[139.7327,38.7632],[139.7326,38.7619],[139.7345,38.7628],[139.7314,38.7664],[139.7295,38.7662],[139.7326,38.7666],[139.733,38.7671],[139.7323,38.7675],[139.7334,38.7679],[139.7346,38.7687],[139.7344,38.769],[139.7346,38.7688],[139.7365,38.7694],[139.7372,38.7702],[139.7371,38.7705],[139.7379,38.7702],[139.7397,38.7709],[139.7395,38.7713],[139.7393,38.7714],[139.7405,38.7724],[139.7406,38.773],[139.7405,38.7725],[139.7396,38.7716],[139.7406,38.7718],[139.7413,38.7728],[139.7411,38.7733],[139.7412,38.7733],[139.7425,38.7733],[139.7442,38.7746],[139.7457,38.7745],[139.7464,38.7752],[139.7618,38.8002],[139.7669,38.8009],[139.7686,38.8039],[139.7875,38.8038],[139.7932,38.8139],[139.803,38.8118],[139.8041,38.8124],[139.8052,38.8112],[139.8055,38.8125],[139.8086,38.8126],[139.8083,38.8104],[139.8113,38.8099],[139.8111,38.8081],[139.8127,38.8132],[139.8234,38.8111],[139.823,38.816],[139.8246,38.8179],[139.8234,38.8146],[139.8249,38.8096],[139.8232,38.8087],[139.8221,38.8062],[139.8244,38.8067],[139.8231,38.8042],[139.8214,38.8044],[139.8206,38.8023],[139.823,38.8007],[139.8231,38.7992],[139.8191,38.7931],[139.816,38.7929],[139.8126,38.795],[139.8107,38.7949],[139.8097,38.7884],[139.812,38.7881],[139.8113,38.7863],[139.8121,38.7863],[139.8109,38.7853],[139.8131,38.7849],[139.8138,38.7867],[139.8168,38.7872],[139.8207,38.7839],[139.8256,38.7841],[139.8257,38.7853],[139.827,38.7853],[139.8271,38.7844],[139.8317,38.7846],[139.8317,38.7838],[139.8339,38.7839],[139.8343,38.7813],[139.8374,38.7813],[139.8377,38.78],[139.8394,38.7827],[139.8435,38.7827],[139.8446,38.776],[139.8513,38.771],[139.8539,38.7672],[139.8532,38.7617],[139.8486,38.7539],[139.8493,38.7518],[139.8555,38.7493],[139.8571,38.7506],[139.861,38.749],[139.8672,38.7494],[139.8675,38.7465],[139.8703,38.7466],[139.8712,38.7475],[139.8707,38.7537],[139.8655,38.7596],[139.8691,38.7599],[139.8714,38.7654],[139.8758,38.7653],[139.8764,38.768],[139.8802,38.767],[139.8815,38.7699],[139.8799,38.7704],[139.8837,38.779],[139.8854,38.7785],[139.8888,38.7861],[139.8873,38.787],[139.8893,38.7888],[139.8885,38.7913],[139.8867,38.7925],[139.8834,38.7942],[139.88,38.7938],[139.8759,38.7954],[139.8742,38.7976],[139.8743,38.7997],[139.871,38.8062],[139.8714,38.8074],[139.8694,38.8089],[139.8704,38.8141],[139.869,38.8149],[139.8664,38.8139],[139.8614,38.817],[139.8616,38.8186],[139.8601,38.8195],[139.8597,38.8218],[139.8608,38.8211],[139.8644,38.8231],[139.8659,38.8222],[139.8696,38.8266],[139.8715,38.8249],[139.8711,38.8238],[139.8741,38.8211],[139.8832,38.821],[139.8871,38.8195],[139.8877,38.8202],[139.8887,38.8182],[139.8959,38.8167],[139.9007,38.8105],[139.8993,38.8101],[139.8993,38.8085],[139.9086,38.8022],[139.9175,38.7981],[139.9188,38.7936],[139.9174,38.7916],[139.9199,38.788],[139.9271,38.787],[139.9313,38.7843],[139.9338,38.7803],[139.9368,38.7797],[139.9368,38.7774],[139.9399,38.776],[139.9412,38.7735],[139.9476,38.7719],[139.9488,38.7649],[139.9453,38.7602],[139.9445,38.7533],[139.9459,38.7529],[139.9463,38.7538],[139.9595,38.7501],[139.9646,38.7528],[139.9729,38.7514],[139.9744,38.7535],[139.9784,38.7545],[139.9809,38.7513],[139.9866,38.7507],[139.9907,38.7482],[139.9949,38.7477],[139.9941,38.7472],[139.9959,38.7427],[139.9933,38.7428],[139.9937,38.7418],[139.9969,38.7418],[139.9944,38.7378],[139.9945,38.7345],[139.9965,38.733],[139.9959,38.731],[139.9938,38.731],[139.9937,38.73],[139.997,38.7287],[139.9999,38.7251],[139.9955,38.7186],[139.9919,38.7174],[139.9916,38.7153],[139.9891,38.7142],[139.9879,38.7087],[139.9864,38.7075],[139.9887,38.7064],[139.9917,38.7013],[139.9906,38.6982],[139.9878,38.696],[139.9893,38.6893],[139.9884,38.6874],[139.99,38.6854],[139.9878,38.6837],[139.9869,38.6792],[139.9855,38.6787],[139.9871,38.6767],[139.9862,38.6723],[139.9884,38.6726],[139.9858,38.6693],[139.986,38.6647],[139.9836,38.6628],[139.9876,38.6516],[139.9966,38.6366],[139.9915,38.6272],[139.9888,38.6165],[139.9905,38.608],[139.9962,38.6002],[140.0054,38.5931],[140.0105,38.5927],[140.0195,38.589],[140.0208,38.5866],[140.0223,38.5725],[140.0242,38.5707],[140.0272,38.5628],[140.0292,38.5614],[140.0301,38.5585],[140.029,38.5561],[140.0293,38.5528],[140.0262,38.5468],[140.0129,38.5432],[140.0077,38.5393],[140.0033,38.5414],[140.0003,38.5394],[139.9932,38.5382],[139.9932,38.5368],[139.9891,38.5348],[139.9867,38.5319],[139.9747,38.5233],[139.967,38.5209],[139.9646,38.5184],[139.9572,38.5166],[139.9543,38.5153],[139.9535,38.5132],[139.9509,38.513],[139.9501,38.5117],[139.9518,38.51],[139.9481,38.508],[139.9476,38.5065],[139.943,38.507],[139.9404,38.5045],[139.9356,38.5049],[139.932,38.5023],[139.9351,38.4967],[139.9346,38.4945],[139.9371,38.4938],[139.9422,38.4889],[139.94,38.4862],[139.9325,38.4845],[139.9307,38.4818],[139.9262,38.4797],[139.9287,38.4776],[139.9279,38.474],[139.9293,38.474],[139.9297,38.4717],[139.9326,38.4696],[139.9276,38.4653],[139.9289,38.4642],[139.928,38.4619],[139.9292,38.4597],[139.9249,38.455],[139.9242,38.452],[139.9265,38.449],[139.9334,38.4482],[139.9342,38.4422],[139.9332,38.4388],[139.9345,38.4356],[139.9335,38.4342],[139.9351,38.4336],[139.9321,38.4316],[139.9296,38.4268],[139.9299,38.4233],[139.9273,38.4204],[139.9222,38.4186],[139.9171,38.4183],[139.9161,38.4127],[139.9144,38.4104],[139.9163,38.4079],[139.917,38.4022],[139.9213,38.3935],[139.9166,38.3875],[139.9128,38.3863],[139.9104,38.3825],[139.9099,38.3794],[139.9123,38.3747],[139.9119,38.373],[139.9174,38.3669],[139.915,38.3651],[139.9136,38.3627],[139.9144,38.3618],[139.9109,38.3576],[139.9103,38.3552],[139.9069,38.3533],[139.9024,38.3485],[139.9046,38.3458],[139.9027,38.3421],[139.903,38.3399],[139.8983,38.335],[139.8978,38.3322],[139.8958,38.3309],[139.8924,38.332],[139.8829,38.3263],[139.882,38.324],[139.8748,38.3168],[139.8669,38.3216],[139.8652,38.3259],[139.862,38.3286],[139.8561,38.3327],[139.8525,38.3329],[139.8476,38.3367],[139.8472,38.3381],[139.8489,38.3428],[139.8387,38.3428],[139.8369,38.3439],[139.8277,38.3447],[139.8255,38.3492],[139.826,38.3505],[139.82,38.3519],[139.8165,38.356],[139.8038,38.3551],[139.7988,38.3518],[139.7906,38.3488],[139.7853,38.3528],[139.7747,38.354],[139.7707,38.3529],[139.7616,38.3611],[139.7523,38.359],[139.7501,38.3594],[139.7438,38.3646],[139.7405,38.3651],[139.7346,38.3713],[139.7324,38.3716],[139.7288,38.3772],[139.7311,38.3815],[139.7255,38.3887],[139.7258,38.3916],[139.7226,38.3938],[139.7213,38.394],[139.7121,38.3868],[139.7098,38.3868],[139.7048,38.3936],[139.7034,38.4002],[139.7056,38.4074],[139.712,38.4125],[139.7125,38.4151],[139.7154,38.4187],[139.715,38.4199],[139.7172,38.4213],[139.7167,38.423],[139.7186,38.4289],[139.7165,38.4321],[139.7167,38.4353],[139.7184,38.4382],[139.7177,38.4472],[139.7201,38.4507],[139.7151,38.4594],[139.7151,38.4636],[139.7191,38.4662],[139.7157,38.4673],[139.7134,38.4696],[139.712,38.4717],[139.7114,38.4768],[139.7125,38.4795],[139.716,38.479],[139.7211,38.4835],[139.7252,38.4852],[139.7258,38.4868],[139.7247,38.4902],[139.7203,38.4934],[139.7218,38.4962],[139.7173,38.4982],[139.7102,38.4995],[139.7025,38.4992],[139.7003,38.5034],[139.6959,38.5039],[139.6932,38.5068],[139.6829,38.505],[139.6772,38.5053],[139.6746,38.5065],[139.6671,38.5065],[139.6637,38.5085],[139.6591,38.5073],[139.6559,38.5082],[139.6531,38.507],[139.6497,38.508],[139.6474,38.5106],[139.6378,38.5114],[139.636,38.5132],[139.6369,38.5157],[139.6324,38.5187],[139.6313,38.522],[139.6232,38.5233],[139.6212,38.5256],[139.6139,38.5262],[139.6114,38.524],[139.6081,38.525],[139.5998,38.5221],[139.5957,38.5254],[139.5952,38.5271],[139.5881,38.5305],[139.5867,38.5326],[139.5817,38.5329],[139.5809,38.536],[139.5789,38.537],[139.5773,38.5396],[139.571,38.5385],[139.5644,38.5434],[139.5607,38.5429],[139.5594,38.5436],[139.5594,38.5451],[139.5566,38.5452],[139.5564,38.5483],[139.5523,38.5477],[139.5527,38.5492],[139.5499,38.5532],[139.5476,38.5529],[139.5474,38.5525],[139.5477,38.5522],[139.5476,38.5517],[139.5471,38.5527],[139.548,38.5531],[139.5462,38.5545],[139.545,38.5542],[139.5445,38.556],[139.5434,38.5555],[139.545,38.5537],[139.5442,38.5541],[139.5433,38.5555],[139.5438,38.5567],[139.5428,38.5571],[139.5436,38.5574],[139.543,38.5583],[139.5391,38.5579],[139.5414,38.5593],[139.5405,38.5602],[139.5417,38.5607],[139.5421,38.5621],[139.5421,38.5609],[139.5435,38.5603],[139.5415,38.5605],[139.5418,38.5591],[139.5437,38.5598],[139.5452,38.5582],[139.5482,38.5598],[139.5483,38.5621],[139.5458,38.5624],[139.5459,38.5633],[139.5431,38.5622],[139.547,38.5639],[139.548,38.566],[139.5476,38.5667],[139.5496,38.5666],[139.5529,38.5701],[139.5554,38.5752],[139.5552,38.5739],[139.5575,38.5755],[139.5586,38.5788],[139.5565,38.58],[139.5597,38.5813],[139.5599,38.5828],[139.5589,38.5827],[139.5599,38.5842],[139.5596,38.5865],[139.5636,38.5896],[139.563,38.5902],[139.563,38.5903],[139.5639,38.5899],[139.5643,38.5916],[139.5624,38.5913],[139.5631,38.5922],[139.5648,38.5917],[139.5653,38.5926],[139.5636,38.5955],[139.5701,38.5996],[139.5704,38.6018],[139.5683,38.6024],[139.5741,38.605],[139.5751,38.608],[139.5737,38.6097],[139.574,38.6102],[139.5736,38.6104],[139.5742,38.6114],[139.5743,38.6096],[139.5774,38.6123],[139.5765,38.6136],[139.5779,38.6134],[139.5791,38.6162],[139.5805,38.6167],[139.585,38.6218],[139.584,38.6223],[139.5843,38.6228],[139.5851,38.6224],[139.5861,38.6238],[139.585,38.6251],[139.5842,38.6244],[139.5853,38.6261],[139.586,38.6249],[139.5872,38.6254],[139.5887,38.6284],[139.5884,38.6318],[139.5891,38.6321],[139.5897,38.6332],[139.5902,38.6329],[139.5906,38.633],[139.5907,38.633],[139.591,38.6332],[139.5917,38.6356],[139.5911,38.6358],[139.5928,38.6372],[139.5907,38.6379],[139.5918,38.6412],[139.5925,38.6406],[139.5909,38.6379],[139.5917,38.6376],[139.5934,38.6393],[139.5926,38.64],[139.5951,38.6392],[139.596,38.6403],[139.5961,38.6414],[139.5948,38.6421],[139.5967,38.6452],[139.5952,38.6467],[139.5963,38.6464],[139.5981,38.6497],[139.5983,38.6487],[139.5983,38.6504],[139.6003,38.6511],[139.6013,38.6529],[139.6007,38.6546],[139.6054,38.6586],[139.6058,38.6611],[139.6112,38.6643],[139.6098,38.6691],[139.6151,38.6715],[139.6147,38.6743],[139.6211,38.6785],[139.6221,38.6817],[139.6231,38.6818],[139.6272,38.6874],[139.6277,38.6876],[139.6292,38.6872],[139.6305,38.6867],[139.6313,38.6874],[139.6312,38.6871],[139.63,38.6864],[139.6279,38.6874],[139.6276,38.6868],[139.6321,38.6849],[139.6328,38.6857],[139.6317,38.6865],[139.6329,38.6857],[139.6324,38.6851],[139.6353,38.6847],[139.6384,38.6866],[139.6378,38.6877],[139.6391,38.687],[139.6412,38.6885],[139.6419,38.6908],[139.6431,38.6912],[139.6426,38.6923],[139.6447,38.6933],[139.6435,38.6917],[139.6459,38.6921],[139.6484,38.6938],[139.6504,38.6961],[139.6497,38.697],[139.6511,38.6977],[139.6526,38.7025],[139.6533,38.7024],[139.6543,38.7034],[139.6557,38.7029],[139.6602,38.7041],[139.6594,38.7046],[139.6606,38.7043],[139.661,38.7055],[139.6609,38.7056],[139.6609,38.7056],[139.6605,38.7058],[139.6613,38.706],[139.6605,38.7071],[139.6613,38.7072],[139.6605,38.7077],[139.6623,38.7072],[139.6635,38.7083],[139.6624,38.7132],[139.6637,38.7126],[139.664,38.7139],[139.6648,38.7135],[139.6674,38.714],[139.6666,38.7158],[139.6676,38.7154],[139.6672,38.7164],[139.6691,38.7175],[139.669,38.7182],[139.6694,38.7179]]],[[[139.7394,38.7708],[139.7394,38.7708],[139.7394,38.7708],[139.7394,38.7708]]],[[[139.7393,38.771],[139.7394,38.771],[139.7394,38.771],[139.7393,38.771]]],[[[139.7394,38.7712],[139.7394,38.7711],[139.7394,38.7711],[139.7394,38.7712]]],[[[139.7395,38.7711],[139.7395,38.7712],[139.7395,38.7711],[139.7395,38.7711]]],[[[139.7393,38.7712],[139.7393,38.7712],[139.7394,38.7712],[139.7393,38.7712]]],[[[139.7393,38.7717],[139.7393,38.7718],[139.7394,38.7718],[139.7393,38.7717]]],[[[139.7396,38.7719],[139.7395,38.7719],[139.7395,38.7719],[139.7396,38.7719]]],[[[139.7396,38.7719],[139.7398,38.7719],[139.7397,38.7719],[139.7396,38.7719]]],[[[139.7397,38.772],[139.7397,38.772],[139.7397,38.772],[139.7397,38.772]]],[[[139.74,38.7727],[139.7401,38.7727],[139.7401,38.7727],[139.74,38.7727]]],[[[139.7402,38.7727],[139.7402,38.7727],[139.7402,38.7727],[139.7402,38.7727]]],[[[139.74,38.7727],[139.74,38.7728],[139.74,38.7727],[139.74,38.7727]]],[[[139.7401,38.7728],[139.7401,38.7727],[139.7401,38.7727],[139.7401,38.7728]]],[[[139.7399,38.7728],[139.7399,38.7728],[139.7399,38.7727],[139.7399,38.7728]]],[[[139.7403,38.7728],[139.7403,38.7728],[139.7404,38.7728],[139.7403,38.7728]]],[[[139.7403,38.7728],[139.7403,38.7728],[139.7403,38.7728],[139.7403,38.7728]]],[[[139.7402,38.7729],[139.7403,38.7728],[139.7402,38.7728],[139.7402,38.7729]]],[[[139.7404,38.7729],[139.7404,38.7728],[139.7404,38.7728],[139.7404,38.7729]]],[[[139.7402,38.7729],[139.7402,38.7729],[139.7402,38.7729],[139.7402,38.7729]]],[[[139.7398,38.7729],[139.7398,38.7729],[139.7398,38.7729],[139.7398,38.7729]]],[[[139.7403,38.7729],[139.7402,38.7729],[139.7403,38.7729],[139.7403,38.7729]]],[[[139.7404,38.773],[139.7405,38.7729],[139.7404,38.7729],[139.7404,38.773]]],[[[139.741,38.7729],[139.7409,38.773],[139.741,38.773],[139.741,38.7729]]],[[[139.7403,38.773],[139.7403,38.773],[139.7403,38.773],[139.7403,38.773]]],[[[139.7404,38.773],[139.7404,38.773],[139.7404,38.773],[139.7404,38.773]]],[[[139.7399,38.773],[139.7398,38.7731],[139.7401,38.773],[139.7399,38.773]]],[[[139.7404,38.7731],[139.7403,38.773],[139.7403,38.773],[139.7404,38.7731]]],[[[139.7404,38.773],[139.7404,38.773],[139.7404,38.773],[139.7404,38.773]]],[[[139.7402,38.7731],[139.7402,38.7731],[139.7402,38.7731],[139.7402,38.7731]]],[[[139.74,38.7731],[139.74,38.7732],[139.74,38.7731],[139.74,38.7731]]],[[[139.7397,38.7732],[139.7397,38.7731],[139.7397,38.7731],[139.7397,38.7732]]],[[[139.7398,38.7731],[139.7397,38.7733],[139.7399,38.7733],[139.7398,38.7731]]],[[[139.7412,38.7733],[139.7412,38.7733],[139.7412,38.7733],[139.7412,38.7733]]],[[[139.7411,38.7733],[139.7411,38.7733],[139.7411,38.7733],[139.7411,38.7733]]],[[[139.7412,38.7733],[139.7413,38.7733],[139.7413,38.7733],[139.7412,38.7733]]],[[[139.7414,38.7733],[139.7414,38.7734],[139.7414,38.7733],[139.7414,38.7733]]],[[[139.7414,38.7734],[139.7414,38.7733],[139.7414,38.7733],[139.7414,38.7734]]],[[[139.7415,38.7734],[139.7415,38.7733],[139.7414,38.7733],[139.7415,38.7734]]],[[[139.7415,38.7734],[139.7415,38.7734],[139.7415,38.7734],[139.7415,38.7734]]],[[[139.7416,38.7734],[139.7416,38.7734],[139.7416,38.7734],[139.7416,38.7734]]],[[[139.7416,38.7734],[139.7416,38.7734],[139.7416,38.7734],[139.7416,38.7734]]],[[[139.7412,38.7734],[139.7412,38.7734],[139.7412,38.7734],[139.7412,38.7734]]],[[[139.7416,38.7734],[139.7416,38.7734],[139.7416,38.7734],[139.7416,38.7734]]],[[[139.7414,38.7734],[139.7414,38.7734],[139.7414,38.7734],[139.7414,38.7734]]],[[[139.7415,38.7734],[139.7415,38.7734],[139.7416,38.7734],[139.7415,38.7734]]],[[[139.7411,38.7734],[139.741,38.7734],[139.7411,38.7734],[139.7411,38.7734]]],[[[139.7413,38.7734],[139.7413,38.7734],[139.7414,38.7734],[139.7413,38.7734]]],[[[139.7415,38.7734],[139.7415,38.7734],[139.7415,38.7734],[139.7415,38.7734]]],[[[139.7412,38.7735],[139.7412,38.7735],[139.7412,38.7735],[139.7412,38.7735]]],[[[139.7422,38.7735],[139.7421,38.7735],[139.7422,38.7735],[139.7422,38.7735]]],[[[139.7421,38.7735],[139.7421,38.7735],[139.7421,38.7735],[139.7421,38.7735]]],[[[139.7417,38.7736],[139.7414,38.7737],[139.7415,38.7737],[139.7417,38.7736]]],[[[139.7417,38.7738],[139.7418,38.7737],[139.7418,38.7737],[139.7417,38.7738]]],[[[139.7423,38.7738],[139.7422,38.7738],[139.7422,38.7738],[139.7423,38.7738]]],[[[139.7421,38.7738],[139.7421,38.7738],[139.7421,38.7738],[139.7421,38.7738]]],[[[139.7425,38.7739],[139.7425,38.7738],[139.7425,38.7739],[139.7425,38.7739]]],[[[139.7457,38.7746],[139.7457,38.7746],[139.7457,38.7746],[139.7457,38.7746]]],[[[139.7456,38.7746],[139.7456,38.7746],[139.7456,38.7746],[139.7456,38.7746]]],[[[139.7457,38.7747],[139.7457,38.7747],[139.7457,38.7747],[139.7457,38.7747]]],[[[139.7456,38.7747],[139.7456,38.7747],[139.7456,38.7747],[139.7456,38.7747]]],[[[139.7456,38.7747],[139.7455,38.7747],[139.7455,38.7747],[139.7456,38.7747]]],[[[139.7454,38.7747],[139.7454,38.7747],[139.7454,38.7747],[139.7454,38.7747]]],[[[139.7456,38.7747],[139.7456,38.7747],[139.7456,38.7747],[139.7456,38.7747]]],[[[139.7455,38.7748],[139.7455,38.7747],[139.7455,38.7747],[139.7455,38.7748]]],[[[139.8238,38.8081],[139.824,38.8075],[139.8233,38.8073],[139.8238,38.8081]]]]}},{"type":"Feature","properties":{"code":"06204","name":"酒田市","pref_code":"06","pref":"山形県"},"geometry":{"type":"MultiPolygon","coordinates":[[[[139.5247,39.1784],[139.5249,39.1785],[139.5248,39.1784],[139.5247,39.1784]]],[[[139.525,39.1785],[139.5252,39.1785],[139.525,39.1785],[139.525,39.1785]]],[[[139.5251,39.1787],[139.5255,39.179],[139.5255,39.1789],[139.5251,39.1787]]],[[[139.5235,39.1789],[139.5237,39.1792],[139.5239,39.179],[139.5235,39.1789]]],[[[139.5241,39.1793],[139.5241,39.1795],[139.5242,39.1794],[139.5241,39.1793]]],[[[139.5236,39.18],[139.5234,39.1803],[139.5237,39.1801],[139.5236,39.18]]],[[[139.5248,39.1806],[139.5249,39.1805],[139.5249,39.1804],[139.5248,39.1806]]],[[[139.525,39.1805],[139.5251,39.1809],[139.5253,39.1806],[139.525,39.1805]]],[[[139.5246,39.1815],[139.5246,39.1802],[139.5237,39.1805],[139.5246,39.1815]]],[[[139.5258,39.1808],[139.5255,39.1815],[139.5262,39.1814],[139.5258,39.1808]]],[[[139.5237,39.1816],[139.5238,39.1813],[139.5234,39.1813],[139.5237,39.1816]]],[[[139.5259,39.1817],[139.526,39.182],[139.5261,39.1817],[139.5259,39.1817]]],[[[139.5246,39.1825],[139.5248,39.1816],[139.5242,39.1816],[139.5246,39.1825]]],[[[139.5266,39.1822],[139.526,39.1822],[139.5264,39.1828],[139.5266,39.1822]]],[[[139.5215,39.184],[139.5217,39.1837],[139.5214,39.184],[139.5215,39.184]]],[[[139.5215,39.1843],[139.5216,39.1842],[139.5214,39.1842],[139.5215,39.1843]]],[[[139.5239,39.1849],[139.5244,39.1843],[139.5237,39.1845],[139.5239,39.1849]]],[[[139.5222,39.1848],[139.5224,39.1849],[139.5224,39.1848],[139.5222,39.1848]]],[[[139.5236,39.185],[139.5241,39.1855],[139.5242,39.1852],[139.5236,39.185]]],[[[139.52,39.1856],[139.5202,39.1857],[139.5201,39.1856],[139.52,39.1856]]],[[[139.5231,39.1861],[139.5232,39.1865],[139.5234,39.1862],[139.5231,39.1861]]],[[[139.5225,39.1875],[139.5224,39.1851],[139.5204,39.1859],[139.5225,39.1875]]],[[[139.5385,39.1927],[139.5384,39.1921],[139.5382,39.1923],[139.5385,39.1927]]],[[[139.5386,39.1977],[139.5382,39.1973],[139.5379,39.1976],[139.5386,39.1977]]],[[[139.5448,39.1812],[139.545,39.1812],[139.5448,39.1812],[139.5448,39.1812]]],[[[139.5458,39.1817],[139.5459,39.1816],[139.5458,39.1816],[139.5458,39.1817]]],[[[139.5472,39.1823],[139.5477,39.1811],[139.5464,39.1819],[139.5472,39.1823]]],[[[139.5462,39.1822],[139.5464,39.1822],[139.5462,39.1821],[139.5462,39.1822]]],[[[139.5458,39.1823],[139.5459,39.1826],[139.546,39.1822],[139.5458,39.1823]]],[[[139.5399,39.184],[139.5406,39.1832],[139.5399,39.1839],[139.5399,39.184]]],[[[139.548,39.1837],[139.5474,39.1844],[139.5481,39.1837],[139.548,39.1837]]],[[[139.5386,39.1859],[139.5387,39.1855],[139.5385,39.1857],[139.5386,39.1859]]],[[[139.5392,39.1917],[139.5393,39.1913],[139.5391,39.1916],[139.5392,39.1917]]],[[[139.5389,39.1975],[139.539,39.1979],[139.5392,39.1979],[139.5389,39.1975]]],[[[139.5409,39.1986],[139.5404,39.1979],[139.5399,39.1981],[139.5409,39.1986]]],[[[139.5446,39.1986],[139.5445,39.1982],[139.5444,39.1983],[139.5446,39.1986]]],[[[139.5435,39.1986],[139.5432,39.1986],[139.5435,39.1987],[139.5435,39.1986]]],[[[139.5407,39.1989],[139.5403,39.1986],[139.5402,39.1988],[139.5407,39.1989]]],[[[139.5433,39.199],[139.5431,39.1986],[139.5429,39.1988],[139.5433,39.199]]],[[[139.5437,39.1992],[139.5436,39.1989],[139.5434,39.1992],[139.5437,39.1992]]],[[[139.5477,39.2001],[139.548,39.1998],[139.5473,39.1999],[139.5477,39.2001]]],[[[139.5449,39.2037],[139.5451,39.2039],[139.5451,39.2037],[139.5449,39.2037]]],[[[139.5448,39.2043],[139.5447,39.2041],[139.5445,39.2043],[139.5448,39.2043]]],[[[139.5458,39.2044],[139.5456,39.2043],[139.5456,39.2045],[139.5458,39.2044]]],[[[139.5454,39.2047],[139.5455,39.2049],[139.5457,39.2049],[139.5454,39.2047]]],[[[139.5479,39.2071],[139.5477,39.2073],[139.5479,39.2074],[139.5479,39.2071]]],[[[139.5459,39.2073],[139.546,39.2075],[139.5461,39.2074],[139.5459,39.2073]]],[[[139.5453,39.2107],[139.5454,39.2109],[139.5454,39.2107],[139.5453,39.2107]]],[[[140.0758,39.0862],[140.1015,39.0836],[140.1145,39.0784],[140.115,39.0749],[140.1165,39.073],[140.1169,39.0682],[140.1201,39.068],[140.1248,39.0638],[140.1332,39.0632],[140.1378,39.0656],[140.1384,39.0639],[140.1439,39.0613],[140.1436,39.0596],[140.148,39.0551],[140.1478,39.0536],[140.1508,39.0495],[140.14,39.0461],[140.1351,39.0429],[140.1337,39.0373],[140.1313,39.0338],[140.1259,39.0308],[140.1229,39.0309],[140.121,39.0277],[140.1196,39.0276],[140.1188,39.0246],[140.1166,39.0256],[140.1144,39.0245],[140.1149,39.0212],[140.1187,39.0187],[140.1179,39.0146],[140.1211,39.0134],[140.1218,39.01],[140.1196,39.0077],[140.1209,39.0023],[140.118,39.0009],[140.1191,38.9983],[140.1176,38.997],[140.1172,38.9948],[140.1182,38.9935],[140.1149,38.9938],[140.1146,38.9958],[140.1132,38.9966],[140.1099,38.9918],[140.1116,38.9877],[140.1113,38.9851],[140.1142,38.9847],[140.1159,38.9818],[140.1245,38.9807],[140.1278,38.9811],[140.1322,38.9836],[140.1334,38.9821],[140.1371,38.9818],[140.1393,38.9792],[140.141,38.9791],[140.1415,38.9776],[140.1433,38.978],[140.1439,38.9735],[140.146,38.9723],[140.1472,38.97],[140.1442,38.9687],[140.1451,38.967],[140.1376,38.961],[140.1401,38.9588],[140.1414,38.9515],[140.1439,38.9507],[140.1413,38.946],[140.1375,38.9436],[140.1292,38.946],[140.1267,38.9455],[140.1259,38.9436],[140.1215,38.9415],[140.1206,38.9371],[140.1228,38.9321],[140.1218,38.93],[140.1221,38.9247],[140.124,38.9212],[140.1275,38.9198],[140.1305,38.9161],[140.1389,38.9173],[140.1401,38.9147],[140.1388,38.9111],[140.135,38.9072],[140.1286,38.9042],[140.1247,38.9002],[140.1198,38.8976],[140.1182,38.8948],[140.1193,38.8911],[140.1157,38.8877],[140.1178,38.8868],[140.1173,38.8841],[140.1185,38.8824],[140.1146,38.8773],[140.1201,38.8744],[140.1204,38.8727],[140.1181,38.8723],[140.1143,38.8691],[140.1054,38.8665],[140.101,38.8671],[140.0954,38.8636],[140.0926,38.8636],[140.0936,38.8626],[140.0914,38.8621],[140.0887,38.8584],[140.0904,38.854],[140.0884,38.8516],[140.0898,38.8485],[140.0878,38.8423],[140.1023,38.837],[140.1133,38.8352],[140.1149,38.8323],[140.1175,38.8311],[140.1174,38.821],[140.112,38.8174],[140.1073,38.8184],[140.0966,38.8176],[140.089,38.8191],[140.083,38.8175],[140.0796,38.8146],[140.0768,38.8142],[140.0768,38.8108],[140.0802,38.8055],[140.0854,38.8021],[140.0853,38.8005],[140.0734,38.7977],[140.0748,38.7933],[140.0695,38.7929],[140.0692,38.7913],[140.0674,38.7911],[140.0674,38.7895],[140.0656,38.7887],[140.0556,38.7892],[140.0467,38.7819],[140.0425,38.7814],[140.0382,38.7759],[140.0342,38.7741],[140.0306,38.7796],[140.0277,38.7883],[140.0253,38.791],[140.0145,38.7947],[139.9979,38.792],[139.995,38.7952],[139.9934,38.8066],[139.9919,38.8092],[139.9789,38.8166],[139.9761,38.8156],[139.9786,38.814],[139.9671,38.816],[139.9679,38.8259],[139.9671,38.8271],[139.9686,38.8286],[139.9663,38.8314],[139.9634,38.8306],[139.9536,38.8341],[139.9513,38.8341],[139.949,38.8327],[139.947,38.8345],[139.9482,38.8354],[139.9434,38.8411],[139.9481,38.8451],[139.9465,38.8478],[139.9432,38.8474],[139.934,38.8541],[139.9396,38.8573],[139.9405,38.8565],[139.9466,38.8646],[139.9452,38.8649],[139.9375,38.8732],[139.9203,38.88],[139.9162,38.8807],[139.9177,38.8836],[139.9166,38.8846],[139.9026,38.8845],[139.9015,38.883],[139.8996,38.883],[139.8996,38.8819],[139.9008,38.8817],[139.9055,38.8755],[139.9041,38.8756],[139.904,38.8738],[139.9018,38.8739],[139.9017,38.8717],[139.9006,38.8715],[139.9018,38.8711],[139.8998,38.8705],[139.9002,38.8695],[139.8889,38.8664],[139.8886,38.8653],[139.8855,38.8684],[139.8834,38.867],[139.8858,38.8563],[139.8905,38.8561],[139.8919,38.8532],[139.8895,38.8537],[139.8897,38.8515],[139.8834,38.8495],[139.8833,38.8486],[139.8788,38.8482],[139.874,38.8505],[139.8722,38.8528],[139.8728,38.8542],[139.8679,38.8557],[139.8684,38.8567],[139.8659,38.8575],[139.8663,38.8584],[139.8611,38.86],[139.8606,38.859],[139.8487,38.8637],[139.8479,38.8627],[139.8483,38.8576],[139.8537,38.8538],[139.8578,38.8532],[139.857,38.8499],[139.8581,38.8496],[139.8568,38.8459],[139.8585,38.8456],[139.8576,38.8419],[139.8548,38.8422],[139.8547,38.8466],[139.8534,38.8475],[139.8534,38.8436],[139.8551,38.8394],[139.8595,38.8362],[139.8589,38.8335],[139.8603,38.8328],[139.861,38.8293],[139.8643,38.8295],[139.8632,38.8261],[139.8607,38.8266],[139.8576,38.8248],[139.857,38.8269],[139.854,38.8248],[139.847,38.8245],[139.8464,38.8266],[139.8434,38.8259],[139.844,38.8245],[139.8413,38.8247],[139.8392,38.8273],[139.8327,38.8314],[139.8253,38.8338],[139.8222,38.8385],[139.8128,38.8408],[139.8146,38.8384],[139.8144,38.8321],[139.8162,38.828],[139.8143,38.8238],[139.8162,38.8231],[139.8152,38.8214],[139.8237,38.8194],[139.8228,38.8148],[139.8234,38.8111],[139.8127,38.8132],[139.8111,38.8081],[139.8113,38.8099],[139.8083,38.8104],[139.8086,38.8126],[139.8055,38.8125],[139.8052,38.8112],[139.8041,38.8124],[139.803,38.8118],[139.7932,38.8139],[139.7875,38.8038],[139.7686,38.8039],[139.7669,38.8009],[139.7618,38.8002],[139.7774,38.8323],[139.7814,38.8443],[139.7927,38.8702],[139.8048,38.9061],[139.8049,38.9115],[139.8075,38.918],[139.8087,38.9253],[139.8005,38.9285],[139.7978,38.9345],[139.793,38.9366],[139.7981,38.9346],[139.8006,38.9286],[139.8087,38.9254],[139.8099,38.9285],[139.8082,38.9284],[139.8079,38.9285],[139.81,38.9286],[139.8101,38.9297],[139.8029,38.9301],[139.8052,38.9307],[139.8079,38.9361],[139.8131,38.9346],[139.816,38.9368],[139.8157,38.9391],[139.8178,38.9428],[139.8116,38.9449],[139.8143,38.9503],[139.8124,38.951],[139.8218,38.9492],[139.824,38.9533],[139.8315,38.9547],[139.8318,38.9539],[139.8341,38.9541],[139.834,38.9555],[139.835,38.9543],[139.8359,38.956],[139.8341,38.9557],[139.8375,38.9629],[139.8337,38.964],[139.8328,38.9599],[139.8256,38.9573],[139.8245,38.9576],[139.8256,38.9573],[139.826,38.9584],[139.8243,38.9588],[139.8238,38.9579],[139.8242,38.9589],[139.8189,38.9605],[139.826,38.9749],[139.8324,38.9732],[139.8386,38.9817],[139.8391,38.9837],[139.838,38.9846],[139.8394,38.9842],[139.8402,38.9851],[139.849,38.9808],[139.8513,38.9772],[139.8542,38.9759],[139.8575,38.9761],[139.8611,38.9785],[139.8669,38.98],[139.868,38.9911],[139.8714,38.991],[139.8721,38.9949],[139.87,38.995],[139.8674,38.997],[139.8695,39.0006],[139.8734,38.9996],[139.8734,39.0005],[139.8764,39.0012],[139.8963,38.9984],[139.8961,38.9973],[139.8981,38.9971],[139.9013,38.9999],[139.8999,38.9915],[139.9061,38.9914],[139.906,38.9896],[139.9085,38.9903],[139.9086,38.9889],[139.9178,38.9893],[139.915,38.9865],[139.9153,38.9838],[139.9174,38.985],[139.937,38.9871],[139.9437,38.9889],[139.9468,38.9906],[139.9476,38.993],[139.9521,38.9948],[139.9643,38.9968],[139.9706,39.0024],[139.9747,39.0032],[139.9756,39.0011],[139.9767,39.0012],[139.9915,39.0082],[140.0057,39.008],[140.0065,39.007],[140.0067,39.0078],[140.013,39.0086],[140.0157,39.0114],[140.0168,39.0214],[140.0199,39.0243],[140.0223,39.0319],[140.0245,39.0337],[140.0285,39.0418],[140.0308,39.0447],[140.0387,39.0465],[140.0392,39.0516],[140.0375,39.0585],[140.0401,39.0693],[140.0433,39.0706],[140.06,39.0828],[140.0625,39.0929],[140.0758,39.0862]]],[[[139.8005,38.95],[139.7989,38.9466],[139.7908,38.941],[139.7986,38.9467],[139.8005,38.95]]],[[[139.8257,38.9754],[139.8184,38.9608],[139.8011,38.9486],[139.8182,38.9609],[139.8257,38.9754]]],[[[139.548,39.1811],[139.5481,39.1812],[139.5481,39.181],[139.548,39.1811]]],[[[139.5504,39.1874],[139.55,39.1849],[139.55,39.1864],[139.5504,39.1874]]],[[[139.5505,39.1888],[139.5505,39.1879],[139.5504,39.1879],[139.5505,39.1888]]],[[[139.551,39.1897],[139.5516,39.1899],[139.551,39.1897],[139.551,39.1897]]],[[[139.5551,39.192],[139.5573,39.1929],[139.5575,39.1929],[139.5551,39.192]]],[[[139.5631,39.1947],[139.5631,39.1944],[139.5628,39.1946],[139.5631,39.1947]]],[[[139.5507,39.2083],[139.5549,39.2056],[139.5561,39.2063],[139.5589,39.2049],[139.5553,39.2057],[139.5571,39.205],[139.5561,39.2043],[139.5575,39.203],[139.5587,39.2037],[139.5592,39.2035],[139.5596,39.2028],[139.5589,39.2036],[139.5586,39.2028],[139.5604,39.2021],[139.5597,39.2028],[139.5603,39.2036],[139.5605,39.2021],[139.5647,39.1988],[139.5638,39.1973],[139.5645,39.1966],[139.5619,39.1953],[139.5609,39.1962],[139.5599,39.1948],[139.5583,39.1956],[139.5571,39.194],[139.5541,39.1934],[139.556,39.1929],[139.5543,39.1931],[139.5516,39.1915],[139.5514,39.1902],[139.5502,39.1905],[139.5502,39.1895],[139.5509,39.1903],[139.5496,39.1885],[139.5497,39.1896],[139.5479,39.1875],[139.5499,39.1883],[139.5481,39.1864],[139.5482,39.1847],[139.5473,39.1867],[139.547,39.1838],[139.5486,39.1832],[139.5508,39.1842],[139.5517,39.1843],[139.5493,39.1818],[139.546,39.1829],[139.544,39.1815],[139.5411,39.183],[139.5426,39.1832],[139.5398,39.1879],[139.5411,39.1931],[139.5405,39.194],[139.5393,39.1934],[139.5392,39.1955],[139.5413,39.1949],[139.5494,39.2007],[139.5502,39.2027],[139.5489,39.2071],[139.5507,39.2083]]],[[[139.5645,39.1954],[139.5656,39.1948],[139.5642,39.195],[139.5645,39.1954]]],[[[139.5657,39.1978],[139.5656,39.1981],[139.5659,39.1979],[139.5657,39.1978]]],[[[139.5673,39.1988],[139.5674,39.1992],[139.5675,39.1989],[139.5673,39.1988]]],[[[139.5685,39.1998],[139.5683,39.1992],[139.5681,39.1994],[139.5685,39.1998]]],[[[139.5605,39.2039],[139.5588,39.204],[139.5605,39.204],[139.5605,39.2039]]],[[[139.5515,39.2097],[139.5516,39.2101],[139.5517,39.2097],[139.5515,39.2097]]],[[[139.5512,39.2106],[139.5512,39.2105],[139.5511,39.2106],[139.5512,39.2106]]],[[[139.5523,39.2124],[139.5523,39.2126],[139.5525,39.2125],[139.5523,39.2124]]],[[[139.5522,39.213],[139.5524,39.213],[139.5523,39.2129],[139.5522,39.213]]],[[[139.5557,39.2144],[139.5557,39.2143],[139.5557,39.2143],[139.5557,39.2144]]],[[[139.5555,39.2149],[139.5556,39.2144],[139.5554,39.2145],[139.5555,39.2149]]],[[[139.5508,39.2155],[139.5505,39.215],[139.5502,39.2152],[139.5508,39.2155]]]]}},{"type":"Feature","properties":{"code":"06461","name":"遊佐町","pref_code":"06","pref":"山形県"},"geometry":{"type":"MultiPolygon","coordinates":[[[[140.0665,39.1008],[140.0669,39.0977],[140.0625,39.0929],[140.06,39.0828],[140.0433,39.0706],[140.0401,39.0693],[140.0375,39.0585],[140.0392,39.0516],[140.0387,39.0465],[140.0308,39.0447],[140.0285,39.0418],[140.0245,39.0337],[140.0223,39.0319],[140.0199,39.0243],[140.0168,39.0214],[140.0157,39.0114],[140.0135,39.0088],[140.0067,39.0078],[140.0065,39.007],[140.0057,39.008],[139.9915,39.0082],[139.9767,39.0012],[139.9756,39.0011],[139.9747,39.0032],[139.9706,39.0024],[139.9643,38.9968],[139.9521,38.9948],[139.9476,38.993],[139.9468,38.9906],[139.9437,38.9889],[139.937,38.9871],[139.9174,38.985],[139.9153,38.9838],[139.915,38.9865],[139.9178,38.9893],[139.9086,38.9889],[139.9085,38.9903],[139.906,38.9896],[139.9061,38.9914],[139.8999,38.9915],[139.9013,38.9999],[139.8981,38.9971],[139.8961,38.9973],[139.8963,38.9984],[139.8764,39.0012],[139.8734,39.0005],[139.8734,38.9996],[139.8695,39.0006],[139.8675,38.9976],[139.87,38.995],[139.8721,38.9949],[139.8714,38.991],[139.868,38.9911],[139.867,38.9801],[139.8657,38.9794],[139.8611,38.9785],[139.8575,38.9761],[139.8542,38.9759],[139.8513,38.9772],[139.849,38.9808],[139.8402,38.9851],[139.8416,38.9879],[139.8408,38.9887],[139.8421,38.9891],[139.8446,38.9955],[139.844,38.9974],[139.8453,38.9976],[139.8478,39.0037],[139.8474,39.006],[139.8488,39.0061],[139.8498,39.0079],[139.8672,39.0523],[139.8706,39.0665],[139.8656,39.0673],[139.8646,39.0691],[139.8656,39.0674],[139.8703,39.0666],[139.87,39.0689],[139.8723,39.0683],[139.8728,39.0696],[139.8726,39.0705],[139.8703,39.0704],[139.8716,39.0697],[139.8698,39.0699],[139.8679,39.068],[139.8666,39.0682],[139.8663,39.0686],[139.8679,39.0682],[139.8699,39.0706],[139.8637,39.0708],[139.8699,39.0706],[139.8675,39.0737],[139.8728,39.0778],[139.8724,39.0796],[139.8708,39.0803],[139.871,39.0821],[139.8722,39.082],[139.8736,39.0881],[139.8773,39.0901],[139.8782,39.095],[139.8793,39.0962],[139.8774,39.0996],[139.8787,39.1022],[139.8782,39.1043],[139.877,39.1048],[139.8777,39.1054],[139.8734,39.1061],[139.8736,39.1099],[139.8692,39.1124],[139.8706,39.115],[139.8689,39.1156],[139.8696,39.1183],[139.906,39.1188],[139.9457,39.1128],[139.948,39.1172],[139.9945,39.1055],[139.9976,39.1158],[140.0078,39.123],[140.0624,39.1335],[140.0616,39.1111],[140.0665,39.1008]]],[[[139.8749,39.0892],[139.875,39.0895],[139.8752,39.0896],[139.8749,39.0892]]],[[[139.8748,39.0898],[139.875,39.0895],[139.8748,39.0898],[139.8748,39.0898]]],[[[139.8781,39.1032],[139.8778,39.1033],[139.8781,39.1033],[139.8781,39.1032]]],[[[139.8695,39.1118],[139.8693,39.112],[139.8694,39.112],[139.8695,39.1118]]],[[[139.8688,39.1129],[139.8687,39.1131],[139.8689,39.1131],[139.8688,39.1129]]]]}}]}