{"type":"FeatureCollection","pref_code":"07","features":[{"type":"Feature","properties":{"code":"07204","name":"いわき市","pref_code":"07","pref":"福島県"},"geometry":{"type":"MultiPolygon","coordinates":[[[[140.7928,36.8611],[140.7935,36.8622],[140.7937,36.8622],[140.7928,36.8611]]],[[[140.7927,36.8774],[140.7928,36.8773],[140.7927,36.8773],[140.7927,36.8774]]],[[[140.8385,36.9095],[140.8385,36.9096],[140.8386,36.9095],[140.8385,36.9095]]],[[[140.9072,36.9164],[140.8864,36.9106],[140.8835,36.9079],[140.8833,36.908],[140.8863,36.9107],[140.9072,36.9164]]],[[[140.8502,36.9136],[140.8503,36.9131],[140.85,36.9134],[140.8502,36.9136]]],[[[140.8667,36.9151],[140.8725,36.9177],[140.8726,36.9176],[140.8667,36.9149],[140.8648,36.9127],[140.8667,36.9151]]],[[[140.8625,36.9178],[140.8607,36.916],[140.8606,36.916],[140.8616,36.917],[140.8625,36.9178]]],[[[140.8769,36.9197],[140.8845,36.9207],[140.8847,36.9206],[140.8734,36.9182],[140.8769,36.9197]]],[[[140.9125,36.9224],[140.9127,36.9223],[140.9116,36.9212],[140.9125,36.9224]]],[[[140.9087,36.9386],[140.9042,36.9385],[140.8998,36.9366],[140.9009,36.9326],[140.9028,36.9316],[140.8978,36.9261],[140.8926,36.9288],[140.8909,36.9266],[140.8888,36.9171],[140.8886,36.9172],[140.8902,36.9268],[140.898,36.9358],[140.9041,36.9386],[140.9096,36.9387],[140.909,36.9373],[140.9087,36.9386]]],[[[140.9195,36.9339],[140.9197,36.9339],[140.9197,36.9339],[140.9195,36.9339]]],[[[140.9186,36.934],[140.9186,36.9339],[140.9186,36.9339],[140.9186,36.934]]],[[[140.9181,36.9339],[140.9182,36.9341],[140.9184,36.934],[140.9181,36.9339]]],[[[140.9193,36.934],[140.9196,36.9341],[140.9193,36.934],[140.9193,36.934]]],[[[140.9181,36.9343],[140.9179,36.9344],[140.9182,36.9343],[140.9181,36.9343]]],[[[140.9183,36.9344],[140.9184,36.9345],[140.9183,36.9344],[140.9183,36.9344]]],[[[140.9065,36.9342],[140.9036,36.9366],[140.9066,36.9343],[140.9065,36.9342]]],[[[140.9256,36.9359],[140.9256,36.9358],[140.9255,36.9359],[140.9256,36.9359]]],[[[140.926,36.9365],[140.9258,36.9363],[140.9257,36.9364],[140.926,36.9365]]],[[[140.8866,36.9377],[140.8866,36.9388],[140.8879,36.9384],[140.8878,36.9384],[140.8866,36.9377]]],[[[140.954,36.9531],[140.954,36.9529],[140.9531,36.9528],[140.954,36.9531]]],[[[140.9499,36.9533],[140.9499,36.9533],[140.95,36.9533],[140.9499,36.9533]]],[[[140.9545,36.9533],[140.9573,36.954],[140.9544,36.9532],[140.9545,36.9533]]],[[[140.9547,36.9565],[140.9551,36.9556],[140.9546,36.9566],[140.9547,36.9565]]],[[[140.9531,36.9581],[140.9535,36.9584],[140.9543,36.9566],[140.9531,36.9581]]],[[[140.9512,36.9598],[140.9507,36.9601],[140.9512,36.9599],[140.9512,36.9598]]],[[[140.9533,36.9599],[140.9533,36.9606],[140.9534,36.9599],[140.9533,36.9599]]],[[[140.952,36.9605],[140.9518,36.9606],[140.952,36.9605],[140.952,36.9605]]],[[[140.9516,36.9606],[140.9518,36.9605],[140.9516,36.9605],[140.9516,36.9606]]],[[[140.9506,36.9609],[140.9511,36.9611],[140.9511,36.9611],[140.9506,36.9609]]],[[[140.9603,36.9672],[140.9604,36.9673],[140.9603,36.9672],[140.9603,36.9672]]],[[[140.725,37.3189],[140.728,37.3172],[140.725,37.3155],[140.7254,37.3139],[140.7289,37.3128],[140.7317,37.3101],[140.7286,37.31],[140.7286,37.3081],[140.7345,37.305],[140.7352,37.3019],[140.7395,37.2987],[140.7438,37.2968],[140.7443,37.2984],[140.7493,37.3005],[140.7529,37.2975],[140.7596,37.2972],[140.7616,37.301],[140.7662,37.2988],[140.7646,37.2965],[140.7664,37.2949],[140.7726,37.2951],[140.7778,37.2968],[140.7787,37.2961],[140.7779,37.2936],[140.7804,37.2905],[140.7798,37.2882],[140.7868,37.2878],[140.793,37.2849],[140.7946,37.2822],[140.7962,37.282],[140.7959,37.2799],[140.7912,37.28],[140.787,37.2752],[140.7884,37.2731],[140.7877,37.2717],[140.7895,37.2698],[140.7875,37.2674],[140.7893,37.2648],[140.7928,37.2641],[140.7948,37.2613],[140.801,37.2586],[140.8026,37.2554],[140.8041,37.2549],[140.8034,37.2529],[140.8048,37.2515],[140.8072,37.2543],[140.815,37.2525],[140.8182,37.2529],[140.8201,37.2547],[140.8278,37.2543],[140.8277,37.2559],[140.832,37.2604],[140.8375,37.2619],[140.8402,37.2599],[140.8459,37.2583],[140.8535,37.2579],[140.853,37.2595],[140.8572,37.2657],[140.8573,37.27],[140.8595,37.2747],[140.8634,37.2742],[140.8654,37.2767],[140.8728,37.2753],[140.8774,37.2773],[140.8719,37.2715],[140.8728,37.2674],[140.872,37.2635],[140.8681,37.2619],[140.8671,37.2597],[140.8696,37.2545],[140.8747,37.2531],[140.8757,37.2507],[140.875,37.249],[140.877,37.2467],[140.8763,37.2417],[140.8781,37.2407],[140.8733,37.2333],[140.8683,37.2319],[140.867,37.2282],[140.8714,37.2267],[140.8729,37.222],[140.8751,37.2209],[140.89,37.2215],[140.8972,37.2201],[140.8999,37.2214],[140.9023,37.2174],[140.9042,37.2165],[140.9041,37.2138],[140.9168,37.2073],[140.9157,37.2053],[140.9162,37.2033],[140.9254,37.2046],[140.9266,37.2036],[140.9257,37.2014],[140.9286,37.2004],[140.9292,37.1991],[140.933,37.1987],[140.9362,37.1953],[140.9472,37.191],[140.9498,37.1882],[140.9553,37.1881],[140.9565,37.1859],[140.9597,37.1882],[140.9632,37.1868],[140.9688,37.1892],[140.9758,37.1873],[140.9777,37.1878],[140.9786,37.1861],[140.9806,37.1856],[140.9886,37.1841],[140.9949,37.1838],[140.9972,37.1847],[141.0014,37.1828],[141.001,37.1737],[140.9994,37.1709],[140.9998,37.1692],[141.0019,37.1666],[141.0023,37.16],[141.0005,37.1555],[141.0034,37.1523],[141.0027,37.151],[141.0039,37.1503],[141.005,37.1493],[141.0051,37.1474],[141.0049,37.1493],[141.0025,37.1511],[141.0004,37.1506],[140.9999,37.1492],[141.0022,37.1491],[141.0012,37.149],[141.0029,37.1473],[141.0025,37.1489],[141.0036,37.1461],[141.0016,37.147],[141.0034,37.1456],[141.0044,37.1464],[141.0044,37.146],[141.0051,37.1458],[141.0055,37.1445],[141.0051,37.1455],[141.0013,37.1442],[140.9983,37.1354],[140.9975,37.1226],[140.9983,37.1196],[141.0005,37.1182],[141.0006,37.1185],[141.0008,37.1187],[141.0005,37.118],[140.9997,37.1174],[141.0008,37.1176],[141.0006,37.1162],[140.9982,37.115],[140.9999,37.1134],[140.9993,37.1108],[141.0004,37.1101],[141.0006,37.1089],[140.999,37.1106],[140.9981,37.1093],[140.9994,37.1088],[140.9981,37.1081],[140.9977,37.1088],[140.9966,37.1078],[140.9979,37.1079],[140.9972,37.107],[140.9962,37.1075],[140.9948,37.1056],[140.9978,37.1051],[140.9982,37.1069],[140.9991,37.108],[141.0001,37.1082],[140.9984,37.107],[140.9976,37.1034],[140.9977,37.1048],[140.9962,37.1049],[140.9946,37.1038],[140.9968,37.1026],[140.9937,37.1042],[140.9906,37.1024],[140.9867,37.0965],[140.9827,37.0893],[140.9763,37.0663],[140.9737,37.0532],[140.9735,37.0457],[140.9746,37.0448],[140.9742,37.0397],[140.9733,37.0386],[140.974,37.0374],[140.9727,37.0361],[140.9727,37.023],[140.9747,37.0127],[140.9775,37.0104],[140.9799,37.0112],[140.9811,37.0106],[140.9794,37.0104],[140.9804,37.0097],[140.9795,37.0083],[140.9807,37.0096],[140.9807,37.0089],[140.982,37.0097],[140.982,37.0093],[140.9791,37.0081],[140.9791,37.0067],[140.9812,36.9969],[140.9828,36.9967],[140.9816,36.9961],[140.9831,36.9955],[140.9781,36.9933],[140.9776,36.992],[140.9786,36.9921],[140.9793,36.9931],[140.9807,36.9934],[140.979,36.992],[140.9765,36.992],[140.9759,36.9925],[140.9732,36.9916],[140.9709,36.989],[140.9673,36.9825],[140.9665,36.9787],[140.967,36.9757],[140.9695,36.9731],[140.9656,36.9722],[140.967,36.9704],[140.9664,36.9699],[140.9639,36.97],[140.9624,36.9693],[140.9613,36.9693],[140.961,36.9689],[140.9613,36.9693],[140.9625,36.9694],[140.9632,36.9702],[140.9611,36.9697],[140.96,36.9706],[140.9588,36.9698],[140.9599,36.9677],[140.9575,36.9659],[140.9588,36.9647],[140.9603,36.9676],[140.9617,36.968],[140.9604,36.9676],[140.9597,36.9655],[140.9588,36.9647],[140.9571,36.9654],[140.9518,36.9602],[140.9529,36.9618],[140.9528,36.9623],[140.9496,36.9609],[140.9492,36.9593],[140.9507,36.9593],[140.9494,36.9565],[140.9513,36.9554],[140.9528,36.9565],[140.9511,36.9551],[140.9463,36.9553],[140.9459,36.9541],[140.9462,36.9551],[140.9446,36.9554],[140.9454,36.9545],[140.9444,36.9545],[140.9445,36.9553],[140.9409,36.9546],[140.9342,36.9503],[140.9296,36.9457],[140.929,36.9435],[140.9256,36.941],[140.9258,36.939],[140.9269,36.9391],[140.9249,36.9381],[140.9254,36.936],[140.9246,36.9352],[140.9184,36.9345],[140.9152,36.9364],[140.9102,36.9356],[140.9087,36.9342],[140.9102,36.9358],[140.915,36.9364],[140.9144,36.9381],[140.9103,36.9392],[140.9117,36.9389],[140.9133,36.9403],[140.9145,36.9388],[140.9141,36.9396],[140.9149,36.9392],[140.9162,36.9407],[140.9135,36.9427],[140.9124,36.9415],[140.9129,36.9409],[140.9093,36.943],[140.9122,36.9416],[140.9133,36.9428],[140.91,36.9438],[140.9093,36.9455],[140.9076,36.9454],[140.9063,36.9408],[140.9052,36.941],[140.9058,36.9432],[140.9047,36.9434],[140.9046,36.9448],[140.9031,36.9447],[140.9018,36.9413],[140.8997,36.9413],[140.8999,36.9438],[140.898,36.9432],[140.8971,36.9399],[140.8951,36.939],[140.8957,36.9424],[140.8932,36.9417],[140.8911,36.9368],[140.8883,36.9388],[140.889,36.9397],[140.885,36.9384],[140.8883,36.9344],[140.8842,36.932],[140.8818,36.9347],[140.8791,36.9331],[140.8828,36.929],[140.8805,36.9277],[140.877,36.9316],[140.8762,36.9312],[140.8772,36.9318],[140.8759,36.9332],[140.8749,36.9326],[140.8757,36.9317],[140.8749,36.9325],[140.8734,36.9316],[140.874,36.9311],[140.8726,36.9293],[140.8751,36.928],[140.8741,36.9266],[140.8715,36.9279],[140.8691,36.9263],[140.874,36.9238],[140.8722,36.9224],[140.867,36.925],[140.8616,36.9217],[140.8629,36.9179],[140.8649,36.9162],[140.8612,36.919],[140.8606,36.9186],[140.8597,36.9206],[140.8581,36.9198],[140.8585,36.9197],[140.8599,36.9185],[140.8583,36.9197],[140.8569,36.9185],[140.8589,36.917],[140.8601,36.918],[140.859,36.917],[140.8607,36.9169],[140.8589,36.9169],[140.8538,36.9201],[140.8454,36.9127],[140.8436,36.9134],[140.8451,36.9117],[140.8424,36.9108],[140.8415,36.9088],[140.8395,36.9107],[140.8354,36.9094],[140.8371,36.9104],[140.8362,36.912],[140.8361,36.9103],[140.8336,36.9117],[140.8323,36.9116],[140.8317,36.9101],[140.8293,36.9126],[140.8275,36.9129],[140.8166,36.9083],[140.8,36.894],[140.7947,36.8852],[140.7899,36.8747],[140.789,36.868],[140.7891,36.8652],[140.792,36.8618],[140.7912,36.862],[140.7894,36.8596],[140.7914,36.8595],[140.7922,36.8612],[140.7921,36.8589],[140.7934,36.8592],[140.791,36.8586],[140.7897,36.8565],[140.7856,36.8568],[140.7864,36.8621],[140.7819,36.8633],[140.7778,36.8673],[140.7735,36.8663],[140.7721,36.8686],[140.7721,36.8651],[140.7671,36.8677],[140.769,36.8654],[140.7717,36.8645],[140.7715,36.8631],[140.7679,36.8616],[140.7654,36.8621],[140.7672,36.8623],[140.7663,36.8633],[140.7673,36.8651],[140.7654,36.8674],[140.766,36.8644],[140.7641,36.8631],[140.7635,36.864],[140.7646,36.8667],[140.763,36.8644],[140.7614,36.8664],[140.7599,36.8667],[140.7605,36.8702],[140.762,36.8704],[140.7601,36.8724],[140.7579,36.8724],[140.76,36.871],[140.7584,36.8673],[140.7547,36.8699],[140.7457,36.8713],[140.7408,36.8756],[140.7342,36.8716],[140.7312,36.8725],[140.7309,36.8738],[140.7294,36.8744],[140.7241,36.874],[140.7233,36.871],[140.7207,36.8711],[140.7195,36.8726],[140.7143,36.8728],[140.7099,36.8771],[140.7055,36.8784],[140.705,36.8803],[140.7061,36.8815],[140.7024,36.8835],[140.6989,36.8837],[140.6951,36.8888],[140.6925,36.8875],[140.689,36.8882],[140.688,36.8885],[140.6883,36.8895],[140.6835,36.8907],[140.6801,36.8934],[140.6734,36.8932],[140.6643,36.8966],[140.6561,36.8972],[140.655,36.901],[140.6509,36.8997],[140.6469,36.901],[140.6464,36.8994],[140.6362,36.8976],[140.6352,36.899],[140.6307,36.9],[140.628,36.9029],[140.6258,36.9019],[140.6224,36.9033],[140.621,36.9025],[140.6155,36.9033],[140.6147,36.9042],[140.6156,36.9067],[140.6143,36.9086],[140.6128,36.9106],[140.6108,36.9105],[140.6072,36.9128],[140.6029,36.92],[140.6008,36.9209],[140.6012,36.9228],[140.5927,36.9267],[140.5941,36.9284],[140.5945,36.9323],[140.5925,36.936],[140.5945,36.938],[140.5929,36.9393],[140.5917,36.9381],[140.5893,36.9395],[140.5861,36.9453],[140.587,36.9464],[140.5853,36.949],[140.5859,36.9511],[140.5827,36.9534],[140.5825,36.9557],[140.5836,36.9571],[140.5824,36.9654],[140.5801,36.9659],[140.5792,36.9688],[140.571,36.974],[140.57,36.9801],[140.566,36.9845],[140.5659,36.9858],[140.5687,36.9868],[140.5699,36.99],[140.5775,36.9926],[140.5796,36.995],[140.5882,36.9995],[140.5902,37.0021],[140.5934,37.0013],[140.5968,37.0046],[140.5994,37.0052],[140.603,37.0101],[140.5985,37.0136],[140.5985,37.0157],[140.601,37.0159],[140.6039,37.0134],[140.6078,37.0147],[140.6121,37.0127],[140.6173,37.0152],[140.6209,37.0204],[140.6219,37.0281],[140.6203,37.0314],[140.6206,37.0345],[140.6242,37.0364],[140.6245,37.042],[140.6277,37.0439],[140.6276,37.0453],[140.6247,37.0461],[140.625,37.0491],[140.6274,37.0516],[140.634,37.0532],[140.6331,37.0544],[140.6338,37.0556],[140.6429,37.0566],[140.6429,37.0588],[140.6406,37.0629],[140.6424,37.0636],[140.64,37.0685],[140.6431,37.0714],[140.6541,37.0723],[140.6548,37.0742],[140.6572,37.0749],[140.6581,37.0765],[140.6573,37.0781],[140.6532,37.0784],[140.6522,37.08],[140.6555,37.081],[140.653,37.0858],[140.6579,37.0853],[140.6554,37.0874],[140.6557,37.0889],[140.6573,37.0898],[140.662,37.0879],[140.6649,37.09],[140.6644,37.095],[140.6624,37.0963],[140.6619,37.1012],[140.6569,37.1049],[140.6576,37.1101],[140.6553,37.1145],[140.653,37.1149],[140.6559,37.1173],[140.6547,37.1181],[140.6527,37.1171],[140.6506,37.12],[140.6463,37.1192],[140.6429,37.1225],[140.6433,37.124],[140.6413,37.1269],[140.6428,37.1296],[140.6429,37.1335],[140.6375,37.1399],[140.6379,37.142],[140.6349,37.1439],[140.6352,37.1471],[140.6323,37.155],[140.6312,37.1557],[140.6297,37.155],[140.63,37.152],[140.6275,37.148],[140.6278,37.1464],[140.624,37.1429],[140.6237,37.1468],[140.6212,37.1498],[140.6209,37.1527],[140.6167,37.1529],[140.6113,37.155],[140.614,37.1608],[140.612,37.1629],[140.6115,37.1655],[140.6086,37.1677],[140.6097,37.1718],[140.6054,37.1729],[140.6011,37.179],[140.6044,37.1814],[140.6046,37.1843],[140.6061,37.1846],[140.6076,37.1865],[140.6076,37.1927],[140.6051,37.1945],[140.6053,37.1987],[140.6076,37.202],[140.607,37.204],[140.6122,37.2044],[140.6139,37.2055],[140.6176,37.2037],[140.6254,37.209],[140.6279,37.212],[140.6319,37.2115],[140.6332,37.2134],[140.6369,37.2138],[140.641,37.217],[140.6429,37.2163],[140.6472,37.2176],[140.6497,37.2208],[140.6496,37.2221],[140.6532,37.2238],[140.6543,37.226],[140.657,37.2259],[140.6632,37.2284],[140.6652,37.2282],[140.668,37.2256],[140.6818,37.2331],[140.6836,37.237],[140.6829,37.2403],[140.6849,37.2416],[140.6843,37.2432],[140.6854,37.2446],[140.6829,37.2533],[140.6866,37.26],[140.6851,37.2622],[140.6855,37.2682],[140.6874,37.2689],[140.6886,37.2727],[140.6918,37.2746],[140.6938,37.2775],[140.6935,37.2806],[140.6908,37.2833],[140.692,37.2846],[140.6891,37.2873],[140.6937,37.2891],[140.6951,37.2925],[140.6939,37.2943],[140.695,37.2951],[140.6938,37.2965],[140.6947,37.2991],[140.6917,37.2989],[140.6902,37.3002],[140.6917,37.3044],[140.6909,37.3055],[140.6926,37.3068],[140.6956,37.315],[140.7034,37.3142],[140.7069,37.315],[140.7081,37.3173],[140.7137,37.319],[140.725,37.3189]]],[[[140.9695,36.9615],[140.9715,36.9624],[140.9685,36.961],[140.9695,36.9615]]],[[[140.964,36.9644],[140.9634,36.964],[140.9652,36.965],[140.964,36.9644]]],[[[140.9677,36.965],[140.968,36.966],[140.9679,36.965],[140.9677,36.965]]],[[[140.9661,36.9669],[140.9659,36.9659],[140.966,36.9669],[140.9661,36.9669]]],[[[140.961,36.9673],[140.9611,36.9674],[140.9612,36.9674],[140.961,36.9673]]],[[[140.9661,36.9687],[140.9659,36.9687],[140.9661,36.9688],[140.9661,36.9687]]],[[[140.9623,36.969],[140.9624,36.969],[140.9621,36.9687],[140.9623,36.969]]],[[[140.966,36.969],[140.9661,36.969],[140.966,36.969],[140.966,36.969]]],[[[140.9625,36.9693],[140.9624,36.9691],[140.9624,36.9691],[140.9625,36.9693]]],[[[140.9664,36.9695],[140.9663,36.9692],[140.9662,36.969],[140.9664,36.9695]]],[[[140.9671,36.9699],[140.9672,36.9699],[140.9671,36.9699],[140.9671,36.9699]]],[[[140.9678,36.9705],[140.9678,36.9707],[140.9679,36.9706],[140.9678,36.9705]]],[[[140.9717,36.9716],[140.971,36.9716],[140.9717,36.9718],[140.9717,36.9716]]],[[[140.9714,36.9719],[140.9707,36.9719],[140.9714,36.9721],[140.9714,36.9719]]],[[[140.972,36.9723],[140.9724,36.9727],[140.9725,36.9725],[140.972,36.9723]]],[[[140.9688,36.9727],[140.9689,36.9727],[140.9688,36.9726],[140.9688,36.9727]]],[[[140.9699,36.973],[140.9699,36.973],[140.9699,36.973],[140.9699,36.973]]],[[[140.97,36.973],[140.97,36.973],[140.97,36.973],[140.97,36.973]]],[[[140.9698,36.9731],[140.9699,36.9731],[140.9699,36.9731],[140.9698,36.9731]]],[[[140.9699,36.9732],[140.97,36.9732],[140.97,36.9732],[140.9699,36.9732]]],[[[140.9712,36.974],[140.9713,36.974],[140.9713,36.974],[140.9712,36.974]]],[[[140.9698,36.9742],[140.9698,36.9741],[140.9698,36.9741],[140.9698,36.9742]]],[[[140.9696,36.9741],[140.9697,36.9742],[140.9697,36.9741],[140.9696,36.9741]]],[[[140.97,36.9743],[140.9699,36.9742],[140.9699,36.9743],[140.97,36.9743]]],[[[140.9703,36.9745],[140.9702,36.9744],[140.9702,36.9744],[140.9703,36.9745]]],[[[140.9814,36.9933],[140.9812,36.9944],[140.9815,36.9934],[140.9814,36.9933]]],[[[140.9815,36.9942],[140.9814,36.9943],[140.9815,36.9942],[140.9815,36.9942]]],[[[140.9815,37.0097],[140.9815,37.0096],[140.9812,37.0095],[140.9815,37.0097]]],[[[140.9823,37.0096],[140.9822,37.0097],[140.9823,37.0096],[140.9823,37.0096]]],[[[140.9821,37.01],[140.982,37.01],[140.9822,37.01],[140.9821,37.01]]],[[[140.9818,37.0097],[140.9818,37.011],[140.9818,37.0097],[140.9818,37.0097]]],[[[140.9818,37.0116],[140.982,37.0115],[140.9818,37.0115],[140.9818,37.0116]]],[[[140.9837,36.9915],[140.9834,36.9916],[140.9836,36.9916],[140.9837,36.9915]]],[[[140.9825,37.01],[140.9825,37.0099],[140.9824,37.01],[140.9825,37.01]]],[[[140.9824,37.0101],[140.9824,37.0101],[140.9825,37.0101],[140.9824,37.0101]]],[[[140.999,37.1],[141.0008,37.1004],[140.9988,37.0999],[140.999,37.1]]],[[[140.9986,37.1035],[140.9986,37.1022],[140.9984,37.1035],[140.9986,37.1035]]],[[[141.0011,37.1081],[141.0011,37.1078],[141.0,37.1079],[141.0011,37.1081]]],[[[141.0008,37.109],[141.0009,37.1087],[141.0007,37.109],[141.0008,37.109]]],[[[141.0011,37.1092],[141.0011,37.1093],[141.0011,37.1094],[141.0011,37.1092]]],[[[141.0012,37.1096],[141.0012,37.1096],[141.0012,37.1095],[141.0012,37.1096]]],[[[141.0012,37.1106],[141.0011,37.1103],[141.001,37.1106],[141.0012,37.1106]]],[[[141.0012,37.1112],[141.0012,37.1113],[141.0012,37.1113],[141.0012,37.1112]]],[[[141.001,37.1115],[141.001,37.1115],[141.001,37.1115],[141.001,37.1115]]],[[[141.0009,37.1118],[141.001,37.112],[141.001,37.1118],[141.0009,37.1118]]],[[[141.0011,37.1121],[141.0011,37.1121],[141.0011,37.112],[141.0011,37.1121]]],[[[141.0011,37.1122],[141.0011,37.1123],[141.0011,37.1122],[141.0011,37.1122]]],[[[141.001,37.1124],[141.001,37.1126],[141.0011,37.1126],[141.001,37.1124]]],[[[140.9997,37.1139],[141.0,37.1137],[140.9996,37.1139],[140.9997,37.1139]]],[[[141.0002,37.1144],[141.0,37.1141],[141.0,37.1144],[141.0002,37.1144]]],[[[141.0006,37.1159],[141.0,37.1151],[140.9999,37.1154],[141.0006,37.1159]]],[[[141.0012,37.1157],[141.0011,37.1156],[141.0009,37.1157],[141.0012,37.1157]]],[[[141.0012,37.1157],[141.0012,37.1158],[141.0013,37.1158],[141.0012,37.1157]]],[[[141.0011,37.1158],[141.001,37.1158],[141.0011,37.1158],[141.0011,37.1158]]],[[[141.0005,37.1179],[141.0006,37.118],[141.0006,37.1179],[141.0005,37.1179]]],[[[141.0007,37.1179],[141.0007,37.1181],[141.0008,37.1181],[141.0007,37.1179]]],[[[141.0012,37.1185],[141.0012,37.1187],[141.0012,37.1188],[141.0012,37.1185]]],[[[141.0007,37.1187],[141.0005,37.1186],[141.0007,37.1188],[141.0007,37.1187]]],[[[141.0005,37.1193],[141.0005,37.1189],[141.0002,37.119],[141.0005,37.1193]]],[[[141.0003,37.1192],[141.0002,37.1191],[141.0002,37.1192],[141.0003,37.1192]]],[[[141.0002,37.1193],[141.0002,37.1193],[141.0003,37.1193],[141.0002,37.1193]]],[[[141.0008,37.1196],[141.0006,37.1193],[141.0005,37.1194],[141.0008,37.1196]]],[[[140.9991,37.1221],[140.999,37.1221],[140.999,37.1221],[140.9991,37.1221]]],[[[141.0006,37.1684],[141.0006,37.1686],[141.0007,37.1684],[141.0006,37.1684]]],[[[141.003,37.1095],[141.0038,37.1078],[141.0028,37.1095],[141.003,37.1095]]],[[[141.0017,37.1091],[141.0017,37.1093],[141.0017,37.1091],[141.0017,37.1091]]],[[[141.0013,37.1161],[141.0013,37.1163],[141.0014,37.1161],[141.0013,37.1161]]],[[[141.0014,37.1163],[141.0014,37.1164],[141.0015,37.1163],[141.0014,37.1163]]],[[[141.0014,37.1165],[141.0015,37.1166],[141.0015,37.1165],[141.0014,37.1165]]],[[[141.0014,37.1167],[141.0014,37.1168],[141.0014,37.1167],[141.0014,37.1167]]],[[[141.0014,37.1169],[141.0015,37.1172],[141.0015,37.1172],[141.0014,37.1169]]],[[[141.0014,37.1169],[141.0014,37.1173],[141.0015,37.1174],[141.0014,37.1169]]],[[[141.0062,37.1408],[141.0062,37.1409],[141.0063,37.1408],[141.0062,37.1408]]],[[[141.0061,37.1412],[141.0062,37.1413],[141.0062,37.1412],[141.0061,37.1412]]],[[[141.0061,37.1414],[141.0062,37.1414],[141.0062,37.1414],[141.0061,37.1414]]],[[[141.0062,37.1415],[141.0061,37.1416],[141.0062,37.1416],[141.0062,37.1415]]],[[[141.0061,37.142],[141.0059,37.1422],[141.006,37.1425],[141.0061,37.142]]],[[[141.006,37.1426],[141.0058,37.1429],[141.0059,37.1429],[141.006,37.1426]]],[[[141.0058,37.1433],[141.0057,37.1434],[141.0058,37.1433],[141.0058,37.1433]]],[[[141.0066,37.1465],[141.0067,37.1464],[141.0059,37.1454],[141.0066,37.1465]]],[[[141.0044,37.1464],[141.0045,37.1463],[141.0045,37.1463],[141.0044,37.1464]]],[[[141.0093,37.1462],[141.0083,37.1473],[141.0074,37.1485],[141.0093,37.1462]]],[[[141.0058,37.1507],[141.0058,37.1508],[141.0059,37.1508],[141.0058,37.1507]]],[[[141.0028,37.1534],[141.0026,37.1537],[141.0027,37.1538],[141.0028,37.1534]]],[[[141.0021,37.1539],[141.0021,37.1542],[141.0023,37.1541],[141.0021,37.1539]]],[[[141.003,37.1572],[141.003,37.1573],[141.003,37.1572],[141.003,37.1572]]],[[[141.0024,37.1622],[141.0023,37.1624],[141.0022,37.1625],[141.0024,37.1622]]],[[[141.0041,37.1639],[141.0041,37.1639],[141.0041,37.1639],[141.0041,37.1639]]],[[[141.0022,37.1639],[141.0021,37.164],[141.0022,37.164],[141.0022,37.1639]]],[[[141.0021,37.1664],[141.0021,37.1664],[141.0021,37.1664],[141.0021,37.1664]]],[[[141.0015,37.1681],[141.0015,37.168],[141.0015,37.168],[141.0015,37.1681]]],[[[141.0019,37.168],[141.002,37.1681],[141.0019,37.168],[141.0019,37.168]]],[[[141.0013,37.1685],[141.0014,37.1685],[141.0014,37.1685],[141.0013,37.1685]]],[[[141.0021,37.1686],[141.002,37.1687],[141.0022,37.1687],[141.0021,37.1686]]],[[[141.0013,37.1689],[141.0012,37.169],[141.0014,37.169],[141.0013,37.1689]]]]}},{"type":"Feature","properties":{"code":"07209","name":"相馬市","pref_code":"07","pref":"福島県"},"geometry":{"type":"MultiPolygon","coordinates":[[[[140.9675,37.8445],[140.9634,37.8389],[140.963,37.8359],[140.9641,37.835],[140.9632,37.8354],[140.9631,37.8314],[140.9701,37.8283],[140.9724,37.8316],[140.972,37.8308],[140.9738,37.8301],[140.9729,37.8285],[140.9755,37.8276],[140.9763,37.8291],[140.975,37.8297],[140.9763,37.8293],[140.9747,37.8321],[140.976,37.8304],[140.9764,37.829],[140.9755,37.8276],[140.9766,37.8271],[140.9773,37.8282],[140.978,37.828],[140.9769,37.827],[140.9784,37.8265],[140.9787,37.8278],[140.9796,37.8275],[140.9789,37.8263],[140.9811,37.8255],[140.9812,37.8279],[140.9776,37.829],[140.9753,37.8356],[140.9765,37.8373],[140.9755,37.8357],[140.9775,37.8299],[140.9813,37.828],[140.9812,37.8255],[140.9822,37.8244],[140.9872,37.8228],[140.9861,37.8211],[140.9859,37.8083],[140.9868,37.7899],[140.9892,37.7716],[140.9916,37.767],[140.9936,37.7666],[140.9974,37.763],[141.0005,37.763],[141.0002,37.7589],[141.0039,37.7546],[141.0047,37.7506],[141.0082,37.7499],[141.0121,37.7337],[141.0124,37.7262],[141.0113,37.7218],[141.0058,37.7212],[141.0019,37.7226],[140.9986,37.727],[140.9888,37.7333],[140.9795,37.7347],[140.9729,37.7394],[140.9702,37.7391],[140.9684,37.7404],[140.9637,37.741],[140.9615,37.7432],[140.9561,37.7427],[140.9541,37.7437],[140.9485,37.7418],[140.9452,37.7441],[140.9402,37.7432],[140.9337,37.745],[140.9243,37.7369],[140.9202,37.7393],[140.9174,37.7428],[140.9155,37.7426],[140.9135,37.7445],[140.9113,37.7439],[140.9089,37.7415],[140.904,37.7408],[140.9034,37.7418],[140.9,37.7392],[140.893,37.7413],[140.8913,37.7404],[140.889,37.7411],[140.8817,37.7465],[140.8741,37.7469],[140.8701,37.7448],[140.8674,37.7413],[140.853,37.7387],[140.848,37.7339],[140.8433,37.7334],[140.8402,37.7339],[140.8373,37.7367],[140.8354,37.7368],[140.8326,37.742],[140.8305,37.7431],[140.83,37.7455],[140.8273,37.7477],[140.8196,37.748],[140.813,37.7519],[140.8037,37.7534],[140.7994,37.7561],[140.794,37.7557],[140.7745,37.7602],[140.7715,37.7592],[140.7685,37.7616],[140.762,37.7593],[140.7593,37.7559],[140.757,37.7553],[140.7545,37.7516],[140.7502,37.7516],[140.7474,37.7534],[140.7439,37.7518],[140.7415,37.7519],[140.7407,37.7502],[140.7364,37.7506],[140.7322,37.7496],[140.7301,37.75],[140.7284,37.7519],[140.7309,37.7553],[140.7359,37.7572],[140.7367,37.7609],[140.7357,37.7683],[140.7309,37.7679],[140.7227,37.7614],[140.7217,37.762],[140.7138,37.76],[140.7075,37.7607],[140.7025,37.7595],[140.7,37.7639],[140.6974,37.7639],[140.6926,37.7672],[140.6844,37.7702],[140.6844,37.7729],[140.6826,37.7752],[140.6819,37.7787],[140.678,37.7797],[140.6784,37.7873],[140.6897,37.7964],[140.6939,37.7978],[140.6932,37.8001],[140.6944,37.8033],[140.7025,37.8032],[140.7122,37.8003],[140.7171,37.7949],[140.723,37.7925],[140.727,37.7815],[140.7329,37.7835],[140.738,37.7872],[140.7451,37.7885],[140.749,37.7853],[140.7588,37.7854],[140.7752,37.7818],[140.7874,37.7748],[140.795,37.7734],[140.7993,37.7761],[140.7998,37.7782],[140.8032,37.7799],[140.7949,37.7809],[140.7871,37.789],[140.7831,37.7898],[140.7831,37.7915],[140.7794,37.791],[140.7789,37.7933],[140.7743,37.7941],[140.7723,37.7974],[140.7682,37.7978],[140.7652,37.7961],[140.7644,37.797],[140.765,37.7983],[140.7731,37.8012],[140.775,37.8063],[140.7778,37.8063],[140.7832,37.8045],[140.7878,37.8015],[140.79,37.8019],[140.7922,37.8001],[140.7938,37.8006],[140.8008,37.7978],[140.806,37.798],[140.8102,37.7955],[140.8164,37.7983],[140.8216,37.7989],[140.8238,37.7987],[140.8305,37.7948],[140.8414,37.7961],[140.8521,37.7954],[140.8547,37.7973],[140.8546,37.7987],[140.858,37.8031],[140.8537,37.807],[140.8539,37.8117],[140.8582,37.8147],[140.8578,37.8169],[140.8537,37.821],[140.8543,37.8261],[140.856,37.8288],[140.8523,37.8299],[140.8527,37.8319],[140.8551,37.8338],[140.8534,37.8353],[140.8542,37.8419],[140.8695,37.8416],[140.8785,37.8435],[140.8882,37.8437],[140.9088,37.841],[140.9155,37.8375],[140.922,37.8359],[140.9283,37.8386],[140.9387,37.8378],[140.9443,37.8389],[140.9456,37.8376],[140.9484,37.838],[140.9592,37.8415],[140.9593,37.8394],[140.9551,37.8386],[140.9556,37.837],[140.957,37.8373],[140.9596,37.832],[140.9607,37.832],[140.9595,37.8314],[140.9623,37.8305],[140.9617,37.8325],[140.9625,37.8325],[140.9633,37.839],[140.9675,37.8445]]],[[[140.9722,37.8328],[140.971,37.8328],[140.975,37.8331],[140.9722,37.8328]]],[[[140.9635,37.8336],[140.9634,37.8337],[140.9635,37.8337],[140.9635,37.8336]]]]}},{"type":"Feature","properties":{"code":"07212","name":"南相馬市","pref_code":"07","pref":"福島県"},"geometry":{"type":"MultiPolygon","coordinates":[[[[140.8739,37.7469],[140.8817,37.7465],[140.889,37.7411],[140.8913,37.7404],[140.893,37.7413],[140.9,37.7392],[140.9034,37.7418],[140.904,37.7408],[140.9089,37.7415],[140.9113,37.7439],[140.9135,37.7445],[140.9155,37.7426],[140.9174,37.7428],[140.9202,37.7393],[140.9243,37.7369],[140.9337,37.745],[140.9402,37.7432],[140.9452,37.7441],[140.9485,37.7418],[140.9541,37.7437],[140.9561,37.7427],[140.9615,37.7432],[140.9637,37.741],[140.9684,37.7404],[140.9702,37.7391],[140.9729,37.7394],[140.9795,37.7347],[140.9888,37.7333],[140.9986,37.727],[141.0019,37.7226],[141.0058,37.7212],[141.0113,37.7218],[141.0111,37.7143],[141.0124,37.7105],[141.0107,37.7028],[141.0112,37.6884],[141.0132,37.6865],[141.0173,37.6872],[141.0134,37.6865],[141.0144,37.6806],[141.0137,37.6771],[141.0149,37.6738],[141.017,37.6715],[141.0258,37.6731],[141.0321,37.6733],[141.041,37.665],[141.0321,37.6732],[141.0258,37.673],[141.0191,37.6718],[141.0223,37.6643],[141.027,37.6651],[141.0274,37.664],[141.0293,37.6644],[141.0331,37.6669],[141.0294,37.6643],[141.0198,37.6626],[141.0197,37.6571],[141.0188,37.6573],[141.0201,37.6562],[141.0205,37.6575],[141.0205,37.6564],[141.0202,37.6562],[141.0195,37.656],[141.0227,37.6473],[141.0236,37.6465],[141.0232,37.6434],[141.0244,37.6416],[141.024,37.6407],[141.0246,37.6392],[141.0231,37.6382],[141.0224,37.6211],[141.0228,37.6152],[141.0271,37.603],[141.0249,37.5838],[141.0265,37.5709],[141.0257,37.5697],[141.0267,37.5602],[141.029,37.5543],[141.0292,37.5405],[141.0305,37.5363],[141.0312,37.5366],[141.0304,37.5356],[141.0305,37.5288],[141.0334,37.521],[141.0342,37.5136],[141.0151,37.5114],[141.0136,37.5104],[141.0111,37.5103],[141.0101,37.5121],[141.0049,37.5103],[141.0024,37.508],[140.9939,37.5082],[140.9888,37.5093],[140.9891,37.5108],[140.9832,37.5146],[140.9789,37.5151],[140.9763,37.517],[140.9748,37.5162],[140.9713,37.5184],[140.968,37.5189],[140.959,37.5185],[140.9577,37.5201],[140.9495,37.5221],[140.9449,37.5248],[140.942,37.5247],[140.9397,37.5259],[140.9385,37.5252],[140.9372,37.5288],[140.9323,37.5298],[140.9317,37.5313],[140.9179,37.5276],[140.9172,37.5241],[140.913,37.5185],[140.9096,37.5183],[140.9094,37.5206],[140.9062,37.522],[140.9007,37.5211],[140.8964,37.5217],[140.8954,37.5205],[140.8939,37.523],[140.8864,37.5258],[140.8801,37.5239],[140.8774,37.5262],[140.8791,37.5296],[140.875,37.5348],[140.8765,37.5376],[140.8754,37.5404],[140.877,37.542],[140.8745,37.5437],[140.8743,37.546],[140.8689,37.5491],[140.8652,37.5497],[140.8631,37.5524],[140.8591,37.5514],[140.8516,37.5553],[140.8475,37.555],[140.8466,37.5571],[140.8442,37.5586],[140.8434,37.5613],[140.8442,37.562],[140.843,37.564],[140.8439,37.5659],[140.843,37.5674],[140.8437,37.5696],[140.8392,37.5713],[140.8416,37.5732],[140.838,37.5772],[140.8432,37.5827],[140.8391,37.5904],[140.8398,37.5924],[140.8423,37.5936],[140.8365,37.5949],[140.834,37.5934],[140.8309,37.5967],[140.8261,37.5977],[140.826,37.5987],[140.829,37.6],[140.8293,37.6027],[140.8274,37.6038],[140.8245,37.6097],[140.8201,37.6129],[140.8149,37.6148],[140.8167,37.6147],[140.8191,37.6183],[140.8214,37.6171],[140.8226,37.615],[140.8249,37.615],[140.8281,37.6191],[140.829,37.6238],[140.8332,37.6301],[140.8278,37.6372],[140.8271,37.6411],[140.8288,37.6429],[140.8285,37.6452],[140.8259,37.6441],[140.8255,37.6468],[140.8226,37.6499],[140.8208,37.6556],[140.8234,37.66],[140.8234,37.6655],[140.8252,37.6698],[140.8234,37.6711],[140.8148,37.6724],[140.8136,37.675],[140.817,37.678],[140.8161,37.6796],[140.8196,37.681],[140.8197,37.6826],[140.8177,37.6851],[140.8191,37.6928],[140.8181,37.6947],[140.8225,37.6962],[140.8246,37.6992],[140.8228,37.7012],[140.8135,37.7019],[140.8103,37.7053],[140.8113,37.7071],[140.8154,37.7084],[140.8196,37.7125],[140.824,37.712],[140.827,37.7139],[140.8313,37.7145],[140.8361,37.7202],[140.843,37.7221],[140.8417,37.724],[140.8422,37.7283],[140.8399,37.734],[140.8477,37.7338],[140.853,37.7387],[140.8674,37.7413],[140.8704,37.745],[140.8739,37.7469]]],[[[141.0247,37.6393],[141.0247,37.6393],[141.0245,37.6397],[141.0247,37.6393]]],[[[141.0234,37.6445],[141.0234,37.6445],[141.0234,37.6446],[141.0234,37.6445]]],[[[141.0231,37.6472],[141.023,37.6472],[141.0231,37.6473],[141.0231,37.6472]]],[[[141.0262,37.6632],[141.0258,37.6633],[141.0261,37.6634],[141.0262,37.6632]]],[[[141.023,37.6654],[141.0212,37.6705],[141.0212,37.6707],[141.023,37.6654]]],[[[141.0255,37.6728],[141.0229,37.6722],[141.0229,37.6723],[141.0255,37.6728]]],[[[141.0162,37.6856],[141.0166,37.6857],[141.0166,37.6857],[141.0164,37.6856],[141.0162,37.6856]]],[[[141.019,37.6868],[141.0187,37.6882],[141.0192,37.6868],[141.019,37.6868]]]]}},{"type":"Feature","properties":{"code":"07541","name":"広野町","pref_code":"07","pref":"福島県"},"geometry":{"type":"MultiPolygon","coordinates":[[[[141.0015,37.1891],[141.0014,37.1891],[141.0014,37.1892],[141.0015,37.1891]]],[[[140.9056,37.2486],[140.9103,37.2459],[140.9134,37.2463],[140.9141,37.2449],[140.9215,37.2426],[140.9286,37.2454],[140.9313,37.2447],[140.9347,37.242],[140.9393,37.2462],[140.9432,37.2442],[140.9442,37.2449],[140.945,37.2442],[140.9456,37.2453],[140.9474,37.2426],[140.9492,37.2439],[140.9513,37.2433],[140.9506,37.2415],[140.9528,37.2403],[140.955,37.241],[140.9552,37.2434],[140.9626,37.2403],[140.9655,37.2426],[140.969,37.2418],[140.9713,37.2428],[140.9747,37.2418],[140.9773,37.2436],[140.9862,37.2423],[140.9885,37.2433],[140.9966,37.2411],[141.0009,37.2441],[141.0029,37.2415],[141.0053,37.2412],[141.0059,37.2421],[141.0111,37.2404],[141.0206,37.2404],[141.0215,37.2349],[141.0231,37.2348],[141.0165,37.2349],[141.0161,37.2337],[141.0164,37.2301],[141.0192,37.2294],[141.0221,37.2294],[141.0282,37.2381],[141.0287,37.2379],[141.0224,37.2291],[141.0159,37.2292],[141.016,37.2284],[141.0158,37.2292],[141.0129,37.2292],[141.0124,37.2284],[141.0121,37.2227],[141.0075,37.2163],[141.0044,37.2088],[141.0004,37.1836],[140.9971,37.1848],[140.9949,37.1838],[140.9885,37.1842],[140.9786,37.1861],[140.9777,37.1878],[140.9758,37.1873],[140.9688,37.1892],[140.9632,37.1868],[140.9597,37.1882],[140.9566,37.1859],[140.9552,37.1881],[140.9498,37.1882],[140.9472,37.191],[140.9362,37.1953],[140.933,37.1987],[140.9292,37.1991],[140.9286,37.2004],[140.9257,37.2014],[140.9266,37.2036],[140.9254,37.2046],[140.9162,37.2033],[140.9157,37.2053],[140.9168,37.2073],[140.9041,37.2138],[140.9042,37.2165],[140.9023,37.2174],[140.8999,37.2214],[140.8972,37.2201],[140.89,37.2215],[140.875,37.2209],[140.8725,37.2224],[140.8713,37.2268],[140.867,37.228],[140.8683,37.2319],[140.8733,37.2333],[140.8781,37.2407],[140.8815,37.2392],[140.8878,37.2391],[140.8906,37.2417],[140.8927,37.2418],[140.8955,37.2443],[140.8978,37.2443],[140.9056,37.2486]]],[[[141.0183,37.2347],[141.0181,37.2347],[141.0171,37.2347],[141.0183,37.2347]]]]}},{"type":"Feature","properties":{"code":"07542","name":"楢葉町","pref_code":"07","pref":"福島県"},"geometry":{"type":"MultiPolygon","coordinates":[[[[140.9183,37.3374],[140.9233,37.3351],[140.9288,37.3359],[140.9384,37.3349],[140.9398,37.3325],[140.9387,37.3303],[140.9397,37.327],[140.9421,37.3257],[140.9447,37.3259],[140.9465,37.3222],[140.9503,37.3232],[140.955,37.3206],[140.9576,37.3212],[140.9653,37.3199],[140.9685,37.3172],[140.9753,37.3167],[140.9854,37.3135],[140.9874,37.3125],[140.9875,37.3105],[140.9892,37.3089],[140.9945,37.3074],[140.9951,37.3061],[141.005,37.3048],[141.006,37.3035],[141.0068,37.3071],[141.0028,37.3119],[141.0048,37.3148],[141.0101,37.3161],[141.0156,37.3152],[141.0164,37.3173],[141.0187,37.3177],[141.0231,37.3159],[141.0281,37.3164],[141.0281,37.3136],[141.0292,37.3136],[141.0301,37.3193],[141.03,37.3179],[141.0324,37.3156],[141.0311,37.3146],[141.0299,37.3146],[141.0322,37.3155],[141.0299,37.3178],[141.0292,37.3136],[141.0315,37.3136],[141.0383,37.3191],[141.0386,37.319],[141.0316,37.3135],[141.0255,37.3135],[141.0242,37.3073],[141.0261,37.3041],[141.0241,37.3017],[141.0243,37.2962],[141.018,37.2777],[141.0139,37.2604],[141.0131,37.2411],[141.0111,37.2404],[141.0075,37.2419],[141.0029,37.2415],[141.0008,37.2441],[140.9966,37.2411],[140.9885,37.2433],[140.9862,37.2423],[140.9773,37.2436],[140.9747,37.2418],[140.9713,37.2428],[140.969,37.2418],[140.9655,37.2426],[140.9626,37.2403],[140.9552,37.2434],[140.955,37.241],[140.9528,37.2403],[140.9506,37.2415],[140.9513,37.2433],[140.9492,37.2439],[140.9474,37.2426],[140.9456,37.2453],[140.945,37.2442],[140.9442,37.2449],[140.9432,37.2442],[140.9393,37.2462],[140.9347,37.242],[140.9313,37.2447],[140.9286,37.2454],[140.9215,37.2426],[140.9141,37.2449],[140.9134,37.2463],[140.91,37.246],[140.9062,37.2488],[140.8978,37.2443],[140.8955,37.2443],[140.8878,37.2391],[140.8815,37.2392],[140.8763,37.2417],[140.877,37.2467],[140.875,37.249],[140.8757,37.2507],[140.8747,37.2531],[140.8696,37.2545],[140.8671,37.2597],[140.8681,37.2619],[140.872,37.2635],[140.8728,37.2674],[140.8719,37.2715],[140.8774,37.2773],[140.8822,37.2768],[140.8836,37.2776],[140.8853,37.284],[140.8886,37.2864],[140.8874,37.2929],[140.8906,37.2953],[140.9057,37.3002],[140.9037,37.3071],[140.8997,37.3082],[140.902,37.3117],[140.9003,37.3162],[140.9018,37.3163],[140.9022,37.3177],[140.9013,37.323],[140.9041,37.3266],[140.9033,37.3278],[140.9049,37.3316],[140.9075,37.3314],[140.9104,37.3338],[140.913,37.3334],[140.9148,37.3347],[140.915,37.3365],[140.9183,37.3374]]],[[[141.0315,37.3137],[141.0305,37.3137],[141.0305,37.3137],[141.0315,37.3137]]]]}},{"type":"Feature","properties":{"code":"07543","name":"富岡町","pref_code":"07","pref":"福島県"},"geometry":{"type":"MultiPolygon","coordinates":[[[[141.0295,37.3413],[141.0293,37.3414],[141.0295,37.3413],[141.0295,37.3413]]],[[[141.0301,37.3413],[141.0299,37.3414],[141.0302,37.3414],[141.0301,37.3413]]],[[[141.0303,37.342],[141.0302,37.3421],[141.0303,37.3422],[141.0303,37.342]]],[[[140.9496,37.3833],[140.9509,37.3804],[140.9555,37.3809],[140.9598,37.3794],[140.9632,37.3805],[140.9663,37.3799],[140.9765,37.381],[140.9852,37.3794],[140.9883,37.3781],[140.9922,37.3742],[140.9943,37.3755],[140.9991,37.3756],[141.0012,37.3739],[141.006,37.3741],[141.0092,37.3756],[141.0157,37.3735],[141.0173,37.3744],[141.0178,37.3769],[141.0203,37.377],[141.0218,37.3759],[141.0318,37.3743],[141.0341,37.3727],[141.0356,37.3731],[141.0362,37.3655],[141.0391,37.3639],[141.0368,37.3635],[141.0363,37.3599],[141.0343,37.3599],[141.0352,37.3573],[141.0333,37.3569],[141.0327,37.3543],[141.0339,37.3559],[141.0318,37.3508],[141.0327,37.3481],[141.0315,37.3489],[141.0329,37.3471],[141.0316,37.3452],[141.0322,37.3441],[141.03,37.344],[141.0303,37.3428],[141.0283,37.3409],[141.0276,37.3383],[141.0295,37.3378],[141.0313,37.3352],[141.0293,37.3376],[141.0273,37.3382],[141.0287,37.3374],[141.0275,37.336],[141.0292,37.3366],[141.0297,37.3354],[141.0277,37.3358],[141.0275,37.3344],[141.0305,37.3342],[141.0266,37.3337],[141.0264,37.3264],[141.0252,37.325],[141.0264,37.3225],[141.0323,37.3216],[141.0361,37.3191],[141.0322,37.3215],[141.0277,37.3222],[141.0281,37.3164],[141.0231,37.3159],[141.0184,37.3177],[141.0164,37.3173],[141.0156,37.3152],[141.0101,37.3161],[141.0048,37.3148],[141.0028,37.3119],[141.0068,37.3071],[141.006,37.3035],[141.005,37.3048],[140.9951,37.3061],[140.9945,37.3074],[140.9892,37.3089],[140.9875,37.3105],[140.9874,37.3125],[140.9854,37.3135],[140.9753,37.3167],[140.9685,37.3172],[140.9653,37.3199],[140.9576,37.3212],[140.955,37.3206],[140.9503,37.3232],[140.9465,37.3222],[140.9447,37.3259],[140.9421,37.3257],[140.9397,37.327],[140.9387,37.3303],[140.9398,37.3325],[140.9384,37.3349],[140.9288,37.3359],[140.9228,37.3352],[140.9169,37.3377],[140.916,37.3398],[140.9135,37.3409],[140.9119,37.3431],[140.9081,37.3443],[140.9085,37.347],[140.9104,37.3488],[140.9097,37.353],[140.9074,37.3518],[140.9054,37.3547],[140.9024,37.355],[140.902,37.3589],[140.9008,37.3603],[140.9052,37.3635],[140.9079,37.364],[140.9086,37.3704],[140.9078,37.3713],[140.9088,37.3727],[140.9119,37.3743],[140.9178,37.3749],[140.9227,37.3734],[140.9237,37.3744],[140.9222,37.3758],[140.9272,37.3792],[140.9305,37.3785],[140.9321,37.3798],[140.9333,37.3781],[140.9463,37.3835],[140.9496,37.3833]]],[[[141.0339,37.3464],[141.0335,37.3466],[141.0338,37.3468],[141.0339,37.3464]]],[[[141.0384,37.3621],[141.0387,37.3618],[141.0385,37.3617],[141.0384,37.3621]]],[[[141.0379,37.3619],[141.0377,37.3621],[141.038,37.3621],[141.0379,37.3619]]]]}},{"type":"Feature","properties":{"code":"07545","name":"大熊町","pref_code":"07","pref":"福島県"},"geometry":{"type":"MultiPolygon","coordinates":[[[[141.0111,37.4301],[141.014,37.4297],[141.0182,37.4264],[141.0349,37.4269],[141.0355,37.4201],[141.0362,37.4201],[141.0365,37.4241],[141.0366,37.4198],[141.0371,37.4197],[141.0414,37.4222],[141.0424,37.4235],[141.0429,37.4233],[141.0415,37.4221],[141.0371,37.4197],[141.0356,37.4197],[141.0338,37.4164],[141.0344,37.4117],[141.0332,37.4055],[141.0353,37.3958],[141.0339,37.3855],[141.035,37.3828],[141.0361,37.3829],[141.0356,37.3823],[141.0372,37.3823],[141.0354,37.3817],[141.0356,37.3731],[141.0341,37.3727],[141.0318,37.3743],[141.0218,37.3759],[141.0203,37.377],[141.0178,37.3769],[141.0173,37.3744],[141.0157,37.3735],[141.0092,37.3756],[141.006,37.3741],[141.0012,37.3739],[140.9991,37.3756],[140.9943,37.3755],[140.9922,37.3742],[140.9883,37.3781],[140.9852,37.3794],[140.9767,37.381],[140.9663,37.3799],[140.9632,37.3805],[140.9598,37.3794],[140.9555,37.3809],[140.9509,37.3804],[140.9492,37.3837],[140.9461,37.3834],[140.9333,37.3781],[140.9321,37.3798],[140.9305,37.3785],[140.9272,37.3792],[140.9222,37.3758],[140.9237,37.3744],[140.9227,37.3734],[140.9178,37.3749],[140.9103,37.3734],[140.9059,37.3762],[140.8994,37.3763],[140.898,37.3754],[140.8881,37.3771],[140.8778,37.3839],[140.8722,37.3812],[140.869,37.3836],[140.8607,37.3845],[140.8581,37.3948],[140.8604,37.3991],[140.8599,37.4043],[140.858,37.4054],[140.8614,37.4091],[140.862,37.4112],[140.8595,37.4145],[140.8572,37.4149],[140.8537,37.4214],[140.8579,37.4203],[140.8605,37.4224],[140.8621,37.4214],[140.8647,37.4218],[140.8681,37.4195],[140.8685,37.4206],[140.8731,37.4218],[140.8739,37.4252],[140.878,37.4268],[140.8807,37.4304],[140.8858,37.4293],[140.892,37.4329],[140.8944,37.4332],[140.8958,37.4322],[140.895,37.4292],[140.8972,37.4263],[140.9027,37.4265],[140.9032,37.4254],[140.907,37.4238],[140.9161,37.424],[140.918,37.4255],[140.9237,37.4236],[140.9321,37.4237],[140.9349,37.4219],[140.9402,37.4212],[140.9425,37.4223],[140.9468,37.4189],[140.9487,37.4195],[140.9527,37.4174],[140.963,37.4165],[140.9664,37.4179],[140.9786,37.4183],[140.9822,37.4194],[140.9887,37.4182],[140.9923,37.419],[140.9938,37.4202],[140.9931,37.4232],[141.0007,37.4265],[141.0015,37.4299],[141.0045,37.4316],[141.0047,37.434],[141.0111,37.4301]]],[[[141.0378,37.4204],[141.041,37.4222],[141.041,37.4222],[141.0378,37.4204]]],[[[141.0365,37.4265],[141.0406,37.4234],[141.0366,37.4262],[141.0365,37.4265]]],[[[141.0353,37.4273],[141.0356,37.426],[141.0352,37.426],[141.0353,37.4273]]]]}},{"type":"Feature","properties":{"code":"07546","name":"双葉町","pref_code":"07","pref":"福島県"},"geometry":{"type":"Polygon","coordinates":[[[141.0031,37.477],[141.0048,37.4758],[141.0095,37.4761],[141.0105,37.4733],[141.0136,37.4753],[141.019,37.47],[141.0251,37.4694],[141.0316,37.4611],[141.0333,37.4619],[141.0321,37.4626],[141.032,37.4645],[141.0366,37.4663],[141.0356,37.4577],[141.0368,37.4573],[141.0381,37.4534],[141.0392,37.4534],[141.0378,37.4526],[141.0379,37.448],[141.036,37.4458],[141.034,37.4309],[141.0345,37.4303],[141.0364,37.4303],[141.0364,37.4301],[141.0351,37.4303],[141.0349,37.4269],[141.0182,37.4264],[141.014,37.4297],[141.0083,37.4311],[141.0048,37.434],[141.0044,37.4314],[141.0015,37.4299],[141.0007,37.4265],[140.9931,37.4232],[140.9938,37.4202],[140.9925,37.419],[140.9887,37.4182],[140.9822,37.4194],[140.9601,37.4164],[140.9527,37.4174],[140.9487,37.4195],[140.9468,37.4189],[140.9423,37.4224],[140.9402,37.4212],[140.9349,37.4219],[140.9321,37.4237],[140.9237,37.4236],[140.918,37.4255],[140.9162,37.424],[140.908,37.4236],[140.9032,37.4254],[140.9027,37.4265],[140.8972,37.4263],[140.8951,37.4291],[140.8958,37.4322],[140.8944,37.4332],[140.895,37.4359],[140.8933,37.4379],[140.8943,37.4404],[140.8931,37.4438],[140.8965,37.4446],[140.8981,37.4467],[140.8999,37.4466],[140.9031,37.4491],[140.9089,37.4499],[140.9144,37.4492],[140.9171,37.446],[140.9259,37.4431],[140.9375,37.4439],[140.9407,37.4467],[140.9491,37.4473],[140.9523,37.449],[140.9558,37.4538],[140.9579,37.4618],[140.9599,37.4619],[140.9617,37.4638],[140.9654,37.465],[140.9669,37.4646],[140.9654,37.4676],[140.9687,37.4686],[140.9779,37.4685],[140.9803,37.4705],[140.9849,37.4718],[140.9858,37.4738],[140.9901,37.4746],[140.9935,37.4769],[141.0031,37.477]]]}},{"type":"Feature","properties":{"code":"07547","name":"浪江町","pref_code":"07","pref":"福島県"},"geometry":{"type":"MultiPolygon","coordinates":[[[[141.0461,37.4806],[141.0455,37.4815],[141.0448,37.4825],[141.0461,37.4806]]],[[[141.0383,37.5011],[141.0383,37.5011],[141.0383,37.5011],[141.0383,37.5011]]],[[[141.0384,37.5012],[141.0384,37.5012],[141.0384,37.5012],[141.0384,37.5012]]],[[[141.0383,37.5018],[141.0383,37.5018],[141.0383,37.5018],[141.0383,37.5018]]],[[[141.0353,37.5114],[141.0353,37.5114],[141.0352,37.5114],[141.0353,37.5114]]],[[[141.0349,37.5117],[141.0351,37.5116],[141.0351,37.5116],[141.0349,37.5117]]],[[[141.035,37.5117],[141.0352,37.5116],[141.0351,37.5116],[141.035,37.5117]]],[[[140.82,37.6129],[140.8246,37.6097],[140.8274,37.6038],[140.8294,37.6025],[140.8288,37.5998],[140.826,37.5987],[140.8261,37.5977],[140.8309,37.5967],[140.834,37.5934],[140.8365,37.5949],[140.8423,37.5936],[140.8398,37.5924],[140.8391,37.5904],[140.8432,37.5827],[140.838,37.5772],[140.8416,37.5732],[140.8392,37.5713],[140.8437,37.5696],[140.843,37.5674],[140.8439,37.5659],[140.843,37.564],[140.8442,37.562],[140.8434,37.5613],[140.8442,37.5586],[140.8466,37.5571],[140.8475,37.555],[140.8516,37.5553],[140.8591,37.5514],[140.8631,37.5524],[140.8652,37.5497],[140.8689,37.5491],[140.8743,37.546],[140.8745,37.5437],[140.877,37.542],[140.8754,37.5404],[140.8765,37.5376],[140.875,37.5348],[140.8791,37.5297],[140.8773,37.5264],[140.88,37.524],[140.8864,37.5258],[140.8939,37.523],[140.8954,37.5205],[140.8964,37.5217],[140.9007,37.5211],[140.9062,37.522],[140.9094,37.5206],[140.9096,37.5183],[140.913,37.5185],[140.9172,37.5241],[140.9179,37.5276],[140.9317,37.5313],[140.9323,37.5298],[140.9372,37.5288],[140.9385,37.5252],[140.9397,37.5259],[140.942,37.5247],[140.9449,37.5248],[140.9495,37.5221],[140.9577,37.5201],[140.959,37.5185],[140.968,37.5189],[140.9713,37.5184],[140.9748,37.5162],[140.9763,37.517],[140.9789,37.5151],[140.9832,37.5146],[140.9891,37.5108],[140.9888,37.5093],[140.9939,37.5082],[141.0024,37.508],[141.0049,37.5103],[141.0101,37.5121],[141.0111,37.5103],[141.0136,37.5104],[141.0151,37.5114],[141.0342,37.5136],[141.0366,37.5053],[141.0386,37.5033],[141.0382,37.5018],[141.0385,37.5015],[141.0383,37.5015],[141.0381,37.5006],[141.0392,37.4993],[141.0384,37.4989],[141.0395,37.495],[141.0387,37.4938],[141.0397,37.4914],[141.0389,37.4888],[141.0395,37.4846],[141.0452,37.4836],[141.0417,37.4839],[141.0413,37.4815],[141.043,37.4811],[141.0427,37.4826],[141.0447,37.4815],[141.0416,37.4805],[141.041,37.4791],[141.0434,37.4785],[141.0459,37.4797],[141.0433,37.4783],[141.0399,37.4783],[141.0382,37.4721],[141.0368,37.471],[141.0366,37.4664],[141.032,37.4645],[141.0321,37.4626],[141.0333,37.4619],[141.0316,37.4611],[141.0251,37.4694],[141.019,37.47],[141.0136,37.4753],[141.0105,37.4733],[141.0094,37.4762],[141.0048,37.4758],[141.0024,37.4773],[140.9935,37.4769],[140.9901,37.4746],[140.9858,37.4738],[140.9849,37.4718],[140.9803,37.4705],[140.9779,37.4685],[140.9687,37.4686],[140.9654,37.4676],[140.9669,37.4646],[140.9654,37.465],[140.9617,37.4638],[140.9599,37.4619],[140.9579,37.4618],[140.9558,37.4538],[140.9523,37.449],[140.9496,37.4474],[140.9411,37.4469],[140.9374,37.4439],[140.926,37.4431],[140.9171,37.446],[140.9144,37.4492],[140.9089,37.4499],[140.9032,37.4491],[140.8999,37.4466],[140.8981,37.4467],[140.8965,37.4446],[140.8933,37.444],[140.8943,37.4404],[140.8933,37.4379],[140.895,37.4359],[140.8943,37.4331],[140.892,37.4329],[140.8858,37.4293],[140.8807,37.4304],[140.878,37.4268],[140.8739,37.4252],[140.8731,37.4218],[140.8685,37.4206],[140.8681,37.4195],[140.8647,37.4218],[140.8621,37.4214],[140.8605,37.4224],[140.8576,37.4203],[140.8504,37.4238],[140.852,37.4267],[140.8506,37.438],[140.8475,37.4408],[140.844,37.4421],[140.8445,37.445],[140.8429,37.4497],[140.8449,37.4503],[140.8454,37.4517],[140.8441,37.4529],[140.8455,37.4554],[140.8439,37.4579],[140.8401,37.4585],[140.8357,37.4611],[140.836,37.4629],[140.8407,37.4689],[140.839,37.4723],[140.8394,37.4795],[140.8361,37.4847],[140.8372,37.4878],[140.835,37.4926],[140.8358,37.4942],[140.8343,37.496],[140.8349,37.5007],[140.8378,37.5008],[140.8451,37.4979],[140.8496,37.4991],[140.8518,37.5028],[140.8509,37.5059],[140.8523,37.5081],[140.8519,37.5116],[140.8504,37.5139],[140.8504,37.5176],[140.8453,37.5264],[140.8452,37.536],[140.8466,37.5391],[140.8452,37.5414],[140.8355,37.537],[140.8329,37.5369],[140.8324,37.5384],[140.8275,37.5406],[140.8187,37.5356],[140.8118,37.5348],[140.8061,37.5367],[140.8015,37.5329],[140.798,37.5333],[140.7973,37.5348],[140.795,37.5355],[140.7925,37.5334],[140.7928,37.5321],[140.7897,37.5313],[140.7894,37.533],[140.7822,37.5384],[140.7798,37.538],[140.7768,37.5395],[140.7642,37.5386],[140.7625,37.5412],[140.7569,37.5438],[140.749,37.5412],[140.7515,37.536],[140.7515,37.534],[140.7498,37.5326],[140.7473,37.5337],[140.7411,37.5333],[140.7372,37.5343],[140.7359,37.5366],[140.7308,37.5366],[140.7233,37.5403],[140.7114,37.5405],[140.7049,37.5433],[140.6837,37.5428],[140.6931,37.5585],[140.695,37.5605],[140.6986,37.5615],[140.6977,37.5676],[140.6998,37.5709],[140.6979,37.5737],[140.7025,37.5756],[140.7049,37.5739],[140.7093,37.5743],[140.713,37.5726],[140.7177,37.5805],[140.724,37.5868],[140.7239,37.5907],[140.7262,37.5939],[140.7193,37.5989],[140.7183,37.6014],[140.7291,37.6008],[140.7343,37.6033],[140.7431,37.6035],[140.747,37.6019],[140.7535,37.6019],[140.7572,37.5983],[140.7592,37.5987],[140.7628,37.5975],[140.7652,37.5986],[140.7701,37.5967],[140.7819,37.5995],[140.7871,37.5957],[140.7931,37.5934],[140.7973,37.5959],[140.8003,37.5965],[140.8032,37.5958],[140.8021,37.5977],[140.8028,37.5987],[140.8083,37.6026],[140.8103,37.6023],[140.8138,37.6042],[140.8142,37.6065],[140.8154,37.6073],[140.8145,37.6088],[140.8155,37.6117],[140.8141,37.6137],[140.8147,37.6148],[140.82,37.6129]]]]}},{"type":"Feature","properties":{"code":"07561","name":"新地町","pref_code":"07","pref":"福島県"},"geometry":{"type":"MultiPolygon","coordinates":[[[[140.9762,37.867],[140.9705,37.8539],[140.9733,37.8439],[140.9704,37.8539],[140.9762,37.867]]],[[[140.9457,37.8575],[140.9454,37.8573],[140.9452,37.8573],[140.9457,37.8575]]],[[[140.9457,37.8576],[140.9458,37.8577],[140.9458,37.8576],[140.9457,37.8576]]],[[[140.9461,37.8579],[140.9459,37.8577],[140.9458,37.8577],[140.9461,37.8579]]],[[[140.9004,37.9043],[140.8997,37.9],[140.9011,37.8976],[140.9119,37.8966],[140.9149,37.898],[140.9196,37.8946],[140.9202,37.892],[140.9239,37.8922],[140.9242,37.8951],[140.9311,37.8962],[140.9328,37.8815],[140.935,37.8766],[140.9376,37.8761],[140.9378,37.8751],[140.9374,37.876],[140.9354,37.8755],[140.9379,37.8742],[140.9359,37.8739],[140.9364,37.8721],[140.9373,37.8719],[140.9373,37.8736],[140.9385,37.8742],[140.9375,37.8718],[140.9395,37.8654],[140.9437,37.858],[140.9454,37.857],[140.9464,37.8532],[140.9472,37.8529],[140.9498,37.8582],[140.9624,37.8609],[140.9678,37.8594],[140.9624,37.8608],[140.9559,37.8594],[140.9569,37.8564],[140.9494,37.8552],[140.9508,37.8512],[140.9538,37.8519],[140.9555,37.8469],[140.958,37.8474],[140.9588,37.8451],[140.9547,37.8433],[140.955,37.8425],[140.9547,37.8433],[140.9531,37.843],[140.9539,37.8406],[140.9555,37.841],[140.9553,37.8419],[140.9556,37.841],[140.9607,37.8421],[140.9623,37.8415],[140.9591,37.8417],[140.9456,37.8376],[140.9443,37.8389],[140.9387,37.8378],[140.9283,37.8386],[140.922,37.8359],[140.9155,37.8375],[140.9088,37.841],[140.8882,37.8437],[140.8785,37.8435],[140.8695,37.8416],[140.8542,37.8419],[140.8505,37.8492],[140.8508,37.8507],[140.8535,37.8515],[140.8563,37.8552],[140.8588,37.8564],[140.8616,37.8628],[140.8607,37.8673],[140.8578,37.8695],[140.8546,37.8745],[140.8611,37.8794],[140.8566,37.8825],[140.8568,37.8867],[140.8599,37.8887],[140.8562,37.8909],[140.8641,37.893],[140.8702,37.8964],[140.881,37.8979],[140.8907,37.9024],[140.8962,37.9024],[140.9004,37.9043]]],[[[140.9403,37.876],[140.9409,37.8752],[140.9402,37.8759],[140.9403,37.876]]],[[[140.9384,37.876],[140.9389,37.8761],[140.9389,37.876],[140.9384,37.876]]],[[[140.9334,37.8815],[140.9331,37.8817],[140.9333,37.8817],[140.9334,37.8815]]]]}}]}