{"type":"FeatureCollection","pref_code":"08","features":[{"type":"Feature","properties":{"code":"08202","name":"日立市","pref_code":"08","pref":"茨城県"},"geometry":{"type":"MultiPolygon","coordinates":[[[[140.6299,36.4768],[140.6301,36.4768],[140.6296,36.4763],[140.6299,36.4768]]],[[[140.6367,36.4745],[140.637,36.4826],[140.637,36.4745],[140.6367,36.4745]]],[[[140.6335,36.4815],[140.6298,36.4862],[140.6299,36.4922],[140.6305,36.4949],[140.63,36.4863],[140.6335,36.4815]]],[[[140.6308,36.4966],[140.6308,36.4985],[140.6304,36.4948],[140.6308,36.4966]]],[[[140.6388,36.4991],[140.6388,36.4993],[140.639,36.4992],[140.6388,36.4991]]],[[[140.6355,36.5083],[140.6353,36.5085],[140.6354,36.5087],[140.6355,36.5083]]],[[[140.6469,36.5397],[140.6479,36.5402],[140.6467,36.5396],[140.6469,36.5397]]],[[[140.6505,36.5441],[140.6506,36.5442],[140.6506,36.5441],[140.6505,36.5441]]],[[[140.6622,36.5807],[140.6621,36.5809],[140.6622,36.5809],[140.6622,36.5807]]],[[[140.6623,36.5809],[140.6623,36.5809],[140.6623,36.5809],[140.6623,36.5809]]],[[[140.6623,36.581],[140.6623,36.5809],[140.6623,36.581],[140.6623,36.581]]],[[[140.6624,36.581],[140.6624,36.581],[140.6623,36.581],[140.6624,36.581]]],[[[140.6625,36.581],[140.6625,36.5811],[140.6625,36.5811],[140.6625,36.581]]],[[[140.6628,36.5814],[140.6628,36.5813],[140.6627,36.5814],[140.6628,36.5814]]],[[[140.6629,36.5813],[140.6628,36.5814],[140.6629,36.5814],[140.6629,36.5813]]],[[[140.558,36.7146],[140.5583,36.7129],[140.5611,36.7111],[140.5705,36.7085],[140.5709,36.706],[140.5731,36.7046],[140.5765,36.7054],[140.5773,36.7042],[140.5866,36.7048],[140.5889,36.7029],[140.5908,36.7037],[140.599,36.7033],[140.6057,36.7015],[140.607,36.6999],[140.6107,36.7066],[140.6142,36.7079],[140.6153,36.7095],[140.6176,36.7087],[140.6206,36.7101],[140.6236,36.7096],[140.6273,36.7063],[140.6275,36.7042],[140.6328,36.7049],[140.6354,36.7006],[140.6371,36.7005],[140.6397,36.7024],[140.6448,36.7026],[140.6473,36.7053],[140.6503,36.706],[140.6553,36.7036],[140.6626,36.7058],[140.6652,36.7048],[140.6657,36.7027],[140.6679,36.7008],[140.6732,36.6987],[140.6795,36.7],[140.69,36.6966],[140.6934,36.6982],[140.7003,36.6988],[140.7127,36.6944],[140.714,36.6949],[140.7164,36.6927],[140.7137,36.6747],[140.7149,36.665],[140.7166,36.6637],[140.7158,36.6628],[140.7165,36.6618],[140.714,36.6615],[140.7115,36.6594],[140.7121,36.6571],[140.7104,36.6572],[140.7085,36.6549],[140.7054,36.6547],[140.7041,36.6558],[140.7019,36.6543],[140.7,36.6517],[140.7012,36.6503],[140.6997,36.6508],[140.6991,36.65],[140.6994,36.6487],[140.7004,36.6489],[140.7017,36.6503],[140.7022,36.6504],[140.7005,36.6488],[140.6989,36.6485],[140.6981,36.6494],[140.6967,36.649],[140.6919,36.641],[140.6906,36.6339],[140.6919,36.6329],[140.6897,36.6286],[140.6895,36.621],[140.6878,36.6195],[140.6864,36.6201],[140.68,36.6148],[140.6797,36.6127],[140.675,36.6058],[140.6751,36.6053],[140.674,36.6036],[140.6729,36.6002],[140.6723,36.6],[140.6713,36.5979],[140.6714,36.5975],[140.6678,36.5943],[140.6664,36.5947],[140.6628,36.5859],[140.6626,36.5814],[140.6611,36.5803],[140.6624,36.5783],[140.6623,36.5774],[140.6617,36.5769],[140.6606,36.5771],[140.6601,36.5757],[140.6606,36.5772],[140.6617,36.5769],[140.6623,36.5783],[140.6593,36.579],[140.6586,36.5778],[140.6603,36.5779],[140.6597,36.5769],[140.6597,36.5777],[140.659,36.5776],[140.6578,36.578],[140.6569,36.5774],[140.6583,36.5756],[140.6572,36.5769],[140.6557,36.5766],[140.6528,36.5729],[140.6437,36.5515],[140.6467,36.5408],[140.6458,36.5422],[140.6441,36.5424],[140.644,36.5408],[140.6458,36.5408],[140.6448,36.5403],[140.6421,36.5414],[140.6382,36.5375],[140.6371,36.5305],[140.6334,36.5212],[140.6346,36.5186],[140.6335,36.5163],[140.6341,36.5156],[140.6316,36.5135],[140.6316,36.5117],[140.6333,36.5093],[140.631,36.5072],[140.6296,36.5031],[140.631,36.5019],[140.6295,36.4986],[140.6287,36.4989],[140.6308,36.5018],[140.6292,36.503],[140.6287,36.5019],[140.6296,36.5012],[140.6273,36.5003],[140.6286,36.4993],[140.6261,36.5],[140.6283,36.4952],[140.6265,36.4969],[140.6245,36.4962],[140.6253,36.4947],[140.6235,36.4905],[140.6196,36.4919],[140.619,36.4913],[140.6189,36.4921],[140.6177,36.4907],[140.6216,36.4885],[140.6207,36.4864],[140.6129,36.4875],[140.6121,36.4864],[140.6114,36.4844],[140.6123,36.4858],[140.6135,36.4845],[140.6143,36.4854],[140.6224,36.4836],[140.6234,36.4819],[140.6274,36.4835],[140.6282,36.4836],[140.6192,36.4802],[140.6145,36.4836],[140.6139,36.4817],[140.6024,36.4825],[140.5964,36.4876],[140.5912,36.4894],[140.5918,36.492],[140.5906,36.4941],[140.5843,36.4947],[140.5821,36.4937],[140.5771,36.4958],[140.5705,36.4938],[140.5598,36.4946],[140.5621,36.4986],[140.5611,36.5013],[140.5584,36.5016],[140.5581,36.5034],[140.5615,36.5028],[140.5616,36.5044],[140.5648,36.5051],[140.5646,36.5078],[140.5746,36.507],[140.5736,36.514],[140.5765,36.5134],[140.5782,36.5178],[140.5814,36.5167],[140.5833,36.5127],[140.5921,36.5146],[140.5931,36.5158],[140.5901,36.5195],[140.5927,36.519],[140.6,36.5214],[140.5991,36.5234],[140.6016,36.5253],[140.5996,36.5271],[140.5966,36.5367],[140.5947,36.5384],[140.592,36.5387],[140.5919,36.541],[140.5899,36.5433],[140.5925,36.5487],[140.5913,36.5514],[140.5924,36.5535],[140.5915,36.5552],[140.59,36.5551],[140.5877,36.5579],[140.5861,36.5582],[140.5865,36.5615],[140.5848,36.5625],[140.5854,36.5643],[140.5823,36.5654],[140.583,36.5716],[140.5839,36.5721],[140.5833,36.5739],[140.5797,36.5728],[140.5784,36.5736],[140.5792,36.5799],[140.5802,36.5805],[140.578,36.586],[140.5819,36.5917],[140.5808,36.5949],[140.5842,36.599],[140.5857,36.5989],[140.5851,36.6022],[140.5876,36.6045],[140.5883,36.6069],[140.5859,36.6099],[140.5828,36.6115],[140.5855,36.6145],[140.5852,36.6176],[140.5877,36.621],[140.5857,36.622],[140.5833,36.6209],[140.5803,36.6215],[140.5759,36.6244],[140.5659,36.6216],[140.5576,36.6221],[140.5535,36.6192],[140.5491,36.6212],[140.5477,36.6205],[140.5452,36.615],[140.5427,36.6131],[140.5417,36.6167],[140.5393,36.6174],[140.5379,36.6198],[140.5375,36.6265],[140.5332,36.6285],[140.5238,36.6408],[140.5192,36.6415],[140.5174,36.6434],[140.5182,36.6456],[140.5167,36.6499],[140.5178,36.6516],[140.5248,36.6514],[140.5275,36.6501],[140.5309,36.6509],[140.5342,36.656],[140.5373,36.6555],[140.5377,36.6539],[140.5411,36.6545],[140.5421,36.6618],[140.5403,36.6629],[140.5409,36.6659],[140.5451,36.6678],[140.5487,36.6659],[140.5498,36.6675],[140.5495,36.6693],[140.5475,36.6697],[140.5472,36.6719],[140.5492,36.6727],[140.5504,36.6765],[140.5488,36.6774],[140.5499,36.6789],[140.5489,36.6803],[140.5479,36.6796],[140.5435,36.6815],[140.5455,36.6826],[140.5445,36.685],[140.5415,36.6866],[140.5409,36.6887],[140.5394,36.6895],[140.5395,36.6941],[140.5375,36.6973],[140.5418,36.6992],[140.5428,36.7012],[140.5401,36.7072],[140.541,36.7091],[140.5472,36.7118],[140.5498,36.711],[140.5514,36.7126],[140.558,36.7146]]],[[[140.663,36.5811],[140.6631,36.5811],[140.6631,36.5811],[140.663,36.5811]]],[[[140.6631,36.5811],[140.6632,36.5811],[140.6632,36.5811],[140.6631,36.5811]]],[[[140.6721,36.5977],[140.6719,36.5974],[140.6718,36.5975],[140.6721,36.5977]]],[[[140.6716,36.5976],[140.6717,36.5976],[140.6716,36.5974],[140.6716,36.5976]]],[[[140.6718,36.5976],[140.6719,36.5976],[140.6718,36.5975],[140.6718,36.5976]]],[[[140.6715,36.5976],[140.6714,36.5976],[140.6715,36.5976],[140.6715,36.5976]]],[[[140.6717,36.5977],[140.6718,36.5977],[140.6718,36.5976],[140.6717,36.5977]]],[[[140.6721,36.5977],[140.6721,36.5977],[140.6721,36.5977],[140.6721,36.5977]]],[[[140.6805,36.6143],[140.6803,36.6144],[140.6806,36.6144],[140.6805,36.6143]]],[[[140.6835,36.6159],[140.6835,36.616],[140.6835,36.6159],[140.6835,36.6159]]],[[[140.6833,36.6163],[140.6831,36.6164],[140.6831,36.6165],[140.6833,36.6163]]],[[[140.7079,36.6545],[140.7079,36.6546],[140.7079,36.6545],[140.7079,36.6545]]],[[[140.7089,36.6546],[140.7089,36.6548],[140.709,36.6548],[140.7089,36.6546]]],[[[140.7085,36.6548],[140.7086,36.6549],[140.7086,36.6548],[140.7085,36.6548]]],[[[140.7128,36.6575],[140.7129,36.6577],[140.7129,36.6576],[140.7128,36.6575]]],[[[140.7124,36.6586],[140.7122,36.6586],[140.7122,36.6588],[140.7124,36.6586]]]]}},{"type":"Feature","properties":{"code":"08214","name":"高萩市","pref_code":"08","pref":"茨城県"},"geometry":{"type":"MultiPolygon","coordinates":[[[[140.7449,36.713],[140.7444,36.713],[140.7447,36.7132],[140.7449,36.713]]],[[[140.7302,36.7161],[140.7301,36.7163],[140.7303,36.7162],[140.7302,36.7161]]],[[[140.7286,36.7177],[140.7287,36.7179],[140.7287,36.7177],[140.7286,36.7177]]],[[[140.7287,36.7182],[140.7285,36.7184],[140.7287,36.7183],[140.7287,36.7182]]],[[[140.7298,36.7192],[140.7302,36.7192],[140.7301,36.7191],[140.7298,36.7192]]],[[[140.733,36.7209],[140.7333,36.7205],[140.7329,36.7206],[140.733,36.7209]]],[[[140.5917,36.8728],[140.5985,36.8706],[140.5988,36.8682],[140.6019,36.8673],[140.6012,36.865],[140.6029,36.8611],[140.6014,36.8591],[140.6026,36.8567],[140.605,36.8553],[140.604,36.8527],[140.6073,36.8519],[140.6076,36.8502],[140.6117,36.8471],[140.6243,36.8452],[140.6256,36.8424],[140.6271,36.8426],[140.6322,36.8394],[140.6317,36.8363],[140.635,36.834],[140.6405,36.8349],[140.6421,36.8337],[140.6417,36.8306],[140.6444,36.8301],[140.6501,36.821],[140.6514,36.8201],[140.6535,36.8205],[140.6536,36.8169],[140.655,36.8163],[140.6575,36.8113],[140.6644,36.8094],[140.6651,36.8082],[140.6677,36.8092],[140.6689,36.808],[140.676,36.8073],[140.6751,36.8055],[140.6772,36.8047],[140.6799,36.8015],[140.6777,36.7983],[140.6707,36.797],[140.67,36.7945],[140.6669,36.7937],[140.6632,36.7897],[140.6631,36.7853],[140.6495,36.783],[140.6486,36.7817],[140.6491,36.7753],[140.6457,36.7734],[140.6435,36.7736],[140.6441,36.772],[140.6608,36.7716],[140.6626,36.7693],[140.6659,36.7686],[140.6691,36.7652],[140.6716,36.7645],[140.672,36.7604],[140.6737,36.7581],[140.6822,36.7563],[140.6866,36.7573],[140.6852,36.7529],[140.6859,36.7524],[140.6869,36.7534],[140.686,36.7523],[140.6885,36.7503],[140.6919,36.7498],[140.6952,36.7508],[140.6956,36.7523],[140.6972,36.7519],[140.698,36.7534],[140.7028,36.7534],[140.7111,36.7503],[140.7194,36.7505],[140.7244,36.752],[140.7276,36.7513],[140.7279,36.7504],[140.731,36.7514],[140.7331,36.7487],[140.7306,36.7427],[140.7284,36.7308],[140.7291,36.7231],[140.728,36.7216],[140.7293,36.7213],[140.7279,36.7207],[140.7292,36.7203],[140.727,36.7182],[140.7291,36.7168],[140.7291,36.7155],[140.7258,36.7148],[140.7183,36.6992],[140.7177,36.6974],[140.7192,36.6963],[140.7175,36.696],[140.7164,36.6927],[140.714,36.6949],[140.7127,36.6944],[140.7003,36.6988],[140.6934,36.6982],[140.69,36.6966],[140.6795,36.7],[140.6732,36.6987],[140.6679,36.7008],[140.6657,36.7027],[140.6652,36.7048],[140.6626,36.7058],[140.6553,36.7036],[140.6503,36.706],[140.6473,36.7053],[140.6448,36.7026],[140.6397,36.7024],[140.6371,36.7005],[140.6354,36.7006],[140.6328,36.7049],[140.6275,36.7042],[140.6273,36.7063],[140.6236,36.7096],[140.6206,36.7101],[140.6176,36.7087],[140.6153,36.7095],[140.6142,36.7079],[140.6107,36.7066],[140.6081,36.7009],[140.6067,36.7],[140.6057,36.7015],[140.599,36.7033],[140.5908,36.7037],[140.5889,36.7029],[140.5866,36.7048],[140.5773,36.7042],[140.5765,36.7054],[140.5731,36.7046],[140.5709,36.706],[140.5705,36.7085],[140.5611,36.7111],[140.5583,36.7129],[140.5579,36.7146],[140.5548,36.7135],[140.5551,36.7173],[140.5574,36.7189],[140.5592,36.724],[140.5592,36.7259],[140.557,36.7275],[140.5563,36.7297],[140.5583,36.7308],[140.5581,36.7317],[140.5596,36.7314],[140.562,36.7344],[140.5601,36.736],[140.5614,36.7379],[140.5563,36.7426],[140.5551,36.7452],[140.5581,36.7475],[140.5568,36.7484],[140.5575,36.7498],[140.5548,36.751],[140.5548,36.7521],[140.5585,36.76],[140.5576,36.7618],[140.5522,36.7646],[140.5495,36.7621],[140.546,36.7631],[140.5422,36.7672],[140.5413,36.7714],[140.5362,36.7725],[140.5358,36.7749],[140.5375,36.7793],[140.5408,36.7819],[140.5411,36.7844],[140.5452,36.7862],[140.541,36.7881],[140.5428,36.7905],[140.5417,36.7919],[140.5419,36.795],[140.5397,36.797],[140.5401,36.8044],[140.5471,36.8086],[140.547,36.8109],[140.5445,36.8126],[140.5487,36.817],[140.5501,36.8215],[140.5548,36.8267],[140.5569,36.8263],[140.5603,36.83],[140.56,36.834],[140.5613,36.8351],[140.5601,36.8367],[140.5602,36.8403],[140.5555,36.843],[140.5587,36.8449],[140.5584,36.8488],[140.56,36.8499],[140.5638,36.8499],[140.5631,36.8523],[140.5687,36.857],[140.5684,36.8588],[140.5699,36.8598],[140.5692,36.8622],[140.5675,36.8632],[140.5687,36.8642],[140.5725,36.8642],[140.5723,36.866],[140.5753,36.8691],[140.5805,36.8669],[140.5827,36.868],[140.586,36.8732],[140.5888,36.8749],[140.5917,36.8728]]]]}},{"type":"Feature","properties":{"code":"08215","name":"北茨城市","pref_code":"08","pref":"茨城県"},"geometry":{"type":"MultiPolygon","coordinates":[[[[140.7577,36.7941],[140.7575,36.7936],[140.7571,36.794],[140.7577,36.7941]]],[[[140.762,36.805],[140.7622,36.8049],[140.7622,36.8049],[140.762,36.805]]],[[[140.7627,36.8055],[140.7623,36.8056],[140.7622,36.8058],[140.7627,36.8055]]],[[[140.7865,36.8225],[140.7856,36.821],[140.7854,36.8211],[140.7865,36.8225]]],[[[140.7877,36.8244],[140.7928,36.8257],[140.7878,36.8243],[140.7857,36.8225],[140.7877,36.8244]]],[[[140.8034,36.8337],[140.8034,36.8338],[140.8034,36.8337],[140.8034,36.8337]]],[[[140.803,36.8379],[140.8029,36.838],[140.803,36.838],[140.803,36.8379]]],[[[140.8025,36.8392],[140.8025,36.8394],[140.8026,36.8392],[140.8025,36.8392]]],[[[140.7973,36.8438],[140.7972,36.8437],[140.7973,36.8438],[140.7973,36.8438]]],[[[140.7972,36.844],[140.7971,36.844],[140.7972,36.8441],[140.7972,36.844]]],[[[140.5862,36.9453],[140.5893,36.9395],[140.5917,36.9381],[140.5929,36.9393],[140.5945,36.938],[140.5925,36.936],[140.5945,36.9323],[140.5928,36.9266],[140.598,36.925],[140.6012,36.9228],[140.6008,36.9209],[140.6029,36.92],[140.6072,36.9128],[140.6108,36.9105],[140.6128,36.9106],[140.6143,36.9086],[140.6156,36.9067],[140.6147,36.9042],[140.6155,36.9033],[140.621,36.9025],[140.6224,36.9033],[140.6258,36.9019],[140.628,36.9029],[140.6307,36.9],[140.6352,36.899],[140.6362,36.8976],[140.6464,36.8994],[140.6469,36.901],[140.6509,36.8997],[140.655,36.901],[140.6561,36.8972],[140.6643,36.8966],[140.6734,36.8932],[140.6801,36.8934],[140.6835,36.8907],[140.6883,36.8895],[140.6882,36.8884],[140.6925,36.8875],[140.6951,36.8888],[140.699,36.8836],[140.7024,36.8835],[140.7062,36.8814],[140.705,36.8803],[140.7055,36.8784],[140.7099,36.8771],[140.7141,36.8728],[140.7195,36.8726],[140.7213,36.8709],[140.7234,36.8711],[140.7245,36.8742],[140.7295,36.8744],[140.7312,36.8725],[140.7342,36.8716],[140.7408,36.8756],[140.7457,36.8713],[140.7547,36.8699],[140.7584,36.8673],[140.76,36.871],[140.7579,36.8724],[140.7601,36.8724],[140.762,36.8704],[140.7605,36.8702],[140.7597,36.867],[140.763,36.8644],[140.7646,36.8667],[140.7635,36.864],[140.7641,36.8631],[140.7659,36.8642],[140.7656,36.8674],[140.7673,36.8651],[140.7663,36.8633],[140.7673,36.8626],[140.7649,36.8625],[140.7672,36.8615],[140.7713,36.8629],[140.7718,36.8642],[140.769,36.8654],[140.7673,36.8669],[140.7673,36.8678],[140.7715,36.865],[140.7727,36.866],[140.7717,36.8685],[140.7735,36.8663],[140.7778,36.8673],[140.7819,36.8633],[140.7864,36.8621],[140.7853,36.8579],[140.7862,36.8562],[140.7897,36.8565],[140.791,36.8586],[140.794,36.8593],[140.7956,36.8593],[140.7961,36.8586],[140.7927,36.8575],[140.7943,36.8561],[140.7963,36.8581],[140.7969,36.8573],[140.7984,36.8582],[140.7983,36.8573],[140.7957,36.8562],[140.7967,36.8539],[140.7981,36.8535],[140.7987,36.8512],[140.7974,36.8516],[140.7966,36.8496],[140.7969,36.8471],[140.7984,36.8466],[140.7971,36.8465],[140.7971,36.8431],[140.798,36.8414],[140.7977,36.8415],[140.7976,36.8413],[140.7973,36.8415],[140.7971,36.8415],[140.8024,36.8394],[140.8024,36.8372],[140.8038,36.837],[140.8025,36.8358],[140.8042,36.8359],[140.8029,36.8344],[140.8035,36.8334],[140.8024,36.8324],[140.8047,36.832],[140.8056,36.8308],[140.7996,36.8269],[140.7983,36.8277],[140.7969,36.8265],[140.7926,36.8261],[140.7918,36.8277],[140.7884,36.827],[140.7908,36.8278],[140.7934,36.828],[140.7938,36.829],[140.7913,36.8297],[140.791,36.8285],[140.7908,36.8298],[140.7889,36.8296],[140.789,36.828],[140.7883,36.8279],[140.7881,36.8296],[140.7861,36.8295],[140.7873,36.8267],[140.7861,36.8267],[140.7861,36.8255],[140.7856,36.827],[140.7852,36.8249],[140.7842,36.8249],[140.7846,36.8268],[140.7826,36.8267],[140.7833,36.8248],[140.7825,36.8242],[140.7822,36.8254],[140.7763,36.8246],[140.7685,36.8183],[140.7615,36.8052],[140.7611,36.8053],[140.7606,36.8053],[140.7591,36.8003],[140.7587,36.8002],[140.7582,36.7999],[140.7578,36.8],[140.7581,36.7998],[140.759,36.8002],[140.7572,36.7941],[140.7559,36.7946],[140.7543,36.7934],[140.7484,36.7844],[140.7331,36.7487],[140.731,36.7514],[140.7279,36.7504],[140.7276,36.7513],[140.7244,36.752],[140.7194,36.7505],[140.7111,36.7503],[140.7028,36.7534],[140.698,36.7534],[140.6972,36.7519],[140.6956,36.7523],[140.6952,36.7508],[140.6919,36.7498],[140.6885,36.7503],[140.686,36.7523],[140.6869,36.7534],[140.6859,36.7524],[140.6852,36.7529],[140.6866,36.7573],[140.6822,36.7563],[140.6737,36.7581],[140.672,36.7604],[140.6716,36.7645],[140.6691,36.7652],[140.6659,36.7686],[140.6626,36.7693],[140.6608,36.7716],[140.6442,36.7719],[140.6435,36.7736],[140.6457,36.7734],[140.6491,36.7753],[140.6486,36.7817],[140.6495,36.783],[140.6631,36.7853],[140.6632,36.7897],[140.6669,36.7937],[140.67,36.7945],[140.6707,36.797],[140.6777,36.7983],[140.6799,36.8015],[140.6772,36.8047],[140.6751,36.8055],[140.676,36.8073],[140.6689,36.808],[140.6677,36.8092],[140.6651,36.8082],[140.6644,36.8094],[140.6575,36.8113],[140.655,36.8163],[140.6536,36.8169],[140.6535,36.8205],[140.6514,36.8201],[140.6501,36.821],[140.6444,36.8301],[140.6417,36.8306],[140.6421,36.8337],[140.6405,36.8349],[140.635,36.834],[140.6317,36.8363],[140.6322,36.8394],[140.6271,36.8426],[140.6256,36.8424],[140.6243,36.8452],[140.6117,36.8471],[140.6076,36.8502],[140.6073,36.8519],[140.604,36.8527],[140.605,36.8553],[140.6026,36.8567],[140.6014,36.8591],[140.6029,36.8611],[140.6012,36.865],[140.6019,36.8673],[140.5988,36.8682],[140.5985,36.8706],[140.5919,36.8729],[140.5933,36.88],[140.5899,36.8846],[140.5858,36.8864],[140.5863,36.8876],[140.5837,36.8901],[140.5825,36.8931],[140.5799,36.8934],[140.5794,36.8961],[140.5808,36.9044],[140.5763,36.9066],[140.5739,36.9089],[140.5738,36.911],[140.5718,36.9125],[140.5702,36.9117],[140.5684,36.914],[140.565,36.9127],[140.5653,36.9157],[140.5677,36.9189],[140.5679,36.9251],[140.5706,36.9313],[140.5682,36.9333],[140.5674,36.9367],[140.5711,36.9393],[140.5749,36.939],[140.5745,36.9413],[140.5756,36.9426],[140.5822,36.9427],[140.5862,36.9453]]],[[[140.8006,36.8609],[140.7993,36.8574],[140.7995,36.8592],[140.8006,36.8609]]],[[[140.7963,36.8593],[140.7984,36.8594],[140.7984,36.8593],[140.7963,36.8593]]],[[[140.8039,36.8289],[140.804,36.829],[140.804,36.829],[140.8039,36.8289]]],[[[140.804,36.8291],[140.8041,36.8293],[140.8042,36.8292],[140.804,36.8291]]],[[[140.8037,36.833],[140.8036,36.8331],[140.8037,36.8331],[140.8037,36.833]]],[[[140.8038,36.8333],[140.8038,36.8332],[140.8037,36.8331],[140.8038,36.8333]]],[[[140.8039,36.8337],[140.8036,36.8336],[140.8039,36.8338],[140.8039,36.8337]]],[[[140.804,36.8338],[140.8039,36.8339],[140.804,36.8339],[140.804,36.8338]]],[[[140.8041,36.8341],[140.8039,36.8341],[140.8039,36.8341],[140.8041,36.8341]]],[[[140.8041,36.8343],[140.8041,36.8343],[140.8042,36.8343],[140.8041,36.8343]]],[[[140.8034,36.8345],[140.8035,36.8346],[140.8035,36.8346],[140.8034,36.8345]]],[[[140.8045,36.8346],[140.8045,36.8347],[140.8046,36.8347],[140.8045,36.8346]]],[[[140.8042,36.836],[140.8042,36.8361],[140.8043,36.8361],[140.8042,36.836]]],[[[140.8044,36.836],[140.8044,36.8361],[140.8044,36.8361],[140.8044,36.836]]]]}},{"type":"Feature","properties":{"code":"08221","name":"ひたちなか市","pref_code":"08","pref":"茨城県"},"geometry":{"type":"MultiPolygon","coordinates":[[[[140.595,36.3375],[140.6002,36.337],[140.601,36.3366],[140.6025,36.3374],[140.601,36.3366],[140.595,36.3375]]],[[[140.6051,36.3367],[140.6051,36.3382],[140.6052,36.3382],[140.6051,36.3367]]],[[[140.5406,36.4562],[140.5427,36.4571],[140.5426,36.4586],[140.5408,36.459],[140.5429,36.459],[140.543,36.4569],[140.5424,36.4558],[140.5442,36.4476],[140.5476,36.4485],[140.5521,36.4475],[140.5526,36.4411],[140.5544,36.4388],[140.5598,36.4367],[140.5694,36.4361],[140.5723,36.4344],[140.5812,36.4353],[140.583,36.437],[140.5845,36.4356],[140.5837,36.4338],[140.5879,36.4337],[140.5867,36.4327],[140.5872,36.4314],[140.5908,36.4297],[140.5916,36.4267],[140.5955,36.4293],[140.6081,36.4245],[140.6081,36.4264],[140.6101,36.4264],[140.6101,36.4272],[140.6218,36.4272],[140.6215,36.4263],[140.6238,36.4261],[140.6215,36.4261],[140.6215,36.4249],[140.6257,36.4249],[140.626,36.4223],[140.6297,36.4223],[140.626,36.4222],[140.6257,36.4177],[140.6125,36.4178],[140.6125,36.4108],[140.6155,36.4107],[140.6138,36.4107],[140.6133,36.4078],[140.6131,36.4104],[140.6097,36.4105],[140.6107,36.4096],[140.6097,36.4096],[140.6097,36.4052],[140.615,36.4051],[140.6188,36.4094],[140.619,36.4112],[140.619,36.4094],[140.6148,36.4046],[140.6126,36.4042],[140.6122,36.4019],[140.6135,36.4016],[140.6121,36.3989],[140.6122,36.3973],[140.6133,36.3972],[140.6124,36.3963],[140.6126,36.3936],[140.6132,36.3927],[140.6159,36.3929],[140.6146,36.3922],[140.6151,36.3887],[140.6176,36.3848],[140.62,36.3842],[140.621,36.386],[140.6204,36.3845],[140.6225,36.3853],[140.6215,36.3835],[140.6228,36.3836],[140.6238,36.3849],[140.6225,36.3858],[140.6225,36.3863],[140.6279,36.3808],[140.6267,36.3802],[140.6274,36.3771],[140.6247,36.3741],[140.6251,36.3685],[140.6229,36.3672],[140.6211,36.3596],[140.6144,36.3566],[140.6143,36.355],[140.6132,36.3531],[140.6142,36.355],[140.6134,36.3557],[140.6127,36.3541],[140.6119,36.3549],[140.6108,36.354],[140.6109,36.3531],[140.6126,36.3532],[140.6109,36.353],[140.61,36.3535],[140.6095,36.3531],[140.6068,36.346],[140.6093,36.3448],[140.6078,36.3428],[140.606,36.3436],[140.6031,36.3395],[140.6036,36.3379],[140.6029,36.3396],[140.6022,36.3391],[140.6053,36.343],[140.6044,36.3434],[140.6006,36.3382],[140.6009,36.3397],[140.5998,36.3402],[140.5986,36.3386],[140.5974,36.3391],[140.5983,36.3409],[140.5966,36.3417],[140.594,36.3381],[140.5949,36.3379],[140.5939,36.3373],[140.5943,36.3363],[140.5879,36.3361],[140.5769,36.3445],[140.5627,36.3507],[140.5554,36.358],[140.5525,36.3565],[140.5513,36.3579],[140.5529,36.3595],[140.5494,36.3613],[140.5226,36.3677],[140.5114,36.3738],[140.5044,36.3813],[140.5022,36.3825],[140.498,36.3812],[140.4928,36.3747],[140.4888,36.3805],[140.4893,36.3822],[140.4843,36.3835],[140.4873,36.3868],[140.4848,36.3876],[140.4846,36.3901],[140.4881,36.395],[140.4869,36.3955],[140.4885,36.3977],[140.4835,36.4001],[140.482,36.4038],[140.4859,36.4105],[140.4878,36.4098],[140.4909,36.4147],[140.4947,36.4132],[140.4964,36.4158],[140.4992,36.4165],[140.4983,36.4196],[140.4997,36.419],[140.5015,36.4211],[140.5106,36.4194],[140.5118,36.4229],[140.5095,36.4255],[140.51,36.4292],[140.513,36.4291],[140.5136,36.427],[140.5187,36.4279],[140.5174,36.4358],[140.5143,36.4392],[140.5149,36.4469],[140.5176,36.4502],[140.5267,36.4519],[140.5261,36.4526],[140.5271,36.4532],[140.526,36.4533],[140.5294,36.4534],[140.5289,36.4578],[140.5299,36.4632],[140.5365,36.4592],[140.5363,36.4566],[140.5406,36.4562]]],[[[140.626,36.4271],[140.6224,36.427],[140.6224,36.4272],[140.626,36.4271]]]]}},{"type":"Feature","properties":{"code":"08222","name":"鹿嶋市","pref_code":"08","pref":"茨城県"},"geometry":{"type":"MultiPolygon","coordinates":[[[[140.7131,35.9645],[140.7115,35.9406],[140.7113,35.9405],[140.7131,35.9645]]],[[[140.6809,35.9731],[140.6797,35.9737],[140.6809,35.9733],[140.6809,35.9731]]],[[[140.6116,36.0814],[140.6137,36.0771],[140.6156,36.0774],[140.6142,36.0769],[140.6181,36.0681],[140.6195,36.0662],[140.6211,36.0667],[140.6199,36.066],[140.6227,36.0596],[140.6237,36.0579],[140.625,36.0587],[140.6255,36.0581],[140.6242,36.0579],[140.6254,36.0547],[140.6277,36.0502],[140.6296,36.0501],[140.6287,36.0487],[140.6293,36.047],[140.6329,36.04],[140.6349,36.0395],[140.6339,36.0383],[140.636,36.0343],[140.6371,36.0343],[140.6362,36.0335],[140.6381,36.0306],[140.6399,36.0307],[140.6389,36.0294],[140.6416,36.0242],[140.6436,36.024],[140.6424,36.0227],[140.644,36.0192],[140.6458,36.0164],[140.6479,36.0167],[140.6469,36.0152],[140.6502,36.0079],[140.6525,36.0072],[140.6512,36.006],[140.6529,36.0025],[140.6555,35.9983],[140.6575,35.9988],[140.6556,35.998],[140.6581,35.9925],[140.6594,35.9907],[140.6612,35.9917],[140.6618,35.9912],[140.6598,35.9901],[140.6638,35.9836],[140.6647,35.9838],[140.6638,35.9834],[140.6676,35.9764],[140.6727,35.9778],[140.6693,35.9764],[140.6706,35.9729],[140.6739,35.9703],[140.6769,35.9704],[140.6763,35.9717],[140.6786,35.9731],[140.6767,35.9715],[140.6778,35.9697],[140.6801,35.9706],[140.6804,35.9692],[140.6777,35.969],[140.6783,35.9675],[140.6819,35.9689],[140.6804,35.9707],[140.6807,35.9724],[140.6826,35.9685],[140.6935,35.9691],[140.7008,35.9625],[140.7023,35.9631],[140.7006,35.9624],[140.6958,35.9663],[140.688,35.966],[140.6849,35.9644],[140.6964,35.9437],[140.701,35.9378],[140.7035,35.9387],[140.6999,35.9368],[140.7001,35.9383],[140.6986,35.9377],[140.6997,35.937],[140.6973,35.9359],[140.6979,35.935],[140.6969,35.9358],[140.6934,35.9344],[140.6941,35.9334],[140.6906,35.9324],[140.6598,35.9289],[140.6542,35.9299],[140.6535,35.9283],[140.647,35.9293],[140.6459,35.9279],[140.6381,35.9296],[140.6374,35.931],[140.6294,35.9304],[140.6204,35.9357],[140.6239,35.9405],[140.614,35.948],[140.6092,35.9578],[140.6038,35.963],[140.5998,35.9649],[140.5925,35.9651],[140.5904,35.9678],[140.5891,35.9738],[140.5943,35.9778],[140.5962,35.9828],[140.5825,35.9986],[140.5725,36.0048],[140.5666,36.0121],[140.5677,36.0202],[140.5654,36.0361],[140.5625,36.0397],[140.5629,36.0498],[140.5539,36.0549],[140.5539,36.0617],[140.5652,36.0626],[140.5649,36.0634],[140.5683,36.0646],[140.569,36.0676],[140.5762,36.0677],[140.5797,36.0717],[140.5827,36.0703],[140.5877,36.0707],[140.5896,36.0736],[140.5896,36.077],[140.5967,36.0802],[140.6037,36.08],[140.6073,36.082],[140.6116,36.0814]]]]}},{"type":"Feature","properties":{"code":"08232","name":"神栖市","pref_code":"08","pref":"茨城県"},"geometry":{"type":"MultiPolygon","coordinates":[[[[140.8413,35.7501],[140.8413,35.7504],[140.8415,35.7503],[140.8413,35.7501]]],[[[140.7115,35.9406],[140.7104,35.9267],[140.7065,35.9251],[140.7079,35.9214],[140.7093,35.9194],[140.7102,35.9198],[140.7092,35.9193],[140.7106,35.9192],[140.7097,35.9188],[140.711,35.9168],[140.7203,35.9035],[140.7212,35.9039],[140.7203,35.9034],[140.7214,35.9036],[140.7205,35.9031],[140.7221,35.9023],[140.7214,35.9019],[140.7234,35.9004],[140.7228,35.9001],[140.7248,35.8985],[140.7248,35.8973],[140.7255,35.8977],[140.7248,35.8973],[140.7262,35.8967],[140.7255,35.8964],[140.7269,35.8958],[140.7262,35.8954],[140.7275,35.8949],[140.7269,35.8945],[140.7282,35.8939],[140.7276,35.8936],[140.7289,35.893],[140.7283,35.8927],[140.7296,35.8921],[140.7296,35.8909],[140.7303,35.8912],[140.7296,35.8908],[140.7309,35.8902],[140.7311,35.8887],[140.732,35.8892],[140.7312,35.8885],[140.7322,35.8888],[140.7313,35.8884],[140.7335,35.8867],[140.7329,35.8863],[140.7425,35.8732],[140.7417,35.8741],[140.7404,35.8735],[140.7406,35.8697],[140.7511,35.854],[140.7843,35.8102],[140.7872,35.8097],[140.7866,35.8081],[140.7913,35.8008],[140.7964,35.795],[140.7986,35.7948],[140.798,35.7936],[140.8017,35.788],[140.8062,35.7828],[140.8084,35.7826],[140.8076,35.7814],[140.8109,35.7761],[140.813,35.7748],[140.8141,35.7753],[140.8135,35.7743],[140.8148,35.7718],[140.8187,35.7678],[140.8207,35.7675],[140.8203,35.7661],[140.8253,35.7604],[140.8289,35.7571],[140.83,35.7577],[140.8291,35.757],[140.8302,35.7561],[140.8358,35.753],[140.8417,35.7568],[140.8407,35.7579],[140.8418,35.7568],[140.8402,35.7556],[140.8447,35.7528],[140.8429,35.752],[140.84,35.7549],[140.8366,35.7525],[140.8379,35.7516],[140.8404,35.7527],[140.8381,35.751],[140.8396,35.7497],[140.8418,35.751],[140.8421,35.7505],[140.8415,35.7508],[140.8398,35.7488],[140.8428,35.7465],[140.8451,35.7485],[140.8434,35.7497],[140.8437,35.7506],[140.8463,35.7486],[140.8464,35.7472],[140.8476,35.7467],[140.8488,35.7479],[140.8494,35.7505],[140.8466,35.7527],[140.8452,35.7568],[140.8467,35.76],[140.8453,35.7568],[140.8467,35.7527],[140.8495,35.7506],[140.8489,35.7478],[140.8477,35.7467],[140.852,35.7447],[140.8499,35.7414],[140.8402,35.7392],[140.822,35.7394],[140.818,35.7404],[140.8056,35.7468],[140.7882,35.7584],[140.7444,35.7832],[140.7346,35.7912],[140.7268,35.7995],[140.7172,35.8228],[140.7131,35.8294],[140.7066,35.8363],[140.6972,35.8424],[140.6836,35.849],[140.6709,35.8524],[140.6411,35.8564],[140.6307,35.8591],[140.6283,35.8655],[140.6194,35.8764],[140.6116,35.8918],[140.5989,35.9032],[140.6024,35.9094],[140.6025,35.9134],[140.6011,35.9177],[140.6119,35.9236],[140.617,35.9249],[140.6171,35.9309],[140.6204,35.9357],[140.6294,35.9304],[140.6374,35.931],[140.6381,35.9296],[140.6459,35.9279],[140.647,35.9293],[140.6533,35.9284],[140.6524,35.9266],[140.6541,35.9254],[140.6689,35.9192],[140.6669,35.9197],[140.6682,35.9182],[140.6699,35.9185],[140.671,35.9167],[140.6699,35.9182],[140.6696,35.9163],[140.6715,35.9157],[140.6735,35.9125],[140.6736,35.912],[140.6714,35.9116],[140.672,35.9107],[140.6735,35.9117],[140.6747,35.897],[140.6772,35.8967],[140.6785,35.8951],[140.6852,35.8858],[140.6852,35.8834],[140.6869,35.881],[140.691,35.8831],[140.6786,35.9012],[140.6773,35.9122],[140.7,35.9257],[140.7019,35.9237],[140.7006,35.9237],[140.7008,35.9231],[140.7016,35.9235],[140.7025,35.9216],[140.7056,35.9227],[140.7047,35.9244],[140.7102,35.9269],[140.7115,35.9406]]],[[[140.6934,35.9285],[140.676,35.9191],[140.6653,35.9239],[140.6669,35.9268],[140.6628,35.9286],[140.6615,35.9267],[140.6632,35.9256],[140.6614,35.9256],[140.6557,35.9291],[140.6941,35.9334],[140.6927,35.9321],[140.6934,35.9285]]],[[[140.6991,35.9342],[140.6951,35.9322],[140.6961,35.9322],[140.6952,35.9318],[140.6962,35.9301],[140.6948,35.9293],[140.6941,35.9319],[140.6991,35.9342]]],[[[140.6978,35.9345],[140.6979,35.935],[140.6981,35.9346],[140.6978,35.9345]]]]}},{"type":"Feature","properties":{"code":"08234","name":"鉾田市","pref_code":"08","pref":"茨城県"},"geometry":{"type":"Polygon","coordinates":[[[140.5263,36.2664],[140.5306,36.2661],[140.5323,36.2644],[140.5346,36.2647],[140.5368,36.2637],[140.5368,36.2672],[140.5371,36.2632],[140.538,36.2621],[140.5404,36.2613],[140.5424,36.2618],[140.5398,36.2617],[140.543,36.2645],[140.5406,36.2632],[140.5396,36.2639],[140.5411,36.2654],[140.5391,36.2666],[140.5414,36.2672],[140.541,36.2658],[140.5438,36.2655],[140.5437,36.2636],[140.547,36.266],[140.5437,36.2617],[140.5466,36.2609],[140.5472,36.2631],[140.5481,36.263],[140.5479,36.2599],[140.5497,36.2608],[140.5485,36.2606],[140.5489,36.2614],[140.5505,36.2615],[140.5517,36.2614],[140.551,36.2594],[140.5524,36.261],[140.5533,36.2597],[140.5545,36.261],[140.557,36.2604],[140.5576,36.2559],[140.5596,36.2558],[140.56,36.2539],[140.5614,36.2537],[140.5598,36.2521],[140.5605,36.2453],[140.5623,36.2444],[140.5606,36.2436],[140.5608,36.2394],[140.5614,36.2361],[140.5635,36.2357],[140.5617,36.2346],[140.5627,36.2278],[140.5647,36.227],[140.5631,36.2261],[140.5632,36.2212],[140.5644,36.2183],[140.5662,36.2179],[140.5646,36.2158],[140.566,36.2094],[140.5681,36.209],[140.5667,36.2082],[140.5666,36.2064],[140.568,36.2009],[140.5701,36.2002],[140.5687,36.199],[140.569,36.1968],[140.5702,36.1918],[140.5721,36.1912],[140.5709,36.1906],[140.5711,36.1882],[140.5744,36.1752],[140.5846,36.1436],[140.5864,36.1394],[140.5885,36.139],[140.5872,36.1377],[140.589,36.1321],[140.59,36.1304],[140.5918,36.1304],[140.5905,36.1291],[140.5921,36.1238],[140.5931,36.1224],[140.595,36.1221],[140.5936,36.1206],[140.5955,36.1153],[140.5967,36.1134],[140.5987,36.1132],[140.5976,36.1112],[140.6001,36.1052],[140.6024,36.105],[140.6013,36.1031],[140.6038,36.0971],[140.6065,36.0965],[140.6056,36.0948],[140.6089,36.0864],[140.6116,36.0859],[140.6103,36.085],[140.6113,36.0821],[140.6068,36.0819],[140.6032,36.0799],[140.5967,36.0802],[140.5896,36.077],[140.5896,36.0736],[140.5877,36.0707],[140.583,36.0702],[140.5793,36.0716],[140.5762,36.0677],[140.5697,36.0679],[140.5683,36.0646],[140.5619,36.0618],[140.5539,36.0617],[140.5504,36.0661],[140.5437,36.0689],[140.5438,36.0727],[140.5393,36.0806],[140.5401,36.0871],[140.5373,36.0908],[140.5324,36.0929],[140.5289,36.0965],[140.5333,36.1],[140.5328,36.1039],[140.5309,36.1061],[140.5276,36.1077],[140.5278,36.1095],[140.5312,36.1139],[140.5307,36.1158],[140.524,36.1238],[140.5199,36.1213],[140.5133,36.1236],[140.512,36.1248],[140.5138,36.1278],[140.51,36.1289],[140.5105,36.13],[140.507,36.1326],[140.5054,36.1314],[140.503,36.1323],[140.5031,36.1301],[140.5021,36.1304],[140.5028,36.1296],[140.4966,36.128],[140.4945,36.1306],[140.4916,36.1269],[140.492,36.1231],[140.4788,36.1265],[140.4769,36.1252],[140.463,36.1233],[140.4498,36.1314],[140.4492,36.1332],[140.4506,36.1348],[140.4494,36.1346],[140.4477,36.1363],[140.451,36.1393],[140.4469,36.1398],[140.4493,36.1409],[140.4534,36.1454],[140.4559,36.1513],[140.4519,36.1518],[140.4543,36.153],[140.4558,36.1586],[140.4505,36.158],[140.4464,36.1609],[140.4437,36.1605],[140.439,36.1663],[140.4366,36.166],[140.4403,36.1781],[140.4438,36.1845],[140.4498,36.1863],[140.4478,36.1951],[140.4422,36.2029],[140.433,36.2083],[140.4199,36.2115],[140.4146,36.2199],[140.417,36.2211],[140.4182,36.2241],[140.4202,36.2244],[140.4178,36.2259],[140.4211,36.2283],[140.4207,36.2319],[140.4325,36.2281],[140.4373,36.2328],[140.4392,36.2379],[140.441,36.2388],[140.4441,36.2337],[140.4442,36.232],[140.4417,36.23],[140.4448,36.2312],[140.4459,36.2305],[140.4454,36.2295],[140.4462,36.23],[140.4473,36.2288],[140.4513,36.2324],[140.4515,36.2375],[140.456,36.2353],[140.4686,36.2375],[140.4779,36.2361],[140.4769,36.2386],[140.4776,36.2423],[140.4816,36.241],[140.4835,36.2428],[140.4859,36.243],[140.4872,36.245],[140.4927,36.2445],[140.4963,36.246],[140.4969,36.249],[140.4935,36.2503],[140.4953,36.2524],[140.494,36.2584],[140.4942,36.2617],[140.4964,36.2651],[140.4962,36.276],[140.5224,36.2782],[140.5263,36.2664]]]}},{"type":"Feature","properties":{"code":"08309","name":"大洗町","pref_code":"08","pref":"茨城県"},"geometry":{"type":"MultiPolygon","coordinates":[[[[140.5934,36.3362],[140.595,36.3347],[140.5967,36.3353],[140.5975,36.3355],[140.5979,36.3354],[140.5949,36.3345],[140.5933,36.3249],[140.5939,36.3216],[140.5892,36.3152],[140.5886,36.3134],[140.5869,36.3126],[140.587,36.3115],[140.5853,36.3106],[140.5854,36.3091],[140.581,36.3086],[140.5786,36.3068],[140.5786,36.3023],[140.5798,36.3009],[140.5783,36.3023],[140.5782,36.3069],[140.581,36.3089],[140.5847,36.3093],[140.5848,36.3108],[140.5832,36.3106],[140.5832,36.3097],[140.5831,36.3106],[140.5813,36.3107],[140.581,36.3098],[140.581,36.3107],[140.5791,36.3107],[140.579,36.3095],[140.5802,36.3094],[140.5787,36.3088],[140.5787,36.3107],[140.5774,36.3107],[140.5774,36.3094],[140.5758,36.3098],[140.5745,36.3077],[140.5715,36.3091],[140.57,36.3078],[140.5719,36.3063],[140.571,36.3055],[140.5714,36.3051],[140.5715,36.3046],[140.569,36.3059],[140.5757,36.3006],[140.5729,36.3027],[140.5655,36.2977],[140.5606,36.2918],[140.5604,36.2898],[140.5623,36.2895],[140.5642,36.2887],[140.5606,36.2895],[140.5584,36.2855],[140.5582,36.2726],[140.5603,36.2715],[140.5584,36.2704],[140.5589,36.2639],[140.5593,36.2627],[140.5608,36.2624],[140.5592,36.2612],[140.5596,36.2558],[140.5576,36.2559],[140.557,36.2604],[140.5545,36.261],[140.5533,36.2597],[140.5524,36.261],[140.551,36.2594],[140.5517,36.2614],[140.5505,36.2615],[140.5489,36.2614],[140.5485,36.2606],[140.5497,36.2608],[140.5479,36.2599],[140.5481,36.263],[140.5472,36.2631],[140.5466,36.2609],[140.5437,36.2617],[140.547,36.266],[140.5437,36.2636],[140.5438,36.2655],[140.541,36.2658],[140.5414,36.2672],[140.5391,36.2666],[140.5411,36.2654],[140.5396,36.2639],[140.5406,36.2632],[140.543,36.2645],[140.5398,36.2617],[140.5424,36.2618],[140.5404,36.2613],[140.5371,36.2632],[140.5368,36.2672],[140.5368,36.2637],[140.5346,36.2647],[140.5323,36.2644],[140.5306,36.2661],[140.5261,36.2664],[140.5224,36.2782],[140.5321,36.2976],[140.5329,36.3023],[140.5307,36.3063],[140.5326,36.3085],[140.5375,36.3115],[140.5386,36.3145],[140.542,36.3157],[140.5419,36.3174],[140.5444,36.319],[140.55,36.319],[140.5525,36.3143],[140.5591,36.3133],[140.5611,36.3201],[140.5671,36.3225],[140.5713,36.3276],[140.5751,36.3273],[140.5816,36.3353],[140.5868,36.3367],[140.5934,36.3362]]],[[[140.5872,36.2907],[140.585,36.2935],[140.5851,36.3019],[140.5852,36.2936],[140.5872,36.2907]]],[[[140.5862,36.3097],[140.5862,36.3097],[140.5862,36.3097],[140.5862,36.3097]]],[[[140.5865,36.3105],[140.5864,36.3106],[140.5865,36.3105],[140.5865,36.3105]]],[[[140.5861,36.3107],[140.5861,36.3109],[140.5862,36.3108],[140.5861,36.3107]]],[[[140.5862,36.3109],[140.5862,36.3109],[140.5862,36.3109],[140.5862,36.3109]]],[[[140.5878,36.3109],[140.5878,36.3109],[140.5878,36.3109],[140.5878,36.3109]]],[[[140.5864,36.311],[140.5864,36.3111],[140.5864,36.311],[140.5864,36.311]]],[[[140.5879,36.311],[140.588,36.3111],[140.588,36.311],[140.5879,36.311]]],[[[140.5876,36.3111],[140.5876,36.3112],[140.5877,36.3112],[140.5876,36.3111]]],[[[140.5874,36.3114],[140.5875,36.3115],[140.5875,36.3115],[140.5874,36.3114]]],[[[140.5871,36.3114],[140.5872,36.3115],[140.5872,36.3115],[140.5871,36.3114]]],[[[140.5874,36.3115],[140.5874,36.3117],[140.5875,36.3117],[140.5874,36.3115]]],[[[140.5871,36.3115],[140.5874,36.3117],[140.5874,36.3117],[140.5873,36.3116],[140.5871,36.3115]]],[[[140.5872,36.3117],[140.5873,36.3118],[140.5873,36.3118],[140.5872,36.3117]]],[[[140.5877,36.3118],[140.5877,36.3119],[140.5878,36.3118],[140.5877,36.3118]]],[[[140.5874,36.3124],[140.5873,36.3125],[140.5874,36.3125],[140.5874,36.3124]]],[[[140.5881,36.3125],[140.5881,36.3126],[140.5881,36.3125],[140.5881,36.3125]]],[[[140.5874,36.3125],[140.5874,36.3126],[140.5875,36.3126],[140.5874,36.3125]]],[[[140.5886,36.3125],[140.5886,36.3126],[140.5886,36.3126],[140.5886,36.3125]]],[[[140.588,36.3127],[140.5879,36.3127],[140.5879,36.3128],[140.588,36.3127]]],[[[140.5879,36.3128],[140.5879,36.3129],[140.5879,36.3129],[140.5879,36.3128]]],[[[140.5883,36.3129],[140.5883,36.3129],[140.5883,36.3129],[140.5883,36.3129]]],[[[140.5882,36.313],[140.5883,36.3131],[140.5883,36.313],[140.5882,36.313]]],[[[140.5886,36.3133],[140.5886,36.3132],[140.5886,36.3133],[140.5886,36.3133]]],[[[140.589,36.3099],[140.589,36.3101],[140.589,36.3101],[140.589,36.3099]]],[[[140.5889,36.3128],[140.5889,36.3129],[140.589,36.3128],[140.5889,36.3128]]],[[[140.5893,36.3131],[140.5893,36.3132],[140.5893,36.3131],[140.5893,36.3131]]],[[[140.5887,36.3131],[140.5887,36.3132],[140.5888,36.3132],[140.5887,36.3131]]],[[[140.5887,36.3131],[140.5887,36.3132],[140.5887,36.3132],[140.5887,36.3131]]],[[[140.5891,36.3131],[140.589,36.3132],[140.5891,36.3132],[140.5891,36.3131]]],[[[140.5895,36.3132],[140.5895,36.3133],[140.5896,36.3133],[140.5895,36.3132]]],[[[140.5893,36.3133],[140.5892,36.3133],[140.5892,36.3133],[140.5893,36.3133]]],[[[140.5887,36.3133],[140.5887,36.3134],[140.5887,36.3134],[140.5887,36.3133]]],[[[140.5892,36.3134],[140.5891,36.3135],[140.5892,36.3134],[140.5892,36.3134]]],[[[140.5891,36.3137],[140.5891,36.3138],[140.5892,36.3137],[140.5891,36.3137]]],[[[140.5895,36.3137],[140.5895,36.3138],[140.5895,36.3139],[140.5895,36.3137]]],[[[140.5898,36.3139],[140.5898,36.314],[140.5898,36.3139],[140.5898,36.3139]]],[[[140.589,36.314],[140.589,36.3141],[140.589,36.314],[140.589,36.314]]],[[[140.5895,36.314],[140.5894,36.3141],[140.5895,36.3141],[140.5895,36.314]]],[[[140.5891,36.3142],[140.5891,36.3143],[140.5891,36.3143],[140.5891,36.3142]]],[[[140.5893,36.3143],[140.5892,36.3143],[140.5893,36.3143],[140.5893,36.3143]]],[[[140.5895,36.3145],[140.5895,36.3146],[140.5895,36.3146],[140.5895,36.3145]]],[[[140.5893,36.3145],[140.5893,36.3146],[140.5893,36.3146],[140.5893,36.3145]]],[[[140.5893,36.3148],[140.5892,36.3147],[140.5892,36.3147],[140.5893,36.3148]]],[[[140.5894,36.3147],[140.5894,36.3148],[140.5895,36.3148],[140.5894,36.3147]]],[[[140.5898,36.3149],[140.5898,36.315],[140.5898,36.3149],[140.5898,36.3149]]],[[[140.5895,36.3149],[140.5894,36.315],[140.5896,36.3149],[140.5895,36.3149]]],[[[140.5896,36.315],[140.5895,36.3151],[140.5897,36.315],[140.5896,36.315]]],[[[140.5899,36.3151],[140.5898,36.3152],[140.5899,36.3152],[140.5899,36.3151]]],[[[140.59,36.3148],[140.59,36.3148],[140.5901,36.3148],[140.59,36.3148]]],[[[140.59,36.3155],[140.5899,36.3156],[140.59,36.3155],[140.59,36.3155]]],[[[140.5911,36.3156],[140.5911,36.3156],[140.5912,36.3156],[140.5911,36.3156]]],[[[140.5902,36.3156],[140.5903,36.3157],[140.5903,36.3157],[140.5902,36.3156]]],[[[140.5902,36.3158],[140.5901,36.3158],[140.5901,36.3159],[140.5902,36.3158]]],[[[140.5911,36.3157],[140.5908,36.3156],[140.5912,36.3159],[140.5911,36.3157]]],[[[140.5916,36.3162],[140.5916,36.3163],[140.5916,36.3162],[140.5916,36.3162]]],[[[140.5909,36.3162],[140.5909,36.3163],[140.591,36.3164],[140.5909,36.3162]]],[[[140.5912,36.3165],[140.5912,36.3162],[140.591,36.3162],[140.5912,36.3165]]],[[[140.5915,36.3164],[140.5915,36.3165],[140.5915,36.3164],[140.5915,36.3164]]],[[[140.591,36.3164],[140.591,36.3165],[140.5911,36.3165],[140.591,36.3164]]],[[[140.5915,36.3165],[140.5914,36.3165],[140.5914,36.3166],[140.5915,36.3165]]],[[[140.5909,36.3165],[140.5909,36.3167],[140.591,36.3166],[140.5909,36.3165]]],[[[140.5916,36.3166],[140.5916,36.3167],[140.5916,36.3167],[140.5916,36.3166]]],[[[140.5914,36.3168],[140.5913,36.3169],[140.5914,36.3169],[140.5914,36.3168]]],[[[140.5915,36.3169],[140.5915,36.3169],[140.5916,36.3169],[140.5915,36.3169]]],[[[140.5913,36.3169],[140.5913,36.317],[140.5913,36.317],[140.5913,36.3169]]],[[[140.5916,36.3169],[140.5915,36.3171],[140.5916,36.317],[140.5916,36.3169]]],[[[140.5913,36.3171],[140.5912,36.3171],[140.5913,36.3171],[140.5913,36.3171]]],[[[140.5917,36.3171],[140.5917,36.3171],[140.5917,36.3171],[140.5917,36.3171]]],[[[140.5915,36.3171],[140.5915,36.3172],[140.5915,36.3171],[140.5915,36.3171]]],[[[140.5914,36.3173],[140.5914,36.3172],[140.5913,36.3173],[140.5914,36.3173]]],[[[140.5914,36.3175],[140.5914,36.3175],[140.5914,36.3175],[140.5914,36.3175]]],[[[140.5916,36.3175],[140.5916,36.3177],[140.5917,36.3175],[140.5916,36.3175]]],[[[140.5922,36.3182],[140.5922,36.3183],[140.5923,36.3183],[140.5922,36.3182]]],[[[140.5928,36.3185],[140.5925,36.3187],[140.5925,36.3188],[140.5928,36.3185]]],[[[140.5937,36.3185],[140.5934,36.3189],[140.5935,36.319],[140.5937,36.3185]]],[[[140.5934,36.3192],[140.5932,36.319],[140.5932,36.3192],[140.5934,36.3192]]],[[[140.5935,36.3194],[140.5935,36.3196],[140.5937,36.3195],[140.5935,36.3194]]],[[[140.5941,36.3201],[140.594,36.3202],[140.5941,36.3201],[140.5941,36.3201]]],[[[140.5937,36.3202],[140.5936,36.3202],[140.5936,36.3203],[140.5937,36.3202]]],[[[140.5944,36.3202],[140.594,36.3204],[140.594,36.3208],[140.5944,36.3202]]],[[[140.5945,36.3207],[140.5945,36.321],[140.5945,36.3211],[140.5945,36.3207]]],[[[140.5942,36.3209],[140.5939,36.3212],[140.594,36.3213],[140.5942,36.3209]]],[[[140.5944,36.3217],[140.5943,36.3211],[140.5942,36.3217],[140.5944,36.3217]]],[[[140.5948,36.3216],[140.5948,36.3217],[140.5949,36.3217],[140.5948,36.3216]]],[[[140.5942,36.3218],[140.5944,36.3219],[140.5944,36.3218],[140.5942,36.3218]]],[[[140.5947,36.3219],[140.5947,36.3219],[140.5948,36.3219],[140.5947,36.3219]]],[[[140.5941,36.3219],[140.5942,36.3219],[140.5941,36.3218],[140.5941,36.3219]]],[[[140.5945,36.322],[140.5945,36.3221],[140.5946,36.3221],[140.5945,36.322]]],[[[140.5945,36.3222],[140.5945,36.3223],[140.5945,36.3222],[140.5945,36.3222]]],[[[140.5945,36.3223],[140.5944,36.3224],[140.5945,36.3224],[140.5945,36.3223]]],[[[140.5945,36.3224],[140.5944,36.3225],[140.5945,36.3225],[140.5945,36.3224]]],[[[140.5942,36.3233],[140.5943,36.3234],[140.5942,36.3233],[140.5942,36.3233]]],[[[140.5942,36.3234],[140.5941,36.3235],[140.5942,36.3235],[140.5942,36.3234]]],[[[140.5948,36.3234],[140.5948,36.3234],[140.5948,36.3234],[140.5948,36.3234]]],[[[140.5941,36.3237],[140.5941,36.3239],[140.5942,36.3239],[140.5941,36.3237]]],[[[140.5941,36.324],[140.5941,36.3241],[140.5942,36.3241],[140.5941,36.324]]],[[[140.5942,36.3242],[140.5942,36.3243],[140.5943,36.3243],[140.5942,36.3242]]]]}},{"type":"Feature","properties":{"code":"08341","name":"東海村","pref_code":"08","pref":"茨城県"},"geometry":{"type":"MultiPolygon","coordinates":[[[[140.636,36.4051],[140.6402,36.3953],[140.64,36.3952],[140.6357,36.4051],[140.6361,36.4455],[140.636,36.4051]]],[[[140.6278,36.4341],[140.6275,36.4376],[140.6278,36.4376],[140.6278,36.4341]]],[[[140.5822,36.4937],[140.5843,36.4947],[140.5906,36.4941],[140.5918,36.492],[140.5912,36.4894],[140.5964,36.4876],[140.6024,36.4825],[140.6097,36.4825],[140.6159,36.4809],[140.6142,36.4806],[140.6116,36.4764],[140.6097,36.4691],[140.6145,36.4681],[140.6165,36.4653],[140.6142,36.4678],[140.6105,36.4677],[140.6105,36.4651],[140.6148,36.4655],[140.6107,36.465],[140.6096,36.4627],[140.6084,36.452],[140.6102,36.4436],[140.6117,36.4428],[140.6091,36.4421],[140.6089,36.4411],[140.6094,36.4404],[140.6152,36.4418],[140.6329,36.4415],[140.6273,36.4415],[140.6272,36.4312],[140.6167,36.432],[140.6166,36.4313],[140.61,36.4313],[140.61,36.428],[140.6083,36.4284],[140.6082,36.4265],[140.6099,36.4265],[140.61,36.4275],[140.6101,36.4264],[140.6081,36.4264],[140.6081,36.4245],[140.5957,36.4293],[140.5916,36.4267],[140.5908,36.4297],[140.5872,36.4314],[140.5867,36.4327],[140.5879,36.4337],[140.5837,36.4338],[140.5845,36.4356],[140.583,36.437],[140.5812,36.4353],[140.5723,36.4344],[140.5694,36.4361],[140.5598,36.4367],[140.5544,36.4388],[140.5526,36.4411],[140.5521,36.4475],[140.5476,36.4485],[140.5442,36.4476],[140.5424,36.4558],[140.543,36.4588],[140.5394,36.4666],[140.5442,36.4706],[140.5417,36.4752],[140.5481,36.4773],[140.5503,36.4818],[140.5499,36.4853],[140.5561,36.4871],[140.5609,36.4916],[140.5648,36.4917],[140.5663,36.4943],[140.5714,36.4939],[140.5771,36.4958],[140.5822,36.4937]]]]}}]}