{"type":"FeatureCollection","pref_code":"16","features":[{"type":"Feature","properties":{"code":"16201","name":"富山市","pref_code":"16","pref":"富山県"},"geometry":{"type":"MultiPolygon","coordinates":[[[[137.2292,36.7666],[137.2347,36.7658],[137.2352,36.7648],[137.2401,36.7648],[137.2428,36.7661],[137.2602,36.7619],[137.2716,36.7614],[137.2942,36.7569],[137.2966,36.757],[137.2973,36.7581],[137.2991,36.7584],[137.2972,36.7579],[137.297,36.757],[137.3003,36.7581],[137.3011,36.7557],[137.3011,36.7584],[137.2991,36.7587],[137.2994,36.7591],[137.3009,36.7587],[137.3012,36.7584],[137.3014,36.7577],[137.3023,36.758],[137.3019,36.7589],[137.3004,36.7594],[137.316,36.7586],[137.3161,36.7543],[137.3204,36.7544],[137.3233,36.7507],[137.3258,36.7507],[137.3258,36.7517],[137.328,36.7511],[137.3307,36.7474],[137.3308,36.7445],[137.3373,36.7426],[137.3388,36.7406],[137.3388,36.7386],[137.3351,36.7341],[137.3366,36.7318],[137.341,36.7308],[137.341,36.7285],[137.3421,36.7284],[137.3434,36.7261],[137.3371,36.724],[137.336,36.7254],[137.3322,36.7261],[137.3263,36.7258],[137.3246,36.7276],[137.3213,36.7269],[137.3223,36.7204],[137.3257,36.7162],[137.3233,36.7154],[137.319,36.7161],[137.3178,36.713],[137.3131,36.7111],[137.3109,36.7116],[137.3102,36.7091],[137.3085,36.7077],[137.3068,36.7083],[137.308,36.7114],[137.3051,36.7131],[137.3002,36.7106],[137.2997,36.7089],[137.2982,36.7089],[137.2945,36.7059],[137.2912,36.7007],[137.2906,36.6974],[137.2889,36.6964],[137.2879,36.6981],[137.2863,36.695],[137.2856,36.6959],[137.2775,36.695],[137.2833,36.6729],[137.2826,36.6509],[137.2851,36.6407],[137.2935,36.6279],[137.314,36.6048],[137.3177,36.5988],[137.319,36.5921],[137.3207,36.5896],[137.3259,36.5851],[137.3313,36.583],[137.3338,36.5793],[137.3369,36.5774],[137.3455,36.5743],[137.3546,36.5734],[137.3614,36.5712],[137.3746,36.5725],[137.3879,36.5767],[137.3916,36.5763],[137.4042,36.5791],[137.4189,36.584],[137.4294,36.5828],[137.4379,36.5851],[137.4416,36.5838],[137.4423,36.5809],[137.4489,36.5795],[137.4572,36.5725],[137.4605,36.5726],[137.4673,36.5703],[137.4746,36.5658],[137.482,36.5669],[137.4881,36.5652],[137.4981,36.5576],[137.5023,36.5589],[137.5048,36.5557],[137.5094,36.5529],[137.5097,36.5507],[137.5084,36.5491],[137.511,36.5471],[137.5161,36.5468],[137.5221,36.5446],[137.5292,36.5482],[137.5372,36.5489],[137.542,36.5479],[137.5431,36.546],[137.5592,36.5507],[137.5627,36.5533],[137.5681,36.5538],[137.5708,36.5557],[137.5843,36.5556],[137.5905,36.5543],[137.5997,36.5478],[137.6473,36.5248],[137.6481,36.5226],[137.6545,36.5196],[137.6629,36.5241],[137.6727,36.5266],[137.6778,36.5251],[137.6814,36.5228],[137.6933,36.5196],[137.6973,36.5225],[137.6995,36.5267],[137.7022,36.5272],[137.7037,36.5267],[137.7027,36.5244],[137.7054,36.5178],[137.697,36.5146],[137.6943,36.5107],[137.6901,36.5137],[137.6856,36.5138],[137.6832,36.5127],[137.6773,36.5144],[137.6755,36.5114],[137.6687,36.5095],[137.6669,36.5062],[137.6677,36.496],[137.6668,36.4938],[137.6576,36.4931],[137.652,36.4882],[137.6508,36.4798],[137.6531,36.4778],[137.6534,36.475],[137.6567,36.4702],[137.6547,36.4644],[137.6554,36.4592],[137.6518,36.4583],[137.6495,36.4548],[137.6453,36.4545],[137.6432,36.4487],[137.6399,36.4458],[137.6385,36.4368],[137.6377,36.437],[137.6373,36.4355],[137.638,36.4319],[137.6365,36.4284],[137.6329,36.4249],[137.623,36.4238],[137.6174,36.4186],[137.6081,36.4194],[137.6092,36.4179],[137.6074,36.413],[137.6045,36.4122],[137.6038,36.4107],[137.6054,36.4025],[137.6003,36.3991],[137.5967,36.3944],[137.5938,36.3935],[137.5922,36.3896],[137.5855,36.3898],[137.5767,36.393],[137.5733,36.3924],[137.5712,36.389],[137.5683,36.3894],[137.5595,36.3875],[137.5409,36.3914],[137.536,36.3975],[137.5328,36.3989],[137.5312,36.4025],[137.5254,36.4036],[137.5241,36.4053],[137.5203,36.4061],[137.5151,36.4113],[137.5151,36.4139],[137.5127,36.4164],[137.5115,36.4237],[137.5042,36.4257],[137.497,36.4261],[137.4911,36.4235],[137.483,36.4237],[137.4741,36.4254],[137.4731,36.4224],[137.4687,36.4172],[137.4607,36.4122],[137.4494,36.4168],[137.4453,36.413],[137.44,36.4159],[137.4396,36.4177],[137.4381,36.4177],[137.436,36.4204],[137.4323,36.4214],[137.4272,36.4202],[137.426,36.4224],[137.4207,36.4228],[137.4172,36.4256],[137.4097,36.4247],[137.404,36.427],[137.4034,36.429],[137.3952,36.4364],[137.3947,36.4482],[137.3962,36.4505],[137.3948,36.4559],[137.3899,36.4599],[137.3889,36.4571],[137.3798,36.455],[137.378,36.4527],[137.3704,36.4536],[137.3665,36.4509],[137.3615,36.45],[137.3607,36.447],[137.3577,36.4432],[137.3594,36.4398],[137.3586,36.4368],[137.3513,36.4347],[137.3512,36.4329],[137.3465,36.4345],[137.3445,36.433],[137.3384,36.4338],[137.3347,36.4299],[137.3309,36.4308],[137.3277,36.4287],[137.3246,36.4284],[137.3198,36.4245],[137.3134,36.425],[137.3097,36.4282],[137.3088,36.4318],[137.3067,36.4322],[137.3066,36.4345],[137.305,36.4358],[137.3082,36.4379],[137.3088,36.44],[137.3139,36.4417],[137.312,36.4449],[137.3136,36.4463],[137.3134,36.4491],[137.3178,36.4512],[137.3164,36.4577],[137.317,36.4608],[137.3066,36.4639],[137.3036,36.4618],[137.3011,36.4615],[137.2985,36.4582],[137.2894,36.4602],[137.2876,36.4616],[137.2858,36.4612],[137.2822,36.4645],[137.279,36.4651],[137.2639,36.4584],[137.2628,36.4554],[137.2564,36.4511],[137.2549,36.4542],[137.2522,36.4561],[137.2519,36.4585],[137.2481,36.4619],[137.2471,36.4617],[137.2424,36.4577],[137.2398,36.4522],[137.2321,36.4445],[137.2225,36.4437],[137.219,36.439],[137.2139,36.4388],[137.2131,36.4358],[137.214,36.4308],[137.2125,36.4302],[137.2089,36.4317],[137.2072,36.4282],[137.2056,36.4276],[137.2049,36.4368],[137.1998,36.4415],[137.1984,36.4459],[137.1931,36.448],[137.1943,36.4531],[137.1917,36.4552],[137.1823,36.4525],[137.1797,36.4524],[137.178,36.4542],[137.1749,36.4501],[137.1712,36.4547],[137.1677,36.4555],[137.1644,36.4543],[137.1615,36.4565],[137.1597,36.4564],[137.1584,36.4535],[137.1528,36.4477],[137.1442,36.4455],[137.1422,36.443],[137.1434,36.4385],[137.137,36.4378],[137.1344,36.435],[137.1323,36.4346],[137.132,36.432],[137.1278,36.426],[137.1276,36.4239],[137.1242,36.4221],[137.122,36.4171],[137.1205,36.4166],[137.1193,36.4182],[137.1173,36.4186],[137.1161,36.4161],[137.1115,36.4154],[137.1081,36.41],[137.1093,36.4074],[137.1045,36.4046],[137.1019,36.3992],[137.0959,36.3994],[137.0919,36.3965],[137.0948,36.3928],[137.0956,36.389],[137.0949,36.384],[137.0893,36.3827],[137.0787,36.3843],[137.0737,36.3819],[137.0702,36.3777],[137.0659,36.3752],[137.0608,36.3743],[137.0584,36.372],[137.0531,36.3703],[137.0507,36.3698],[137.0485,36.3707],[137.047,36.3732],[137.0495,36.3769],[137.0486,36.3803],[137.0504,36.3813],[137.0501,36.3835],[137.0515,36.3864],[137.0539,36.3876],[137.0546,36.3932],[137.0584,36.3978],[137.0563,36.407],[137.0579,36.4104],[137.0561,36.412],[137.0585,36.4162],[137.0577,36.4175],[137.0599,36.4198],[137.0601,36.4228],[137.0617,36.4238],[137.0622,36.426],[137.0605,36.4287],[137.0574,36.4304],[137.0567,36.4351],[137.0547,36.4376],[137.0559,36.4387],[137.0561,36.4415],[137.059,36.4429],[137.0603,36.4468],[137.0635,36.4494],[137.0643,36.4524],[137.0611,36.462],[137.0588,36.4637],[137.0585,36.469],[137.0599,36.4712],[137.055,36.4783],[137.0524,36.4933],[137.0534,36.4962],[137.0501,36.499],[137.0509,36.4999],[137.0502,36.5031],[137.0472,36.5045],[137.0465,36.5061],[137.0413,36.5059],[137.0382,36.5052],[137.0354,36.5016],[137.0313,36.5],[137.0285,36.5027],[137.0282,36.5054],[137.0346,36.514],[137.0332,36.5264],[137.0338,36.529],[137.0326,36.5335],[137.0367,36.54],[137.0361,36.541],[137.0375,36.5447],[137.037,36.5504],[137.0383,36.5564],[137.0373,36.5652],[137.0408,36.5704],[137.0394,36.5734],[137.0407,36.5748],[137.0397,36.5802],[137.0456,36.5845],[137.0444,36.5896],[137.0464,36.5928],[137.0494,36.5944],[137.0497,36.6007],[137.054,36.6005],[137.0534,36.6133],[137.0558,36.6163],[137.0561,36.6186],[137.0538,36.6221],[137.0554,36.6228],[137.055,36.6247],[137.058,36.6327],[137.0654,36.6384],[137.0642,36.641],[137.0601,36.6429],[137.0586,36.6449],[137.0517,36.6461],[137.0546,36.6478],[137.0545,36.6497],[137.057,36.6524],[137.064,36.6568],[137.0682,36.6546],[137.0636,36.6547],[137.0666,36.6519],[137.0715,36.6525],[137.0733,36.6491],[137.0794,36.6484],[137.0808,36.6502],[137.074,36.6513],[137.0716,36.6539],[137.0717,36.6555],[137.0768,36.6545],[137.0772,36.6582],[137.0797,36.6589],[137.0773,36.6602],[137.0793,36.6612],[137.0808,36.6651],[137.0811,36.6629],[137.084,36.6612],[137.0831,36.6605],[137.0836,36.6585],[137.0857,36.6575],[137.0874,36.6591],[137.0919,36.6683],[137.0914,36.6706],[137.0963,36.6763],[137.0954,36.6793],[137.098,36.6787],[137.0999,36.6837],[137.1012,36.6842],[137.1013,36.682],[137.1027,36.6818],[137.1018,36.681],[137.1029,36.6803],[137.1036,36.6815],[137.106,36.6819],[137.1077,36.6808],[137.1104,36.6824],[137.1113,36.6854],[137.1128,36.6846],[137.1142,36.6858],[137.1171,36.6845],[137.1216,36.686],[137.1224,36.6889],[137.1244,36.6907],[137.1241,36.6925],[137.1221,36.6936],[137.1228,36.6948],[137.1251,36.6952],[137.1253,36.6968],[137.1224,36.7011],[137.1242,36.7041],[137.1212,36.7043],[137.122,36.7056],[137.121,36.706],[137.1211,36.7073],[137.1187,36.708],[137.1191,36.7112],[137.1246,36.712],[137.1267,36.7138],[137.1267,36.7146],[137.1241,36.7148],[137.1245,36.7177],[137.1309,36.7199],[137.1322,36.7253],[137.1353,36.7256],[137.1382,36.7241],[137.1411,36.7252],[137.1459,36.7245],[137.1473,36.7315],[137.1502,36.7359],[137.1516,36.7354],[137.152,36.7364],[137.1493,36.7373],[137.1512,36.7406],[137.1523,36.7403],[137.1531,36.7417],[137.1548,36.7411],[137.1555,36.7424],[137.1571,36.7418],[137.1579,36.7432],[137.1593,36.7427],[137.1621,36.7449],[137.1667,36.7432],[137.1697,36.7437],[137.1712,36.7452],[137.1723,36.7447],[137.1724,36.7457],[137.1747,36.7456],[137.1748,36.7471],[137.178,36.7468],[137.1804,36.7582],[137.1892,36.7574],[137.1903,36.7585],[137.1909,36.758],[137.1894,36.7595],[137.1905,36.7602],[137.1926,36.7611],[137.19,36.7598],[137.1918,36.7588],[137.1941,36.7604],[137.1929,36.7615],[137.2042,36.7593],[137.2134,36.7602],[137.2149,36.7614],[137.2242,36.7617],[137.2257,36.7654],[137.2245,36.7622],[137.2283,36.7616],[137.2292,36.7645],[137.2278,36.7656],[137.2302,36.766],[137.2291,36.7649],[137.2319,36.7647],[137.2309,36.7639],[137.2341,36.7644],[137.2344,36.7658],[137.2317,36.7662],[137.2315,36.7654],[137.2316,36.7662],[137.2292,36.7666]]],[[[137.1918,36.7616],[137.1927,36.7621],[137.1927,36.762],[137.1918,36.7616]]]]}},{"type":"Feature","properties":{"code":"16202","name":"高岡市","pref_code":"16","pref":"富山県"},"geometry":{"type":"MultiPolygon","coordinates":[[[[137.0291,36.8219],[137.0325,36.8221],[137.0336,36.8218],[137.0307,36.8218],[137.0318,36.8215],[137.031,36.8208],[137.0331,36.8213],[137.0318,36.8206],[137.0342,36.8188],[137.0448,36.8141],[137.0479,36.8105],[137.0514,36.8087],[137.0512,36.8073],[137.0544,36.8043],[137.0566,36.8051],[137.0546,36.8036],[137.0568,36.8016],[137.0582,36.8027],[137.0578,36.8055],[137.0579,36.8065],[137.0591,36.8019],[137.063,36.805],[137.0681,36.8008],[137.069,36.8014],[137.0641,36.7976],[137.0682,36.7939],[137.0597,36.7895],[137.0585,36.7882],[137.0601,36.787],[137.0589,36.7852],[137.0632,36.7835],[137.0684,36.7836],[137.0744,36.781],[137.075,36.7769],[137.0732,36.7741],[137.0821,36.7734],[137.0819,36.7747],[137.087,36.7758],[137.0901,36.7747],[137.0898,36.7718],[137.0925,36.772],[137.0926,36.7697],[137.0991,36.7708],[137.1039,36.7697],[137.0999,36.7683],[137.1004,36.7664],[137.0924,36.7628],[137.092,36.7639],[137.0877,36.7649],[137.0849,36.7646],[137.0849,36.7622],[137.0827,36.7619],[137.0726,36.7651],[137.0685,36.7672],[137.0682,36.769],[137.062,36.7678],[137.0602,36.7682],[137.0588,36.7714],[137.0535,36.7723],[137.0505,36.771],[137.0486,36.7643],[137.0508,36.7589],[137.051,36.7548],[137.0448,36.7398],[137.0388,36.7359],[137.0369,36.732],[137.0396,36.7309],[137.011,36.6992],[137.0388,36.6898],[137.0392,36.6879],[137.0377,36.6869],[137.0395,36.6875],[137.0344,36.6773],[137.0364,36.6786],[137.0365,36.6771],[137.041,36.6759],[137.0429,36.6728],[137.0479,36.6718],[137.0457,36.6684],[137.0431,36.667],[137.0473,36.6642],[137.0471,36.6598],[137.0434,36.6591],[137.0428,36.657],[137.0416,36.6582],[137.0326,36.6603],[137.0334,36.6638],[137.0319,36.6644],[137.0305,36.6636],[137.0222,36.6663],[137.0235,36.671],[137.0214,36.6726],[137.0176,36.6713],[137.0114,36.6728],[137.01,36.6701],[137.0106,36.6684],[137.0082,36.6671],[137.0075,36.6592],[136.998,36.66],[136.9977,36.659],[136.9935,36.6585],[136.9899,36.6564],[136.9867,36.6569],[136.988,36.6623],[136.9869,36.6632],[136.9894,36.6639],[136.9885,36.6648],[136.9899,36.6663],[136.9897,36.6693],[136.9874,36.6706],[136.9839,36.6694],[136.978,36.6707],[136.9745,36.6678],[136.9738,36.6649],[136.9709,36.6641],[136.9706,36.6659],[136.9704,36.665],[136.9661,36.6649],[136.9654,36.6596],[136.9563,36.6605],[136.9562,36.6646],[136.9581,36.665],[136.9564,36.6656],[136.9567,36.6701],[136.9523,36.6709],[136.9535,36.6717],[136.9528,36.6737],[136.9513,36.6742],[136.9524,36.6741],[136.9524,36.6759],[136.951,36.6765],[136.9501,36.6799],[136.9449,36.6794],[136.9446,36.6843],[136.943,36.6843],[136.9434,36.6823],[136.9415,36.6814],[136.9405,36.6853],[136.9385,36.6853],[136.9366,36.6825],[136.935,36.6827],[136.9346,36.685],[136.9322,36.6863],[136.9318,36.6851],[136.9276,36.6864],[136.9238,36.6851],[136.9211,36.6876],[136.9205,36.6906],[136.9182,36.691],[136.9163,36.6909],[136.9176,36.6886],[136.9138,36.687],[136.9107,36.6877],[136.9107,36.6915],[136.9079,36.6914],[136.907,36.6944],[136.908,36.7011],[136.9039,36.7027],[136.8974,36.6997],[136.8907,36.6989],[136.8901,36.7042],[136.8866,36.7063],[136.8871,36.7132],[136.8855,36.7172],[136.8811,36.7161],[136.8794,36.7173],[136.877,36.717],[136.8706,36.7209],[136.8678,36.7249],[136.865,36.7263],[136.8615,36.7245],[136.8596,36.7262],[136.8591,36.7302],[136.8568,36.7315],[136.8579,36.7321],[136.8564,36.7329],[136.857,36.7341],[136.8524,36.7329],[136.8502,36.7361],[136.8412,36.7361],[136.8366,36.7421],[136.8335,36.7431],[136.8395,36.7454],[136.8408,36.749],[136.8447,36.7529],[136.8452,36.7558],[136.8492,36.7592],[136.8508,36.7679],[136.8527,36.7703],[136.849,36.7734],[136.8487,36.7763],[136.8453,36.7785],[136.8431,36.7823],[136.8508,36.7869],[136.8522,36.7858],[136.8557,36.7852],[136.8586,36.786],[136.873,36.782],[136.8749,36.7832],[136.8771,36.7829],[136.878,36.7841],[136.877,36.7847],[136.8788,36.7858],[136.8823,36.7826],[136.8841,36.7851],[136.8866,36.7844],[136.8883,36.7828],[136.8874,36.7776],[136.895,36.7739],[136.8968,36.7747],[136.8994,36.7742],[136.9061,36.7804],[136.9094,36.7752],[136.9147,36.774],[136.9158,36.7728],[136.919,36.7735],[136.9259,36.7698],[136.9304,36.7726],[136.9304,36.7745],[136.9369,36.7744],[136.9404,36.7769],[136.9426,36.7805],[136.9462,36.7823],[136.9499,36.7826],[136.9506,36.7853],[136.9475,36.7877],[136.9534,36.7907],[136.9572,36.7888],[136.9587,36.7823],[136.9614,36.7818],[136.9623,36.7843],[136.9661,36.7867],[136.9752,36.7906],[136.9821,36.7889],[136.9852,36.7942],[136.9905,36.7931],[136.9926,36.7954],[136.9965,36.7958],[136.9983,36.7949],[136.9989,36.7932],[137.004,36.7942],[137.0154,36.79],[137.0141,36.7912],[137.014,36.7936],[137.016,36.7938],[137.018,36.7972],[137.0154,36.7988],[137.0132,36.8023],[137.0112,36.8015],[137.0047,36.803],[137.0016,36.8062],[137.0003,36.8102],[137.0042,36.8113],[137.0018,36.8116],[137.0035,36.8123],[137.0037,36.8135],[137.0074,36.8111],[137.0075,36.8159],[137.0121,36.8149],[137.0128,36.8179],[137.0115,36.8181],[137.0117,36.8222],[137.0143,36.8219],[137.0116,36.8236],[137.0168,36.8294],[137.0291,36.8219]]],[[[137.0968,36.771],[137.0936,36.7727],[137.0942,36.775],[137.0971,36.773],[137.0968,36.771]]],[[[137.0751,36.8009],[137.0751,36.8021],[137.0752,36.8021],[137.0751,36.8009]]],[[[137.0635,36.8119],[137.0705,36.8062],[137.0753,36.8022],[137.0635,36.8119]]],[[[137.0535,36.8103],[137.053,36.8105],[137.0535,36.8106],[137.0535,36.8103]]],[[[137.0455,36.8144],[137.0451,36.8147],[137.0455,36.8147],[137.0455,36.8144]]]]}},{"type":"Feature","properties":{"code":"16204","name":"魚津市","pref_code":"16","pref":"富山県"},"geometry":{"type":"Polygon","coordinates":[[[137.4096,36.861],[137.4229,36.8553],[137.43,36.8486],[137.4343,36.8503],[137.4354,36.8499],[137.4372,36.8454],[137.4387,36.8442],[137.4521,36.841],[137.4584,36.8368],[137.4719,36.834],[137.481,36.8345],[137.4865,36.8312],[137.5064,36.824],[137.5062,36.8151],[137.5044,36.8139],[137.5042,36.8114],[137.5017,36.8092],[137.4994,36.8044],[137.5042,36.7995],[137.5047,36.7968],[137.5067,36.7956],[137.506,36.7868],[137.5103,36.7855],[137.5119,36.7823],[137.516,36.7819],[137.5172,36.779],[137.5206,36.7779],[137.5237,36.7783],[137.5256,36.78],[137.53,36.7798],[137.534,36.7816],[137.5368,36.7801],[137.5378,36.7771],[137.544,36.7704],[137.5547,36.7674],[137.5612,36.7671],[137.565,36.763],[137.5643,36.7615],[137.5694,36.7605],[137.5844,36.7522],[137.5841,36.7507],[137.5905,36.7387],[137.5976,36.7339],[137.599,36.7312],[137.6078,36.73],[137.6113,36.7251],[137.609,36.7218],[137.6104,36.7187],[137.608,36.7169],[137.6079,36.7138],[137.6004,36.7095],[137.6003,36.7078],[137.597,36.706],[137.5947,36.7027],[137.5868,36.6987],[137.5859,36.6895],[137.5896,36.6862],[137.5895,36.682],[137.5908,36.6797],[137.5893,36.6767],[137.5802,36.6733],[137.5769,36.6739],[137.571,36.6726],[137.5624,36.6758],[137.5528,36.6738],[137.5505,36.676],[137.5421,36.6781],[137.5354,36.6763],[137.5317,36.6793],[137.5261,36.6806],[137.516,36.6788],[137.5143,36.6827],[137.5093,36.6858],[137.5094,36.6883],[137.5069,36.6906],[137.5092,36.6919],[137.5079,36.6949],[137.5079,36.699],[137.5094,36.7007],[137.5092,36.7035],[137.5112,36.7058],[137.5094,36.7104],[137.5036,36.7144],[137.4997,36.7204],[137.4939,36.7229],[137.4912,36.7217],[137.488,36.7236],[137.4833,36.7242],[137.4752,36.7229],[137.4764,36.72],[137.4763,36.7164],[137.47,36.703],[137.4648,36.7069],[137.4621,36.705],[137.4618,36.7017],[137.4566,36.7017],[137.4534,36.7046],[137.4513,36.71],[137.4481,36.7135],[137.4463,36.7184],[137.444,36.7205],[137.4421,36.7247],[137.4347,36.7314],[137.4333,36.7358],[137.4264,36.7475],[137.41,36.763],[137.4014,36.7752],[137.3958,36.7861],[137.3823,36.8004],[137.3874,36.8025],[137.393,36.8074],[137.3918,36.8079],[137.3931,36.8078],[137.3925,36.8093],[137.3936,36.8094],[137.3938,36.8108],[137.3927,36.8109],[137.3916,36.8091],[137.3906,36.8079],[137.3927,36.8109],[137.3938,36.8108],[137.3924,36.8112],[137.394,36.8151],[137.392,36.8203],[137.3943,36.8195],[137.3944,36.8205],[137.393,36.8203],[137.3929,36.8211],[137.3944,36.8207],[137.3945,36.8218],[137.3923,36.8236],[137.392,36.8214],[137.3914,36.8205],[137.3921,36.8238],[137.3959,36.8275],[137.399,36.8356],[137.4114,36.8482],[137.4119,36.8506],[137.4114,36.8507],[137.4109,36.8508],[137.4106,36.8509],[137.4103,36.8511],[137.4109,36.8508],[137.4116,36.8507],[137.4116,36.8508],[137.411,36.8508],[137.4106,36.851],[137.4116,36.8508],[137.4121,36.8522],[137.4111,36.8523],[137.4126,36.8532],[137.411,36.8551],[137.4106,36.8525],[137.4091,36.8512],[137.4105,36.8551],[137.409,36.8602],[137.4096,36.861]]]}},{"type":"Feature","properties":{"code":"16205","name":"氷見市","pref_code":"16","pref":"富山県"},"geometry":{"type":"MultiPolygon","coordinates":[[[[136.9951,36.8633],[136.9955,36.8621],[136.995,36.8633],[136.9951,36.8633]]],[[[136.9955,36.8643],[136.9959,36.864],[136.9953,36.8638],[136.9955,36.8643]]],[[[136.9952,36.865],[136.9954,36.8646],[136.995,36.865],[136.9952,36.865]]],[[[136.986,36.9666],[136.9963,36.967],[136.9996,36.9635],[137.0035,36.9627],[137.0051,36.9611],[137.0091,36.9614],[137.0111,36.9629],[137.0182,36.9628],[137.0215,36.9639],[137.0272,36.9624],[137.0377,36.9671],[137.0451,36.9639],[137.0517,36.9592],[137.0482,36.9581],[137.0475,36.956],[137.045,36.9547],[137.042,36.9517],[137.0425,36.9509],[137.0409,36.9494],[137.0419,36.9505],[137.0413,36.9515],[137.0395,36.95],[137.0402,36.9495],[137.0379,36.9492],[137.0324,36.9433],[137.0274,36.94],[137.0277,36.9339],[137.0326,36.9238],[137.0299,36.9205],[137.0308,36.922],[137.0288,36.9215],[137.028,36.9189],[137.0268,36.9188],[137.0277,36.9182],[137.0273,36.917],[137.026,36.9169],[137.027,36.9163],[137.0256,36.9142],[137.0223,36.9125],[137.0224,36.9111],[137.0216,36.913],[137.0203,36.9121],[137.0212,36.9116],[137.0198,36.9122],[137.0181,36.911],[137.0151,36.9065],[137.0143,36.9033],[137.0135,36.9035],[137.0115,36.8996],[137.0084,36.8972],[137.0093,36.8952],[137.008,36.8965],[137.007,36.8944],[137.0086,36.8953],[137.0081,36.8938],[137.0051,36.8928],[137.0023,36.8882],[137.0016,36.8897],[137.0008,36.8892],[137.0019,36.8883],[137.0007,36.8892],[136.9989,36.8882],[136.9963,36.8835],[136.9952,36.885],[136.9945,36.8842],[136.9955,36.8837],[136.9945,36.8841],[136.995,36.8835],[136.9935,36.8825],[136.9934,36.8794],[136.9879,36.8798],[136.9849,36.8768],[136.9848,36.8757],[136.9862,36.8754],[136.9846,36.8751],[136.9861,36.8749],[136.9849,36.8723],[136.9853,36.8689],[136.9867,36.8668],[136.9879,36.8669],[136.9891,36.8638],[136.9884,36.8631],[136.9898,36.864],[136.9933,36.8632],[136.989,36.8628],[136.9901,36.8614],[136.989,36.8603],[136.9896,36.8586],[136.9906,36.8593],[136.9903,36.8606],[136.9908,36.8627],[136.9913,36.8597],[136.9923,36.8599],[136.9925,36.8589],[136.9906,36.8579],[136.9911,36.8562],[136.9922,36.8565],[136.9919,36.8575],[136.9923,36.8565],[136.9933,36.8567],[136.9924,36.8616],[136.993,36.8623],[136.9939,36.8565],[136.9907,36.8557],[136.992,36.8556],[136.9907,36.8553],[136.9911,36.8537],[137.0014,36.8416],[137.0168,36.8294],[137.0116,36.8236],[137.0143,36.8219],[137.0117,36.8222],[137.0115,36.8181],[137.0128,36.8179],[137.0121,36.8149],[137.0075,36.8159],[137.0074,36.8111],[137.0037,36.8135],[137.0035,36.8123],[137.0018,36.8116],[137.0042,36.8113],[137.0003,36.8099],[137.0016,36.8062],[137.0047,36.803],[137.0112,36.8015],[137.0132,36.8023],[137.0154,36.7988],[137.018,36.7972],[137.016,36.7938],[137.014,36.7936],[137.0141,36.7912],[137.0154,36.79],[137.004,36.7942],[136.9989,36.7932],[136.9983,36.7949],[136.9965,36.7958],[136.9926,36.7954],[136.9905,36.7931],[136.9852,36.7942],[136.9821,36.7889],[136.9752,36.7906],[136.9661,36.7867],[136.9623,36.7843],[136.9614,36.7818],[136.9587,36.7823],[136.9572,36.7888],[136.9534,36.7907],[136.9475,36.7877],[136.9506,36.7853],[136.9499,36.7826],[136.9462,36.7823],[136.9426,36.7805],[136.9404,36.7769],[136.9369,36.7744],[136.9304,36.7745],[136.9304,36.7726],[136.9259,36.7698],[136.919,36.7735],[136.9158,36.7728],[136.9147,36.774],[136.9094,36.7752],[136.9061,36.7804],[136.8994,36.7742],[136.8968,36.7747],[136.895,36.7739],[136.8874,36.7776],[136.8883,36.7828],[136.8841,36.7851],[136.8823,36.7826],[136.8788,36.7858],[136.877,36.7847],[136.878,36.7841],[136.8771,36.7829],[136.8749,36.7832],[136.873,36.782],[136.8586,36.786],[136.8557,36.7852],[136.8514,36.7862],[136.8511,36.7886],[136.8541,36.795],[136.8505,36.8016],[136.8501,36.8079],[136.848,36.8098],[136.8488,36.8132],[136.852,36.8171],[136.8549,36.8182],[136.8543,36.8212],[136.86,36.8291],[136.8585,36.8344],[136.8564,36.8368],[136.8564,36.8398],[136.8601,36.8416],[136.8618,36.8411],[136.8633,36.8428],[136.862,36.8441],[136.8619,36.8477],[136.8672,36.8509],[136.8611,36.8546],[136.8636,36.8572],[136.8624,36.8603],[136.8707,36.8624],[136.8734,36.8676],[136.8774,36.8686],[136.883,36.8768],[136.8821,36.8821],[136.8856,36.8852],[136.8814,36.8883],[136.879,36.8927],[136.8779,36.8995],[136.8791,36.9065],[136.8827,36.9089],[136.8857,36.9138],[136.8877,36.9149],[136.8876,36.9169],[136.8927,36.9187],[136.8956,36.9247],[136.8981,36.9244],[136.9012,36.9262],[136.9058,36.9265],[136.9086,36.9293],[136.9156,36.9308],[136.9164,36.9334],[136.918,36.9335],[136.9189,36.935],[136.9194,36.9374],[136.9231,36.9379],[136.9233,36.9409],[136.9273,36.944],[136.9273,36.9474],[136.9309,36.9488],[136.9309,36.9506],[136.9359,36.9499],[136.9473,36.9552],[136.9538,36.9561],[136.9633,36.9487],[136.9664,36.949],[136.9707,36.9477],[136.9737,36.9443],[136.9824,36.9527],[136.9842,36.9576],[136.9841,36.9635],[136.9858,36.9646],[136.986,36.9666]]],[[[137.0099,36.8952],[137.0096,36.8944],[137.0096,36.8944],[137.0099,36.8952]]],[[[137.0314,36.9275],[137.0314,36.9275],[137.0315,36.9275],[137.0314,36.9275]]],[[[137.0399,36.9313],[137.0402,36.9312],[137.04,36.9312],[137.0399,36.9313]]],[[[137.0408,36.9323],[137.0419,36.9322],[137.04,36.9314],[137.0408,36.9323]]],[[[137.0401,36.9319],[137.0401,36.9321],[137.0403,36.9321],[137.0401,36.9319]]],[[[137.0424,36.9322],[137.0422,36.9324],[137.0427,36.9325],[137.0424,36.9322]]],[[[137.0414,36.9327],[137.0414,36.9326],[137.0412,36.9326],[137.0414,36.9327]]],[[[137.0418,36.9327],[137.0417,36.9326],[137.0417,36.9327],[137.0418,36.9327]]],[[[137.042,36.9328],[137.0419,36.9327],[137.0418,36.9327],[137.042,36.9328]]],[[[137.0412,36.949],[137.0405,36.9487],[137.0405,36.9488],[137.0412,36.949]]]]}},{"type":"Feature","properties":{"code":"16206","name":"滑川市","pref_code":"16","pref":"富山県"},"geometry":{"type":"Polygon","coordinates":[[[137.3819,36.8004],[137.3958,36.7861],[137.4014,36.7752],[137.41,36.763],[137.4264,36.7475],[137.4333,36.7358],[137.4347,36.7314],[137.4421,36.7247],[137.4482,36.7146],[137.4471,36.7115],[137.4501,36.709],[137.4485,36.7041],[137.4514,36.7002],[137.4513,36.6989],[137.45,36.6986],[137.4454,36.701],[137.4409,36.7055],[137.4329,36.707],[137.4337,36.7141],[137.4356,36.7155],[137.4371,36.7188],[137.4355,36.7207],[137.4316,36.7203],[137.4303,36.7247],[137.4261,36.7277],[137.4233,36.7272],[137.4226,36.7234],[137.4195,36.7211],[137.4178,36.7221],[137.4118,36.7215],[137.4053,36.7241],[137.3968,36.7182],[137.3937,36.7189],[137.3921,36.7181],[137.3918,36.7166],[137.3877,36.7199],[137.3852,36.7229],[137.3794,36.7261],[137.3828,36.7218],[137.3735,36.7267],[137.3725,36.7258],[137.371,36.7263],[137.3717,36.7257],[137.3705,36.7251],[137.3702,36.7261],[137.3659,36.7252],[137.3636,36.7237],[137.3637,36.7206],[137.3617,36.7204],[137.3603,36.7279],[137.358,36.7278],[137.3561,36.73],[137.3496,36.7328],[137.3491,36.7306],[137.3468,36.7311],[137.3473,36.734],[137.34,36.7396],[137.3388,36.7386],[137.3378,36.7422],[137.3308,36.7445],[137.3307,36.7474],[137.328,36.7511],[137.3258,36.7517],[137.3258,36.7507],[137.3233,36.7507],[137.3204,36.7544],[137.3157,36.7546],[137.316,36.7586],[137.3206,36.7584],[137.3202,36.7588],[137.3201,36.7593],[137.3336,36.7625],[137.3352,36.7647],[137.3347,36.7655],[137.3429,36.7718],[137.3451,36.7755],[137.3442,36.7757],[137.3441,36.7763],[137.3451,36.7755],[137.3455,36.7763],[137.3454,36.7771],[137.3441,36.7768],[137.3435,36.7772],[137.3476,36.781],[137.3552,36.7852],[137.3573,36.7877],[137.3663,36.792],[137.3663,36.7931],[137.3774,36.7968],[137.3786,36.7993],[137.3819,36.8004]],[[137.3884,36.725],[137.3863,36.7236],[137.3878,36.7233],[137.3863,36.7228],[137.3888,36.7196],[137.3913,36.7212],[137.3884,36.725]]]}},{"type":"Feature","properties":{"code":"16207","name":"黒部市","pref_code":"16","pref":"富山県"},"geometry":{"type":"MultiPolygon","coordinates":[[[[137.4262,36.9222],[137.4355,36.9138],[137.4539,36.9031],[137.4837,36.8968],[137.4991,36.8912],[137.5129,36.8811],[137.5204,36.8779],[137.5214,36.8761],[137.5331,36.8743],[137.5416,36.8684],[137.5449,36.8675],[137.5433,36.8729],[137.5442,36.8806],[137.5424,36.885],[137.5406,36.8865],[137.5409,36.8882],[137.5381,36.8935],[137.5421,36.894],[137.5423,36.8931],[137.5437,36.8932],[137.544,36.8904],[137.5466,36.8897],[137.5476,36.8879],[137.5512,36.8756],[137.5606,36.8765],[137.5732,36.8685],[137.5821,36.8674],[137.5861,36.8636],[137.5845,36.8593],[137.5867,36.8586],[137.5873,36.8531],[137.5888,36.852],[137.5949,36.8524],[137.5983,36.855],[137.6014,36.8596],[137.6035,36.8599],[137.6053,36.8622],[137.6086,36.8636],[137.6108,36.8665],[137.6186,36.8642],[137.6195,36.862],[137.6243,36.8582],[137.6283,36.8581],[137.6285,36.8538],[137.6318,36.8506],[137.6367,36.852],[137.6439,36.8512],[137.6471,36.8495],[137.6477,36.8482],[137.6464,36.8454],[137.6489,36.8414],[137.647,36.8397],[137.6478,36.8377],[137.6471,36.8364],[137.7471,36.7672],[137.7507,36.7584],[137.7541,36.754],[137.7521,36.7527],[137.7518,36.7511],[137.7556,36.7458],[137.7552,36.743],[137.7593,36.7407],[137.758,36.7373],[137.7542,36.7333],[137.7541,36.7317],[137.7554,36.731],[137.755,36.7293],[137.7508,36.7266],[137.7507,36.7228],[137.7526,36.7196],[137.7526,36.7168],[137.7512,36.7139],[137.7518,36.7119],[137.75,36.7047],[137.7507,36.7011],[137.7553,36.6985],[137.7567,36.6956],[137.7565,36.6937],[137.7536,36.6915],[137.7542,36.6875],[137.7597,36.6859],[137.7591,36.6829],[137.7599,36.6805],[137.7585,36.676],[137.7609,36.6705],[137.76,36.6683],[137.7619,36.6662],[137.7589,36.6606],[137.7567,36.6586],[137.7534,36.6578],[137.7564,36.6523],[137.7564,36.6476],[137.7539,36.6413],[137.7546,36.6391],[137.7526,36.635],[137.7534,36.6337],[137.7515,36.6291],[137.7518,36.6271],[137.7468,36.6246],[137.743,36.6255],[137.7278,36.6228],[137.7168,36.6264],[137.7145,36.629],[137.7038,36.6347],[137.7011,36.6382],[137.692,36.6435],[137.6851,36.6449],[137.682,36.6395],[137.676,36.6375],[137.6746,36.6356],[137.6682,36.6349],[137.6624,36.6363],[137.6468,36.6352],[137.6444,36.6394],[137.6332,36.6386],[137.6274,36.6397],[137.626,36.6408],[137.6224,36.6462],[137.6227,36.6484],[137.6208,36.6503],[137.6207,36.6538],[137.6143,36.6552],[137.6074,36.6637],[137.607,36.6667],[137.5926,36.6781],[137.5895,36.682],[137.5896,36.6862],[137.5859,36.6895],[137.587,36.699],[137.5947,36.7027],[137.597,36.706],[137.6003,36.7078],[137.6004,36.7095],[137.6081,36.7141],[137.608,36.7169],[137.6104,36.7187],[137.609,36.7218],[137.6113,36.7251],[137.6078,36.73],[137.599,36.7312],[137.5976,36.7339],[137.5905,36.7387],[137.5841,36.7507],[137.5844,36.7522],[137.5694,36.7605],[137.5643,36.7615],[137.565,36.763],[137.5612,36.7671],[137.5547,36.7674],[137.544,36.7704],[137.5378,36.7771],[137.5368,36.7801],[137.534,36.7816],[137.53,36.7798],[137.5256,36.78],[137.5237,36.7783],[137.5206,36.7779],[137.5172,36.779],[137.516,36.7819],[137.5119,36.7823],[137.5103,36.7855],[137.506,36.7868],[137.5067,36.7956],[137.5047,36.7968],[137.5042,36.7995],[137.4994,36.8044],[137.5017,36.8092],[137.5042,36.8114],[137.5044,36.8139],[137.5062,36.8151],[137.5064,36.824],[137.4865,36.8312],[137.481,36.8345],[137.4719,36.834],[137.4584,36.8368],[137.4521,36.841],[137.4387,36.8442],[137.4372,36.8454],[137.4354,36.8499],[137.4343,36.8503],[137.43,36.8486],[137.4229,36.8553],[137.4096,36.861],[137.4146,36.8657],[137.4126,36.8649],[137.4142,36.8663],[137.4149,36.8658],[137.4155,36.8665],[137.4141,36.8671],[137.4154,36.8667],[137.4175,36.869],[137.419,36.8798],[137.4181,36.8843],[137.4148,36.8906],[137.4156,36.8921],[137.4183,36.8912],[137.4186,36.8933],[137.4153,36.8924],[137.4139,36.8911],[137.4147,36.8898],[137.4146,36.8897],[137.4096,36.8967],[137.4092,36.8961],[137.4095,36.8977],[137.4089,36.8972],[137.4191,36.9117],[137.4205,36.9163],[137.4199,36.9165],[137.4235,36.92],[137.4262,36.9222]]],[[[137.415,36.8662],[137.415,36.8661],[137.415,36.8661],[137.415,36.8662]]],[[[137.4134,36.8663],[137.4137,36.8664],[137.413,36.866],[137.4134,36.8663]]],[[[137.4152,36.8663],[137.4152,36.8662],[137.4151,36.8663],[137.4152,36.8663]]],[[[137.4154,36.8665],[137.4154,36.8664],[137.4153,36.8665],[137.4154,36.8665]]],[[[137.4139,36.8896],[137.4142,36.8897],[137.4141,36.8895],[137.4139,36.8896]]],[[[137.4167,36.9094],[137.417,36.9096],[137.4162,36.9088],[137.4167,36.9094]]],[[[137.4177,36.9108],[137.4173,36.9099],[137.4171,36.91],[137.4177,36.9108]]],[[[137.4198,36.9159],[137.4195,36.915],[137.4194,36.915],[137.4198,36.9159]]]]}},{"type":"Feature","properties":{"code":"16211","name":"射水市","pref_code":"16","pref":"富山県"},"geometry":{"type":"MultiPolygon","coordinates":[[[[137.1185,36.7841],[137.12,36.7819],[137.12,36.7802],[137.137,36.7755],[137.1363,36.7738],[137.1411,36.7728],[137.1366,36.7734],[137.1381,36.7722],[137.1364,36.7723],[137.1362,36.7713],[137.138,36.7708],[137.136,36.7706],[137.1379,36.7694],[137.1394,36.7721],[137.1391,36.7696],[137.142,36.7689],[137.1419,36.7698],[137.1441,36.77],[137.1428,36.7695],[137.1436,36.7686],[137.1483,36.767],[137.1494,36.7672],[137.1491,36.7684],[137.1497,36.7677],[137.1495,36.7664],[137.1546,36.7637],[137.1556,36.7646],[137.1556,36.7632],[137.1796,36.7584],[137.179,36.7482],[137.1781,36.7483],[137.178,36.7468],[137.1748,36.7471],[137.1747,36.7456],[137.1724,36.7457],[137.1723,36.7447],[137.1712,36.7452],[137.1697,36.7437],[137.1667,36.7432],[137.1621,36.7449],[137.1593,36.7427],[137.1579,36.7432],[137.1571,36.7418],[137.1555,36.7424],[137.1548,36.7411],[137.1531,36.7417],[137.1523,36.7403],[137.1512,36.7406],[137.1493,36.7373],[137.152,36.7364],[137.1516,36.7354],[137.1502,36.7359],[137.1473,36.7315],[137.1459,36.7245],[137.1411,36.7252],[137.1382,36.7241],[137.1353,36.7256],[137.1322,36.7253],[137.1309,36.7199],[137.1246,36.7178],[137.1241,36.7148],[137.1267,36.7146],[137.1267,36.7138],[137.1246,36.712],[137.1194,36.7114],[137.1186,36.7091],[137.1187,36.708],[137.1211,36.7073],[137.121,36.706],[137.122,36.7056],[137.1212,36.7043],[137.1242,36.7041],[137.1224,36.7011],[137.1253,36.6968],[137.1251,36.6952],[137.1228,36.6948],[137.1221,36.6936],[137.1241,36.6925],[137.1244,36.6907],[137.1224,36.6889],[137.1216,36.686],[137.1171,36.6845],[137.1142,36.6858],[137.1128,36.6846],[137.1113,36.6854],[137.1104,36.6824],[137.1077,36.6808],[137.106,36.6819],[137.1036,36.6815],[137.1029,36.6803],[137.1018,36.681],[137.1027,36.6818],[137.1013,36.682],[137.1012,36.6842],[137.0999,36.6837],[137.098,36.6787],[137.0954,36.6793],[137.0963,36.6763],[137.0914,36.6706],[137.0919,36.6683],[137.0874,36.6591],[137.0857,36.6575],[137.0836,36.6585],[137.0831,36.6605],[137.084,36.6612],[137.0811,36.6629],[137.0808,36.6651],[137.0793,36.6612],[137.0773,36.6602],[137.0797,36.6589],[137.0772,36.6582],[137.0768,36.6545],[137.0717,36.6555],[137.0716,36.6539],[137.074,36.6513],[137.0806,36.6503],[137.0811,36.6494],[137.0766,36.648],[137.0731,36.6492],[137.0716,36.6525],[137.0666,36.6519],[137.0636,36.6547],[137.0682,36.6546],[137.064,36.6568],[137.057,36.6524],[137.0545,36.6497],[137.0546,36.6478],[137.0517,36.6461],[137.0518,36.6502],[137.0543,36.6521],[137.0512,36.6554],[137.0486,36.6552],[137.0468,36.6605],[137.0473,36.6642],[137.0431,36.667],[137.0457,36.6684],[137.0479,36.6718],[137.0429,36.6728],[137.041,36.6759],[137.0365,36.6771],[137.0364,36.6786],[137.0344,36.6773],[137.0395,36.6875],[137.0377,36.6869],[137.0392,36.6879],[137.0388,36.6898],[137.011,36.6992],[137.0396,36.7309],[137.0369,36.732],[137.0388,36.7359],[137.0448,36.7398],[137.051,36.7548],[137.0508,36.7589],[137.0486,36.7643],[137.0505,36.771],[137.0535,36.7723],[137.0588,36.7714],[137.0602,36.7682],[137.062,36.7678],[137.0682,36.769],[137.0685,36.7672],[137.0726,36.7651],[137.0827,36.7619],[137.0849,36.7622],[137.0849,36.7646],[137.0877,36.7649],[137.092,36.7639],[137.0924,36.7628],[137.1004,36.7664],[137.0999,36.7683],[137.1039,36.7697],[137.1121,36.7679],[137.109,36.7631],[137.1113,36.762],[137.1131,36.7654],[137.1246,36.7584],[137.133,36.7567],[137.1344,36.7599],[137.126,36.7621],[137.1183,36.7665],[137.1195,36.7694],[137.1193,36.7721],[137.1206,36.7723],[137.1182,36.7724],[137.1173,36.7751],[137.1197,36.7755],[137.1175,36.776],[137.1195,36.7762],[137.1198,36.7776],[137.1212,36.777],[137.1219,36.7795],[137.1199,36.78],[137.1199,36.7781],[137.1189,36.7779],[137.1198,36.7783],[137.1198,36.7818],[137.1185,36.7841]]],[[[137.1328,36.7601],[137.1327,36.7599],[137.1327,36.7599],[137.1328,36.7601]]],[[[137.1417,36.7733],[137.1422,36.7725],[137.1415,36.7731],[137.1417,36.7733]]],[[[137.1093,36.7802],[137.1098,36.7801],[137.1109,36.7798],[137.1093,36.7802]]],[[[137.1099,36.7803],[137.1104,36.7803],[137.1105,36.7801],[137.1099,36.7803]]],[[[137.0688,36.7936],[137.0707,36.7918],[137.0735,36.7918],[137.0841,36.7876],[137.0792,36.7883],[137.0827,36.7865],[137.0828,36.7841],[137.0839,36.7848],[137.0892,36.7827],[137.0864,36.7832],[137.0874,36.7829],[137.0897,36.7824],[137.0903,36.7842],[137.0912,36.7847],[137.0901,36.7827],[137.0933,36.7821],[137.0936,36.783],[137.0918,36.7835],[137.0938,36.7829],[137.0933,36.7819],[137.0965,36.7811],[137.0958,36.7819],[137.0972,36.7828],[137.0935,36.7835],[137.0925,36.7853],[137.0902,36.7856],[137.0909,36.7861],[137.0927,36.7853],[137.0943,36.7838],[137.0993,36.7824],[137.1004,36.785],[137.1134,36.7814],[137.1142,36.7821],[137.113,36.7808],[137.1137,36.7802],[137.1087,36.7807],[137.1079,36.7793],[137.111,36.7783],[137.1102,36.777],[137.1137,36.7754],[137.1136,36.7745],[137.1109,36.7744],[137.1094,36.7729],[137.1034,36.774],[137.1011,36.7734],[137.0939,36.7756],[137.0936,36.7727],[137.0915,36.7717],[137.0898,36.7718],[137.09,36.7748],[137.087,36.7758],[137.0819,36.7747],[137.0821,36.7734],[137.0732,36.7741],[137.075,36.7769],[137.0744,36.781],[137.0684,36.7836],[137.0632,36.7835],[137.0589,36.7852],[137.0601,36.787],[137.0585,36.7882],[137.0602,36.7899],[137.0652,36.7929],[137.0688,36.7936]]],[[[137.0837,36.787],[137.0834,36.7851],[137.0831,36.7856],[137.0837,36.787]]],[[[137.083,36.7867],[137.0825,36.7871],[137.0831,36.7867],[137.083,36.7867]]]]}},{"type":"Feature","properties":{"code":"16342","name":"入善町","pref_code":"16","pref":"富山県"},"geometry":{"type":"Polygon","coordinates":[[[137.5103,36.9586],[137.5428,36.9611],[137.5429,36.9562],[137.5404,36.9461],[137.541,36.9437],[137.5388,36.9423],[137.5375,36.9433],[137.5371,36.9415],[137.5313,36.9412],[137.5305,36.9382],[137.5295,36.9381],[137.5294,36.9352],[137.5283,36.935],[137.5292,36.9344],[137.5281,36.9344],[137.5288,36.9289],[137.5278,36.9268],[137.5288,36.9267],[137.5284,36.9255],[137.5269,36.9258],[137.5281,36.9247],[137.5269,36.9206],[137.5283,36.9184],[137.5305,36.9185],[137.5297,36.916],[137.5317,36.9089],[137.5364,36.9102],[137.5378,36.91],[137.5385,36.9083],[137.5425,36.9116],[137.5435,36.9106],[137.5547,36.9115],[137.5587,36.9106],[137.5588,36.9008],[137.5577,36.9008],[137.5577,36.8984],[137.5567,36.8984],[137.5567,36.8967],[137.5556,36.8964],[137.5552,36.8934],[137.5578,36.8882],[137.5638,36.8868],[137.5673,36.8881],[137.5681,36.8861],[137.5672,36.8834],[137.5809,36.8811],[137.5831,36.8813],[137.5867,36.8853],[137.5891,36.8856],[137.5916,36.8875],[137.5968,36.8817],[137.5993,36.8807],[137.602,36.8766],[137.6079,36.8739],[137.6101,36.8706],[137.6104,36.8652],[137.6053,36.8622],[137.6036,36.86],[137.6014,36.8596],[137.5983,36.855],[137.5949,36.8524],[137.5891,36.8519],[137.5874,36.8528],[137.5867,36.8586],[137.5848,36.8589],[137.5843,36.8603],[137.5861,36.8636],[137.5821,36.8674],[137.5732,36.8685],[137.5606,36.8765],[137.5512,36.8756],[137.5476,36.8879],[137.5466,36.8897],[137.544,36.8904],[137.5437,36.8932],[137.5423,36.8931],[137.5421,36.894],[137.5381,36.8935],[137.5409,36.8882],[137.5406,36.8865],[137.5424,36.885],[137.5442,36.8806],[137.5433,36.8729],[137.5449,36.8675],[137.5416,36.8684],[137.5331,36.8743],[137.5214,36.8761],[137.5204,36.8779],[137.5129,36.8811],[137.4991,36.8912],[137.4837,36.8968],[137.4539,36.9031],[137.4355,36.9138],[137.4262,36.9222],[137.4264,36.9248],[137.4279,36.924],[137.4289,36.9257],[137.4274,36.9248],[137.4258,36.925],[137.4355,36.931],[137.46,36.9385],[137.4637,36.9402],[137.4669,36.9435],[137.4778,36.9466],[137.4908,36.9543],[137.5103,36.9586]]]}},{"type":"Feature","properties":{"code":"16343","name":"朝日町","pref_code":"16","pref":"富山県"},"geometry":{"type":"MultiPolygon","coordinates":[[[[137.6735,36.9507],[137.6798,36.9484],[137.6877,36.9431],[137.6986,36.9423],[137.7071,36.9444],[137.7113,36.9441],[137.7114,36.9407],[137.7138,36.9379],[137.7137,36.9338],[137.7162,36.9327],[137.7172,36.93],[137.7205,36.9267],[137.7163,36.9214],[137.7175,36.9197],[137.7178,36.9077],[137.7149,36.9068],[137.7126,36.9041],[137.7144,36.8991],[137.713,36.894],[137.7135,36.8914],[137.716,36.8878],[137.7188,36.8862],[137.7245,36.8782],[137.7322,36.8735],[137.7341,36.8688],[137.7328,36.8671],[137.7341,36.8611],[137.7324,36.8579],[137.7352,36.8552],[137.7349,36.85],[137.7329,36.8447],[137.7342,36.8424],[137.7327,36.8361],[137.7344,36.8314],[137.7301,36.8264],[137.7322,36.8235],[137.744,36.816],[137.7456,36.8122],[137.7493,36.8096],[137.7495,36.8041],[137.751,36.8029],[137.7511,36.8002],[137.7543,36.7966],[137.754,36.7945],[137.7509,36.7916],[137.7516,36.7893],[137.7501,36.786],[137.7509,36.7835],[137.7495,36.78],[137.7525,36.7768],[137.7578,36.7745],[137.7634,36.7682],[137.7622,36.7655],[137.76,36.7643],[137.759,36.7602],[137.7541,36.754],[137.7507,36.7584],[137.7471,36.7672],[137.6471,36.8364],[137.6478,36.8377],[137.647,36.8397],[137.6489,36.8414],[137.6464,36.8454],[137.6477,36.8482],[137.6471,36.8495],[137.6439,36.8512],[137.6367,36.852],[137.6318,36.8506],[137.6285,36.8538],[137.6283,36.8581],[137.6243,36.8582],[137.6195,36.862],[137.6186,36.8642],[137.6108,36.8665],[137.6101,36.8706],[137.6079,36.8739],[137.602,36.8766],[137.5993,36.8807],[137.5968,36.8817],[137.5916,36.8875],[137.5891,36.8856],[137.5867,36.8853],[137.5831,36.8813],[137.5809,36.8811],[137.5672,36.8834],[137.5681,36.8861],[137.5673,36.8881],[137.5638,36.8868],[137.5578,36.8882],[137.5552,36.8934],[137.5556,36.8964],[137.5567,36.8967],[137.5567,36.8984],[137.5577,36.8984],[137.5577,36.9008],[137.5588,36.9008],[137.5587,36.9106],[137.5547,36.9115],[137.5435,36.9106],[137.5425,36.9116],[137.5385,36.9083],[137.5378,36.91],[137.5364,36.9102],[137.5317,36.9089],[137.5297,36.916],[137.5305,36.9185],[137.5283,36.9184],[137.5269,36.9206],[137.5281,36.9247],[137.5269,36.9258],[137.5284,36.9255],[137.5288,36.9267],[137.5278,36.9268],[137.5288,36.9289],[137.5281,36.9344],[137.5292,36.9344],[137.5283,36.935],[137.5294,36.9352],[137.5295,36.9381],[137.5305,36.9382],[137.5313,36.9412],[137.5371,36.9415],[137.5375,36.9433],[137.5388,36.9423],[137.541,36.9437],[137.5404,36.9461],[137.5429,36.9562],[137.5428,36.9611],[137.5746,36.9641],[137.5785,36.9676],[137.5843,36.9705],[137.5871,36.9737],[137.59,36.9743],[137.5869,36.9739],[137.5863,36.9735],[137.586,36.974],[137.5851,36.9727],[137.5857,36.9741],[137.5876,36.9748],[137.612,36.9764],[137.635,36.9798],[137.6377,36.9766],[137.6515,36.969],[137.6578,36.9596],[137.6662,36.9537],[137.6665,36.9502],[137.6735,36.9507]]],[[[137.558,36.9626],[137.558,36.9626],[137.558,36.9626],[137.558,36.9626]]],[[[137.5866,36.9751],[137.5867,36.9751],[137.5867,36.975],[137.5866,36.9751]]],[[[137.5883,36.9779],[137.5885,36.9778],[137.5885,36.9778],[137.5883,36.9779]]],[[[137.5885,36.978],[137.5887,36.978],[137.5886,36.9779],[137.5885,36.978]]],[[[137.5883,36.9781],[137.5885,36.9781],[137.5884,36.978],[137.5883,36.9781]]],[[[137.5899,36.9816],[137.5899,36.9815],[137.5898,36.9815],[137.5899,36.9816]]],[[[137.5903,36.9826],[137.5903,36.9826],[137.5902,36.9824],[137.5903,36.9826]]]]}}]}