{"type":"FeatureCollection","pref_code":"27","features":[{"type":"Feature","properties":{"code":"27100","name":"大阪市","pref_code":"27","pref":"大阪府"},"geometry":{"type":"MultiPolygon","coordinates":[[[[135.4958,34.594],[135.4465,34.6083],[135.4375,34.6082],[135.4375,34.6108],[135.4234,34.6108],[135.4234,34.619],[135.4261,34.618],[135.4266,34.613],[135.433,34.613],[135.433,34.615],[135.4302,34.616],[135.4302,34.6177],[135.4317,34.6175],[135.4306,34.6188],[135.4315,34.6197],[135.4303,34.62],[135.4315,34.6202],[135.4303,34.6214],[135.4312,34.6213],[135.431,34.6226],[135.4329,34.6222],[135.4327,34.6232],[135.4317,34.6228],[135.4336,34.6236],[135.4342,34.6234],[135.4413,34.6262],[135.443,34.6253],[135.4414,34.6254],[135.4429,34.6181],[135.4476,34.6179],[135.4481,34.6307],[135.4536,34.6292],[135.4527,34.6349],[135.4482,34.6349],[135.4471,34.6413],[135.4512,34.6425],[135.4508,34.6453],[135.4499,34.6467],[135.4441,34.6445],[135.4421,34.6454],[135.4468,34.6468],[135.4441,34.648],[135.4399,34.6462],[135.4354,34.648],[135.4406,34.6495],[135.4376,34.6509],[135.4332,34.6492],[135.4292,34.6515],[135.428,34.6509],[135.4284,34.6509],[135.4292,34.6495],[135.4284,34.6508],[135.427,34.6502],[135.4279,34.6498],[135.4261,34.6499],[135.4255,34.6513],[135.4288,34.6523],[135.428,34.6549],[135.4234,34.6575],[135.4212,34.6538],[135.4227,34.6567],[135.4208,34.6538],[135.4192,34.6534],[135.4205,34.6602],[135.4181,34.6595],[135.416,34.6523],[135.4143,34.6517],[135.4165,34.6614],[135.4239,34.6636],[135.4263,34.6678],[135.4245,34.6658],[135.4173,34.6637],[135.4171,34.6688],[135.4185,34.6706],[135.4167,34.6732],[135.4104,34.6717],[135.41,34.6707],[135.4077,34.6722],[135.4088,34.6723],[135.4093,34.6747],[135.4089,34.6755],[135.4068,34.6738],[135.4072,34.6749],[135.4123,34.6768],[135.4223,34.6796],[135.4178,34.688],[135.411,34.6914],[135.4073,34.6971],[135.4129,34.702],[135.4252,34.7062],[135.4311,34.7124],[135.4462,34.7183],[135.4481,34.7217],[135.4456,34.7295],[135.4481,34.7339],[135.4554,34.7343],[135.467,34.7307],[135.4699,34.731],[135.4701,34.7326],[135.4755,34.7361],[135.4814,34.7384],[135.4847,34.7452],[135.4846,34.7473],[135.4906,34.7513],[135.4952,34.7514],[135.5,34.7499],[135.4994,34.7479],[135.5075,34.7446],[135.5171,34.75],[135.5264,34.7481],[135.5316,34.7523],[135.529,34.7546],[135.5326,34.7596],[135.5394,34.7613],[135.5417,34.7663],[135.5441,34.7685],[135.5499,34.7681],[135.5513,34.7654],[135.551,34.7642],[135.5491,34.7653],[135.551,34.7635],[135.55,34.7614],[135.5508,34.7572],[135.5582,34.7569],[135.5605,34.754],[135.5571,34.7513],[135.5563,34.7467],[135.5609,34.7404],[135.5609,34.7381],[135.5603,34.7368],[135.5534,34.7331],[135.5549,34.7311],[135.5551,34.7248],[135.5599,34.7262],[135.5644,34.7241],[135.5687,34.7153],[135.5699,34.7089],[135.5743,34.7089],[135.5748,34.7129],[135.5776,34.7128],[135.5751,34.7174],[135.5829,34.7174],[135.5836,34.7187],[135.5828,34.7185],[135.5823,34.7201],[135.5835,34.7206],[135.5822,34.7211],[135.5822,34.7233],[135.5826,34.7223],[135.5831,34.7231],[135.5852,34.7217],[135.5872,34.7182],[135.5857,34.7119],[135.587,34.7109],[135.5899,34.7137],[135.5993,34.7147],[135.597,34.7069],[135.5903,34.7077],[135.595,34.7035],[135.5901,34.702],[135.5902,34.7006],[135.582,34.6968],[135.583,34.6963],[135.5795,34.6897],[135.5764,34.6881],[135.5724,34.6888],[135.5736,34.6877],[135.5708,34.6886],[135.5697,34.6876],[135.5656,34.6878],[135.5635,34.6805],[135.5622,34.6679],[135.5574,34.6681],[135.557,34.6633],[135.5612,34.6626],[135.5618,34.6583],[135.5639,34.6582],[135.5633,34.6559],[135.5586,34.6558],[135.5594,34.6529],[135.562,34.6528],[135.5619,34.6501],[135.5608,34.6502],[135.5613,34.6408],[135.5652,34.641],[135.5654,34.6381],[135.5684,34.6382],[135.5686,34.6344],[135.5746,34.634],[135.5766,34.6265],[135.5752,34.6182],[135.5636,34.6213],[135.5623,34.6229],[135.562,34.617],[135.568,34.6157],[135.5692,34.6138],[135.5725,34.6138],[135.5739,34.6138],[135.5732,34.6168],[135.5735,34.6173],[135.575,34.6148],[135.5769,34.6148],[135.5763,34.612],[135.5824,34.612],[135.5845,34.6092],[135.5869,34.6091],[135.5873,34.6047],[135.5814,34.6027],[135.5813,34.6009],[135.58,34.6009],[135.5799,34.5941],[135.5768,34.5931],[135.5717,34.594],[135.5709,34.5869],[135.5691,34.5871],[135.5694,34.5903],[135.5679,34.592],[135.5672,34.5955],[135.5644,34.5961],[135.5642,34.5945],[135.5496,34.5948],[135.5496,34.5958],[135.5436,34.5952],[135.5435,34.5994],[135.532,34.5987],[135.53,34.5941],[135.5305,34.5909],[135.5297,34.5943],[135.5277,34.5947],[135.5264,34.5964],[135.5033,34.5862],[135.4998,34.5876],[135.4958,34.594]],[[135.5555,34.7556],[135.5536,34.7561],[135.5535,34.756],[135.5543,34.7555],[135.5555,34.7556]]],[[[135.3895,34.6283],[135.3995,34.6207],[135.4049,34.6193],[135.4184,34.6195],[135.4204,34.6129],[135.4192,34.6127],[135.4192,34.6109],[135.4207,34.6108],[135.4175,34.6108],[135.417,34.6121],[135.4028,34.6121],[135.4013,34.6107],[135.4027,34.6121],[135.4006,34.6174],[135.4011,34.6184],[135.3895,34.6283]]],[[[135.4434,34.6253],[135.4439,34.6252],[135.4434,34.6252],[135.4434,34.6253]]],[[[135.3536,34.6322],[135.3586,34.6276],[135.3651,34.6325],[135.3491,34.6203],[135.3501,34.6194],[135.3513,34.6199],[135.3504,34.6193],[135.3501,34.6194],[135.3493,34.62],[135.3457,34.6173],[135.3437,34.6223],[135.3558,34.6351],[135.3536,34.6322]]],[[[135.4165,34.6448],[135.4242,34.6427],[135.4324,34.644],[135.4325,34.6432],[135.4393,34.6412],[135.4419,34.6284],[135.4327,34.6242],[135.4221,34.6219],[135.4206,34.6258],[135.4104,34.6259],[135.4075,34.6294],[135.4148,34.6348],[135.4123,34.6372],[135.4045,34.6315],[135.3986,34.6314],[135.3965,34.6287],[135.3985,34.6313],[135.3985,34.6381],[135.3977,34.6388],[135.4044,34.6395],[135.4053,34.64],[135.4053,34.6409],[135.4165,34.6448]]],[[[135.4049,34.6399],[135.4043,34.6403],[135.4049,34.6403],[135.4049,34.6399]]],[[[135.45,34.6438],[135.4503,34.6425],[135.4503,34.6424],[135.45,34.6438]]],[[[135.4292,34.6502],[135.4312,34.6492],[135.4291,34.6501],[135.4292,34.6502]]],[[[135.3861,34.6599],[135.3796,34.6609],[135.3795,34.6601],[135.3997,34.6569],[135.4045,34.6537],[135.3928,34.6414],[135.392,34.6423],[135.3789,34.6432],[135.3729,34.6521],[135.3796,34.6609],[135.3861,34.6599]]],[[[135.4273,34.6543],[135.4281,34.6524],[135.428,34.6524],[135.4273,34.6543]]],[[[135.3983,34.6574],[135.3984,34.6574],[135.3988,34.6572],[135.3983,34.6574]]],[[[135.3992,34.6578],[135.3984,34.6576],[135.3987,34.658],[135.3992,34.6578]]],[[[135.4007,34.66],[135.3999,34.6598],[135.4002,34.6602],[135.4007,34.66]]],[[[135.4003,34.6604],[135.4009,34.6604],[135.4008,34.6602],[135.4003,34.6604]]],[[[135.4028,34.6731],[135.4094,34.6688],[135.4088,34.6659],[135.411,34.6656],[135.4098,34.6591],[135.402,34.6606],[135.3869,34.6627],[135.3883,34.6688],[135.388,34.6678],[135.4028,34.6731]]],[[[135.4058,34.6743],[135.4059,34.6734],[135.4075,34.6723],[135.4058,34.6734],[135.4058,34.6743]]]]}},{"type":"Feature","properties":{"code":"27140","name":"堺市","pref_code":"27","pref":"大阪府"},"geometry":{"type":"MultiPolygon","coordinates":[[[[135.4375,34.5554],[135.441,34.5543],[135.4408,34.5493],[135.4364,34.5426],[135.4263,34.5471],[135.4307,34.5538],[135.4349,34.5527],[135.4375,34.5554]]],[[[135.4119,34.5437],[135.4053,34.5472],[135.4093,34.555],[135.4159,34.55],[135.4119,34.5437]]],[[[135.439,34.5553],[135.439,34.5553],[135.439,34.5553],[135.439,34.5553]]],[[[135.4386,34.5554],[135.4387,34.5554],[135.4386,34.5554],[135.4386,34.5554]]],[[[135.4374,34.5557],[135.4374,34.5557],[135.4374,34.5557],[135.4374,34.5557]]],[[[135.4131,34.5606],[135.413,34.5606],[135.4131,34.5606],[135.4131,34.5606]]],[[[135.3964,34.5956],[135.3951,34.6017],[135.3879,34.6051],[135.388,34.6052],[135.3952,34.6017],[135.3964,34.5956]]],[[[135.4219,34.6008],[135.4211,34.6016],[135.4208,34.6029],[135.4214,34.6037],[135.4226,34.6041],[135.421,34.6028],[135.4219,34.6008]]],[[[135.443,34.6028],[135.4425,34.6029],[135.4389,34.6039],[135.443,34.6028]]],[[[135.5351,34.5067],[135.5395,34.5015],[135.54,34.4986],[135.5385,34.4952],[135.5339,34.491],[135.5336,34.4876],[135.536,34.4854],[135.5353,34.4802],[135.5367,34.4777],[135.5362,34.4751],[135.5386,34.4693],[135.5453,34.462],[135.5412,34.4588],[135.5403,34.4564],[135.5363,34.4531],[135.5323,34.4473],[135.5262,34.4422],[135.522,34.4402],[135.5189,34.4353],[135.5189,34.4302],[135.5113,34.4314],[135.5063,34.434],[135.5005,34.4338],[135.4982,34.4378],[135.4993,34.4414],[135.4973,34.4516],[135.4945,34.4559],[135.4896,34.4603],[135.4844,34.461],[135.4785,34.4649],[135.4757,34.4693],[135.4782,34.4709],[135.4719,34.4763],[135.4718,34.481],[135.4704,34.4812],[135.47,34.4833],[135.4661,34.4831],[135.4665,34.496],[135.4656,34.4962],[135.4647,34.5008],[135.466,34.5033],[135.4644,34.5042],[135.464,34.4984],[135.4633,34.5],[135.4611,34.4967],[135.4611,34.5002],[135.4627,34.5022],[135.4633,34.5066],[135.4621,34.5065],[135.4621,34.5082],[135.4608,34.5076],[135.4619,34.51],[135.4607,34.5121],[135.4595,34.5125],[135.4583,34.511],[135.4574,34.5148],[135.4543,34.5158],[135.4544,34.5165],[135.457,34.5159],[135.4585,34.5184],[135.4599,34.5185],[135.4597,34.5196],[135.4574,34.5209],[135.4583,34.5218],[135.4562,34.5225],[135.456,34.5245],[135.4457,34.526],[135.4482,34.5295],[135.4504,34.5293],[135.4513,34.5304],[135.4463,34.5309],[135.448,34.5339],[135.4466,34.5341],[135.4467,34.536],[135.4451,34.5353],[135.4461,34.5369],[135.4424,34.5394],[135.4386,34.5395],[135.4392,34.5405],[135.4377,34.5411],[135.4437,34.5511],[135.4441,34.5539],[135.4429,34.5542],[135.443,34.5562],[135.4429,34.5544],[135.4439,34.5541],[135.4447,34.5556],[135.4437,34.5563],[135.4448,34.5572],[135.4311,34.5608],[135.4105,34.5607],[135.4092,34.5578],[135.4104,34.5609],[135.4021,34.6],[135.4158,34.5938],[135.4208,34.5697],[135.4294,34.5707],[135.4262,34.5896],[135.4338,34.5867],[135.4344,34.5827],[135.4415,34.5829],[135.4443,34.5738],[135.445,34.567],[135.4524,34.5648],[135.4533,34.5665],[135.4494,34.568],[135.4514,34.575],[135.4555,34.5758],[135.4555,34.5736],[135.4567,34.5727],[135.4576,34.5757],[135.4518,34.5771],[135.4501,34.5837],[135.455,34.5825],[135.4573,34.5825],[135.4586,34.5834],[135.459,34.5834],[135.4592,34.5836],[135.4633,34.5827],[135.4636,34.5814],[135.4652,34.5821],[135.4662,34.5846],[135.4635,34.5846],[135.4643,34.5832],[135.4493,34.5871],[135.4525,34.59],[135.4623,34.5874],[135.4626,34.5916],[135.4609,34.5919],[135.4606,34.5949],[135.4597,34.5948],[135.4599,34.5907],[135.4591,34.5901],[135.4518,34.5919],[135.4458,34.5897],[135.444,34.5893],[135.4434,34.5905],[135.4377,34.5887],[135.4255,34.5933],[135.4236,34.605],[135.4309,34.6029],[135.4343,34.6029],[135.4333,34.6008],[135.4447,34.5975],[135.4466,34.6019],[135.437,34.6047],[135.4375,34.6082],[135.4465,34.6083],[135.4694,34.6018],[135.4815,34.5971],[135.4952,34.5943],[135.4974,34.5927],[135.4993,34.588],[135.5022,34.5862],[135.5063,34.5868],[135.522,34.5943],[135.5226,34.5899],[135.521,34.5894],[135.5211,34.5875],[135.5228,34.587],[135.5224,34.5767],[135.5318,34.5766],[135.5311,34.5743],[135.532,34.5726],[135.5356,34.5716],[135.5353,34.5695],[135.5373,34.5656],[135.548,34.5659],[135.549,34.5648],[135.5479,34.5624],[135.5496,34.5606],[135.5481,34.5576],[135.5516,34.5566],[135.5532,34.5539],[135.5543,34.5548],[135.5571,34.5538],[135.5585,34.5538],[135.5587,34.5549],[135.5616,34.5544],[135.5611,34.56],[135.5672,34.56],[135.5688,34.5572],[135.5673,34.5528],[135.5674,34.5487],[135.5726,34.5484],[135.572,34.5464],[135.5738,34.547],[135.5758,34.5454],[135.5755,34.5442],[135.5742,34.544],[135.5747,34.5432],[135.5776,34.5421],[135.582,34.5377],[135.5808,34.5378],[135.5826,34.5347],[135.5812,34.5352],[135.5815,34.5339],[135.5876,34.5314],[135.5851,34.5275],[135.5857,34.5266],[135.5843,34.5265],[135.5855,34.5191],[135.5828,34.5187],[135.5826,34.5195],[135.5808,34.5174],[135.5824,34.514],[135.5819,34.5105],[135.5791,34.5114],[135.5751,34.5109],[135.5665,34.5135],[135.5658,34.516],[135.5634,34.5176],[135.5628,34.52],[135.5644,34.52],[135.563,34.5222],[135.5634,34.524],[135.5622,34.5255],[135.5611,34.5247],[135.5621,34.5264],[135.5614,34.5269],[135.5584,34.5267],[135.5594,34.5291],[135.5586,34.5294],[135.555,34.528],[135.5533,34.5204],[135.555,34.518],[135.5464,34.518],[135.5436,34.5159],[135.544,34.5114],[135.5428,34.51],[135.5414,34.5121],[135.5407,34.5111],[135.5341,34.515],[135.5344,34.5132],[135.5326,34.5146],[135.5351,34.5067]],[[135.5777,34.5344],[135.5806,34.535],[135.5802,34.5381],[135.5795,34.5385],[135.58,34.5366],[135.5777,34.5344]]],[[[135.459,34.5834],[135.459,34.5835],[135.459,34.5835],[135.459,34.5834]]]]}},{"type":"Feature","properties":{"code":"27202","name":"岸和田市","pref_code":"27","pref":"大阪府"},"geometry":{"type":"MultiPolygon","coordinates":[[[[135.3709,34.5004],[135.3947,34.4888],[135.4243,34.4663],[135.4292,34.4705],[135.4356,34.4667],[135.4356,34.4657],[135.4422,34.4605],[135.4413,34.4568],[135.4422,34.4553],[135.4401,34.4509],[135.4422,34.4489],[135.4418,34.4471],[135.4434,34.4457],[135.4423,34.4421],[135.4447,34.4369],[135.4438,34.4354],[135.4488,34.4324],[135.4481,34.4286],[135.4516,34.4238],[135.4515,34.4173],[135.4496,34.4149],[135.4521,34.4145],[135.4535,34.4077],[135.4555,34.4057],[135.4538,34.4029],[135.4544,34.4004],[135.4528,34.4002],[135.4521,34.398],[135.4525,34.3954],[135.4498,34.391],[135.4539,34.3901],[135.4563,34.3856],[135.4612,34.3835],[135.4637,34.3777],[135.4625,34.375],[135.4597,34.3746],[135.4591,34.3693],[135.458,34.3675],[135.4563,34.3672],[135.4565,34.3633],[135.4543,34.3585],[135.4569,34.3532],[135.4523,34.3493],[135.4476,34.3494],[135.4415,34.3474],[135.4333,34.349],[135.4323,34.3527],[135.4308,34.3541],[135.4313,34.357],[135.4302,34.3587],[135.4309,34.361],[135.4288,34.3695],[135.4266,34.3731],[135.4271,34.3744],[135.4257,34.3765],[135.4227,34.3762],[135.4193,34.379],[135.4165,34.3794],[135.4161,34.3832],[135.4109,34.3879],[135.4102,34.3921],[135.4086,34.3934],[135.4095,34.397],[135.4083,34.3998],[135.4056,34.4014],[135.4052,34.4049],[135.4111,34.4089],[135.4093,34.4136],[135.405,34.4119],[135.4013,34.4123],[135.4006,34.4111],[135.3979,34.4144],[135.399,34.4172],[135.397,34.4191],[135.3947,34.4164],[135.3922,34.4199],[135.3879,34.4177],[135.3795,34.4317],[135.3806,34.4347],[135.3778,34.4381],[135.3814,34.4426],[135.3812,34.4454],[135.3727,34.4516],[135.3722,34.4505],[135.3692,34.4514],[135.3627,34.4571],[135.3613,34.4566],[135.3608,34.4576],[135.3621,34.4583],[135.3594,34.4598],[135.3608,34.4616],[135.3589,34.4626],[135.3576,34.4609],[135.354,34.4629],[135.353,34.4624],[135.3529,34.4624],[135.3562,34.4642],[135.3627,34.4723],[135.3649,34.4702],[135.3633,34.4699],[135.3621,34.4684],[135.3631,34.4679],[135.3641,34.4692],[135.3644,34.469],[135.3621,34.4666],[135.3635,34.4658],[135.3641,34.4665],[135.3632,34.4669],[135.3641,34.4665],[135.3651,34.4685],[135.3666,34.468],[135.3664,34.4706],[135.3667,34.4713],[135.3668,34.4679],[135.367,34.4686],[135.3676,34.4676],[135.3702,34.4678],[135.3722,34.4717],[135.3678,34.4711],[135.3638,34.4776],[135.3661,34.4807],[135.3746,34.4759],[135.3735,34.4746],[135.3759,34.4732],[135.3765,34.4748],[135.375,34.4754],[135.3771,34.4752],[135.3759,34.4759],[135.3769,34.4786],[135.3718,34.4813],[135.3724,34.4834],[135.3759,34.4824],[135.3774,34.4865],[135.3698,34.49],[135.3724,34.4944],[135.3709,34.4956],[135.3709,34.5004]]],[[[135.364,34.4685],[135.364,34.4685],[135.3638,34.4682],[135.364,34.4685]]],[[[135.3671,34.4715],[135.3675,34.4709],[135.3669,34.4714],[135.3671,34.4715]]],[[[135.3549,34.489],[135.3548,34.4827],[135.3559,34.4826],[135.3548,34.4826],[135.3529,34.4802],[135.3596,34.4737],[135.3612,34.4765],[135.3603,34.4778],[135.361,34.4778],[135.3609,34.4801],[135.3601,34.4804],[135.36,34.4781],[135.3599,34.4805],[135.361,34.4804],[135.3598,34.4844],[135.3572,34.4867],[135.3581,34.4864],[135.3598,34.4846],[135.3606,34.4829],[135.3612,34.4804],[135.3612,34.476],[135.3605,34.4745],[135.3549,34.4674],[135.3511,34.4656],[135.3478,34.4695],[135.3491,34.4681],[135.3516,34.4689],[135.3503,34.4716],[135.3516,34.4719],[135.352,34.4744],[135.3506,34.4758],[135.353,34.4792],[135.3522,34.4793],[135.3456,34.4712],[135.3547,34.4827],[135.3547,34.489],[135.3549,34.489]]],[[[135.369,34.4793],[135.3695,34.4791],[135.369,34.4793],[135.369,34.4793]]],[[[135.373,34.4853],[135.3726,34.4836],[135.3725,34.4836],[135.373,34.4853]]],[[[135.3667,34.4917],[135.3644,34.4837],[135.3647,34.4802],[135.3643,34.4837],[135.3667,34.4917]]],[[[135.3731,34.4856],[135.3736,34.4872],[135.3731,34.4856],[135.3731,34.4856]]]]}},{"type":"Feature","properties":{"code":"27206","name":"泉大津市","pref_code":"27","pref":"大阪府"},"geometry":{"type":"MultiPolygon","coordinates":[[[[135.3809,34.5298],[135.3845,34.5188],[135.386,34.5175],[135.3817,34.5117],[135.3842,34.5099],[135.3875,34.5144],[135.3891,34.5132],[135.3862,34.5084],[135.3901,34.5055],[135.3924,34.5076],[135.3904,34.5091],[135.3927,34.5122],[135.3959,34.5133],[135.3931,34.5121],[135.3945,34.511],[135.3965,34.5127],[135.3974,34.5118],[135.3961,34.5097],[135.397,34.509],[135.4005,34.5108],[135.3973,34.5139],[135.402,34.5186],[135.4032,34.5174],[135.4014,34.5141],[135.4026,34.513],[135.4044,34.5162],[135.4057,34.5151],[135.4038,34.5118],[135.4053,34.5104],[135.4099,34.5136],[135.4065,34.517],[135.4104,34.5229],[135.422,34.5181],[135.4243,34.5162],[135.4233,34.5154],[135.4268,34.5127],[135.4317,34.5166],[135.4333,34.5155],[135.4334,34.514],[135.432,34.5127],[135.4339,34.5113],[135.432,34.5112],[135.4351,34.5089],[135.4339,34.5087],[135.4318,34.5053],[135.4281,34.5048],[135.4287,34.5041],[135.4274,34.5041],[135.4281,34.5035],[135.4272,34.5039],[135.4239,34.5007],[135.4255,34.5002],[135.4268,34.4978],[135.4281,34.4978],[135.4272,34.4963],[135.4293,34.4943],[135.4282,34.493],[135.4296,34.4919],[135.429,34.491],[135.4284,34.4903],[135.4267,34.4916],[135.4246,34.4894],[135.4236,34.4904],[135.4228,34.4894],[135.4212,34.4898],[135.4184,34.4871],[135.4163,34.4881],[135.4173,34.4862],[135.4162,34.4834],[135.417,34.4827],[135.4153,34.4815],[135.4114,34.4821],[135.4057,34.4881],[135.4056,34.492],[135.404,34.4945],[135.3952,34.4965],[135.3857,34.5014],[135.3778,34.5078],[135.3786,34.5085],[135.3775,34.5093],[135.3786,34.5109],[135.3766,34.5124],[135.3755,34.5109],[135.3672,34.517],[135.379,34.5329],[135.3783,34.5319],[135.3809,34.5298]],[[135.4317,34.5114],[135.4297,34.5106],[135.4303,34.5102],[135.4317,34.5114]]],[[[135.3984,34.5261],[135.4011,34.5274],[135.4027,34.5256],[135.4011,34.5205],[135.4004,34.5193],[135.3997,34.5188],[135.395,34.5173],[135.3932,34.5191],[135.3965,34.5213],[135.3953,34.5225],[135.3921,34.5203],[135.3906,34.5217],[135.3939,34.5239],[135.3927,34.5251],[135.3895,34.5228],[135.3871,34.5248],[135.3884,34.524],[135.3938,34.5314],[135.3984,34.5261]]]]}},{"type":"Feature","properties":{"code":"27208","name":"貝塚市","pref_code":"27","pref":"大阪府"},"geometry":{"type":"MultiPolygon","coordinates":[[[[135.3515,34.4624],[135.3521,34.4579],[135.3533,34.4573],[135.3518,34.4519],[135.3534,34.4508],[135.3594,34.4598],[135.3621,34.4583],[135.3608,34.4576],[135.3613,34.4566],[135.3627,34.4571],[135.3692,34.4514],[135.3722,34.4505],[135.3727,34.4516],[135.3812,34.4454],[135.3814,34.4426],[135.3778,34.4381],[135.3806,34.4347],[135.3795,34.4317],[135.3879,34.4177],[135.3922,34.4199],[135.3947,34.4164],[135.397,34.4191],[135.399,34.4172],[135.3979,34.4144],[135.4006,34.4111],[135.4013,34.4123],[135.405,34.4119],[135.4093,34.4136],[135.411,34.4088],[135.4052,34.4043],[135.4056,34.4014],[135.4083,34.3998],[135.4094,34.3972],[135.4086,34.3934],[135.4102,34.3921],[135.4109,34.3879],[135.4161,34.3832],[135.4165,34.3794],[135.4193,34.379],[135.4227,34.3762],[135.4257,34.3765],[135.4271,34.3744],[135.4266,34.3731],[135.4288,34.3695],[135.4309,34.361],[135.4302,34.3587],[135.4313,34.357],[135.4308,34.3541],[135.4343,34.3482],[135.4287,34.3456],[135.4268,34.3409],[135.4249,34.34],[135.4166,34.3398],[135.4124,34.3419],[135.4092,34.3419],[135.4075,34.3471],[135.4045,34.3485],[135.4018,34.3484],[135.4008,34.3468],[135.3917,34.3477],[135.3914,34.3511],[135.3899,34.3519],[135.3875,34.3565],[135.3876,34.3616],[135.3846,34.3656],[135.382,34.3672],[135.3834,34.3687],[135.387,34.3696],[135.3851,34.3751],[135.388,34.3856],[135.3839,34.3852],[135.3838,34.3891],[135.3794,34.3911],[135.3801,34.3921],[135.3788,34.3994],[135.3762,34.4014],[135.3769,34.4032],[135.3667,34.4116],[135.3687,34.4128],[135.3689,34.4143],[135.3669,34.4126],[135.3649,34.414],[135.3667,34.4153],[135.3634,34.4145],[135.3623,34.4157],[135.3664,34.4165],[135.3677,34.4151],[135.3685,34.4157],[135.3666,34.4176],[135.3619,34.4171],[135.3627,34.4181],[135.3608,34.4178],[135.3607,34.4192],[135.3572,34.4183],[135.3561,34.4198],[135.3546,34.4188],[135.3494,34.4218],[135.3477,34.4251],[135.3396,34.4291],[135.3378,34.4321],[135.334,34.432],[135.329,34.4343],[135.3293,34.4348],[135.3305,34.4353],[135.3298,34.4348],[135.3309,34.4338],[135.3322,34.4347],[135.3348,34.4386],[135.3361,34.4416],[135.3341,34.4422],[135.3341,34.4423],[135.3373,34.4412],[135.3381,34.442],[135.3386,34.4428],[135.3364,34.4444],[135.3372,34.4458],[135.3435,34.4501],[135.3465,34.448],[135.3502,34.4519],[135.352,34.4579],[135.3515,34.4624]]],[[[135.3768,34.3994],[135.3778,34.3994],[135.3772,34.3978],[135.3752,34.3992],[135.3717,34.4062],[135.3768,34.3994]]],[[[135.365,34.4084],[135.3654,34.4089],[135.3655,34.4088],[135.365,34.4084]]],[[[135.3342,34.4398],[135.335,34.4415],[135.335,34.4414],[135.3342,34.4398]]],[[[135.3339,34.4419],[135.334,34.442],[135.3339,34.4419],[135.3339,34.4419]]],[[[135.3391,34.4693],[135.3472,34.4587],[135.346,34.4547],[135.3421,34.4508],[135.3323,34.4448],[135.3324,34.4464],[135.3307,34.4477],[135.3292,34.4472],[135.3304,34.4484],[135.3283,34.4499],[135.3272,34.4485],[135.3287,34.4474],[135.3271,34.4484],[135.3408,34.4669],[135.339,34.4693],[135.3389,34.4756],[135.3391,34.4693]]]]}},{"type":"Feature","properties":{"code":"27213","name":"泉佐野市","pref_code":"27","pref":"大阪府"},"geometry":{"type":"MultiPolygon","coordinates":[[[[135.3249,34.4369],[135.334,34.432],[135.3376,34.4322],[135.3396,34.4291],[135.3479,34.4249],[135.3497,34.4216],[135.3546,34.4188],[135.3562,34.4198],[135.3572,34.4183],[135.3549,34.4161],[135.3537,34.406],[135.3474,34.4105],[135.3453,34.4077],[135.3437,34.4087],[135.3423,34.4069],[135.3405,34.4078],[135.34,34.4068],[135.3379,34.4067],[135.339,34.4054],[135.3355,34.399],[135.3368,34.3955],[135.339,34.395],[135.3395,34.3918],[135.3433,34.3897],[135.3427,34.3871],[135.3493,34.3802],[135.3548,34.379],[135.3554,34.3729],[135.3605,34.3693],[135.3649,34.3674],[135.3665,34.3679],[135.3704,34.3644],[135.3718,34.3644],[135.3722,34.3656],[135.3749,34.3642],[135.3811,34.3633],[135.3816,34.3618],[135.3798,34.3583],[135.3806,34.3567],[135.3852,34.3549],[135.3883,34.3554],[135.3899,34.3519],[135.3914,34.3511],[135.3923,34.3473],[135.3959,34.3479],[135.401,34.3468],[135.4018,34.3484],[135.4043,34.3485],[135.4075,34.3471],[135.4092,34.3419],[135.4069,34.3388],[135.4068,34.3355],[135.4056,34.3339],[135.3991,34.3325],[135.3971,34.3304],[135.3911,34.333],[135.3882,34.3324],[135.3868,34.3291],[135.3829,34.3294],[135.3803,34.3284],[135.375,34.3311],[135.3714,34.3302],[135.3678,34.3311],[135.3663,34.3297],[135.3625,34.3289],[135.3596,34.3326],[135.3576,34.3334],[135.3459,34.3305],[135.3422,34.3351],[135.3389,34.335],[135.3404,34.3366],[135.3391,34.341],[135.3354,34.3412],[135.3345,34.3421],[135.3297,34.3399],[135.3268,34.3503],[135.3242,34.3511],[135.3237,34.3537],[135.322,34.3554],[135.3235,34.3613],[135.3252,34.3635],[135.3225,34.3637],[135.3179,34.3719],[135.3162,34.3727],[135.3136,34.3765],[135.3112,34.3773],[135.3097,34.38],[135.3057,34.3821],[135.3006,34.3804],[135.2983,34.3816],[135.2942,34.3792],[135.2896,34.379],[135.2906,34.3823],[135.2894,34.3842],[135.2951,34.3865],[135.2971,34.3846],[135.2987,34.3855],[135.2968,34.3881],[135.2977,34.3886],[135.2972,34.3892],[135.3004,34.39],[135.2971,34.3923],[135.2985,34.3929],[135.2984,34.3941],[135.2951,34.3978],[135.2967,34.3991],[135.2946,34.3992],[135.2888,34.4036],[135.2929,34.4071],[135.2934,34.4141],[135.2945,34.4151],[135.3021,34.4158],[135.3103,34.423],[135.3064,34.4195],[135.3095,34.4171],[135.3107,34.4193],[135.3126,34.4209],[135.3109,34.4192],[135.3114,34.4182],[135.3141,34.4202],[135.3134,34.421],[135.3149,34.4223],[135.3135,34.421],[135.3142,34.4202],[135.3157,34.4221],[135.316,34.4203],[135.3166,34.4212],[135.3171,34.4204],[135.3161,34.4202],[135.3168,34.4194],[135.3181,34.4201],[135.3172,34.4209],[135.3184,34.4206],[135.317,34.4218],[135.3176,34.4221],[135.319,34.4205],[135.3198,34.4219],[135.3154,34.4231],[135.3196,34.4226],[135.3138,34.4267],[135.3184,34.431],[135.3228,34.4281],[135.3234,34.4287],[135.3234,34.4286],[135.3206,34.4258],[135.3228,34.4244],[135.3235,34.4251],[135.3223,34.4256],[135.3236,34.4252],[135.3284,34.4299],[135.3261,34.4314],[135.3245,34.4297],[135.3249,34.4304],[135.3211,34.4331],[135.3249,34.4369]]],[[[135.3136,34.4213],[135.312,34.4212],[135.312,34.4212],[135.313,34.422],[135.3136,34.4213]]],[[[135.3145,34.4233],[135.3137,34.4225],[135.3136,34.4225],[135.3145,34.4233]]],[[[135.3253,34.4302],[135.3252,34.4303],[135.3253,34.4303],[135.3253,34.4302]]],[[[135.3179,34.4359],[135.3154,34.4334],[135.3168,34.4311],[135.3153,34.4334],[135.3178,34.4359],[135.3179,34.4359]]],[[[135.2553,34.4462],[135.2567,34.4461],[135.2571,34.4459],[135.2574,34.4457],[135.2579,34.4452],[135.2553,34.4462],[135.2544,34.4459],[135.2518,34.4442],[135.2596,34.4434],[135.2651,34.4375],[135.2566,34.4338],[135.252,34.4299],[135.2416,34.4373],[135.2544,34.4459],[135.2553,34.4462]]],[[[135.2596,34.4435],[135.2589,34.4441],[135.2589,34.4442],[135.2596,34.4435]]],[[[135.2399,34.4385],[135.2293,34.446],[135.2416,34.4552],[135.2455,34.4513],[135.2542,34.4511],[135.2506,34.4487],[135.2524,34.4469],[135.2399,34.4385]]]]}},{"type":"Feature","properties":{"code":"27225","name":"高石市","pref_code":"27","pref":"大阪府"},"geometry":{"type":"MultiPolygon","coordinates":[[[[135.4393,34.5395],[135.4424,34.5394],[135.4461,34.5369],[135.4451,34.5353],[135.4467,34.536],[135.4466,34.5341],[135.448,34.5339],[135.4463,34.5309],[135.4513,34.5304],[135.4504,34.5293],[135.4482,34.5295],[135.4457,34.526],[135.456,34.5245],[135.4562,34.5225],[135.4583,34.5218],[135.4574,34.5209],[135.4597,34.5196],[135.4599,34.5185],[135.4585,34.5184],[135.457,34.5159],[135.4544,34.5165],[135.4544,34.5133],[135.453,34.5121],[135.4507,34.5138],[135.4478,34.5113],[135.4455,34.512],[135.4447,34.5112],[135.4451,34.512],[135.4364,34.5135],[135.4361,34.5145],[135.4334,34.514],[135.4317,34.5166],[135.4268,34.5127],[135.4233,34.5154],[135.4243,34.5162],[135.4227,34.5176],[135.4189,34.5195],[135.4298,34.5311],[135.4305,34.5297],[135.4316,34.5308],[135.4303,34.5312],[135.4317,34.5309],[135.4316,34.5321],[135.4377,34.5411],[135.4393,34.5395]]],[[[135.3946,34.5325],[135.3975,34.5316],[135.4011,34.5274],[135.3984,34.5261],[135.3938,34.5314],[135.3946,34.5325]]],[[[135.4113,34.542],[135.4202,34.538],[135.4263,34.5471],[135.4364,34.5426],[135.4311,34.5345],[135.4215,34.5248],[135.4177,34.5242],[135.4046,34.5301],[135.4074,34.535],[135.4044,34.5362],[135.4011,34.5343],[135.3992,34.5365],[135.4053,34.5472],[135.4122,34.5435],[135.4113,34.542]]]]}},{"type":"Feature","properties":{"code":"27228","name":"泉南市","pref_code":"27","pref":"大阪府"},"geometry":{"type":"MultiPolygon","coordinates":[[[[135.2794,34.3951],[135.2826,34.3934],[135.2841,34.3907],[135.2813,34.3896],[135.2852,34.3838],[135.2876,34.3852],[135.2904,34.3827],[135.2896,34.379],[135.2942,34.3792],[135.2983,34.3816],[135.3006,34.3804],[135.3057,34.3821],[135.3097,34.38],[135.3112,34.3773],[135.3136,34.3765],[135.3202,34.3687],[135.322,34.3642],[135.3252,34.3635],[135.3235,34.3613],[135.322,34.3554],[135.3237,34.3537],[135.3242,34.3511],[135.3268,34.3503],[135.3297,34.3399],[135.3345,34.3421],[135.3354,34.3412],[135.3391,34.341],[135.3404,34.3369],[135.3389,34.335],[135.3375,34.335],[135.3395,34.332],[135.3391,34.3294],[135.3344,34.3256],[135.328,34.324],[135.3285,34.3214],[135.3305,34.3195],[135.3305,34.3167],[135.3281,34.3186],[135.3242,34.3191],[135.3114,34.3136],[135.3091,34.3133],[135.3076,34.3145],[135.304,34.3137],[135.3046,34.3106],[135.3025,34.3047],[135.3008,34.3026],[135.2986,34.3027],[135.2976,34.3008],[135.296,34.3014],[135.2934,34.2993],[135.2914,34.2998],[135.2879,34.3049],[135.2859,34.3104],[135.2863,34.3134],[135.2825,34.3179],[135.2795,34.3265],[135.2698,34.3366],[135.2701,34.3384],[135.2669,34.3415],[135.2653,34.3467],[135.2604,34.3528],[135.2597,34.3569],[135.2526,34.3604],[135.2502,34.3629],[135.2494,34.3656],[135.2499,34.3716],[135.2514,34.3715],[135.2519,34.373],[135.2503,34.3731],[135.2503,34.3743],[135.253,34.3732],[135.2536,34.3745],[135.2505,34.3754],[135.2507,34.377],[135.2593,34.3832],[135.2569,34.381],[135.2577,34.3805],[135.2594,34.3822],[135.2589,34.3814],[135.2604,34.3807],[135.2638,34.3811],[135.2637,34.3821],[135.2701,34.3868],[135.2722,34.3898],[135.2741,34.3915],[135.2727,34.3902],[135.2735,34.3896],[135.2744,34.3909],[135.2757,34.3907],[135.2772,34.3938],[135.2796,34.3939],[135.2794,34.3951]]],[[[135.2305,34.4298],[135.2403,34.4229],[135.2277,34.4135],[135.2191,34.4222],[135.2275,34.4278],[135.2269,34.4286],[135.2276,34.4279],[135.2305,34.4298]]],[[[135.2289,34.4309],[135.2262,34.4293],[135.2268,34.4286],[135.2216,34.4335],[135.2062,34.4231],[135.209,34.4201],[135.2012,34.4281],[135.2181,34.4385],[135.2289,34.4309]]]]}},{"type":"Feature","properties":{"code":"27232","name":"阪南市","pref_code":"27","pref":"大阪府"},"geometry":{"type":"MultiPolygon","coordinates":[[[[135.1939,34.3392],[135.1934,34.3384],[135.1929,34.3386],[135.1939,34.3392]]],[[[135.2506,34.3758],[135.2536,34.3745],[135.253,34.3732],[135.2503,34.3743],[135.2503,34.3731],[135.2519,34.373],[135.2514,34.3715],[135.2499,34.3716],[135.2494,34.3691],[135.2502,34.3629],[135.2534,34.3599],[135.2597,34.3569],[135.2604,34.3528],[135.2653,34.3467],[135.2669,34.3415],[135.2701,34.3384],[135.2698,34.3366],[135.2795,34.3265],[135.2822,34.3174],[135.2772,34.3155],[135.2723,34.312],[135.2643,34.3132],[135.2617,34.3125],[135.2579,34.3157],[135.249,34.3144],[135.2363,34.3055],[135.2355,34.3036],[135.225,34.3009],[135.2197,34.305],[135.2112,34.3065],[135.2076,34.3092],[135.2036,34.3087],[135.2018,34.3124],[135.1948,34.3109],[135.1916,34.3124],[135.1907,34.3183],[135.1885,34.3195],[135.1936,34.3212],[135.1939,34.3251],[135.1923,34.3296],[135.1894,34.3291],[135.1881,34.3319],[135.1939,34.3361],[135.1931,34.3381],[135.1953,34.3386],[135.1944,34.3389],[135.1951,34.3396],[135.1967,34.339],[135.1978,34.3406],[135.1985,34.3398],[135.1981,34.3408],[135.2026,34.3431],[135.204,34.3412],[135.2057,34.343],[135.2068,34.3422],[135.2059,34.3431],[135.2063,34.3438],[135.2089,34.3448],[135.206,34.3432],[135.2069,34.3422],[135.2075,34.3427],[135.2066,34.3432],[135.2087,34.3442],[135.2092,34.3434],[135.217,34.3442],[135.2229,34.3473],[135.2279,34.352],[135.2269,34.3526],[135.2269,34.3529],[135.2279,34.3521],[135.2282,34.3534],[135.2292,34.3533],[135.2283,34.3542],[135.2296,34.3565],[135.2286,34.3544],[135.2295,34.3539],[135.2297,34.3552],[135.2312,34.3555],[135.2302,34.3559],[135.2311,34.3558],[135.2342,34.3599],[135.2338,34.3601],[135.2337,34.3603],[135.2358,34.3617],[135.2354,34.3619],[135.2354,34.3624],[135.2359,34.3618],[135.2395,34.3653],[135.239,34.3664],[135.2404,34.3689],[135.2411,34.3694],[135.2392,34.3664],[135.2411,34.3678],[135.2431,34.3667],[135.2418,34.3674],[135.241,34.3685],[135.2428,34.3684],[135.2488,34.377],[135.2507,34.377],[135.2506,34.3758]]],[[[135.227,34.3531],[135.2272,34.3533],[135.2272,34.3533],[135.227,34.3531]]],[[[135.233,34.3587],[135.233,34.3588],[135.2331,34.3588],[135.233,34.3587]]]]}},{"type":"Feature","properties":{"code":"27341","name":"忠岡町","pref_code":"27","pref":"大阪府"},"geometry":{"type":"Polygon","coordinates":[[[135.3778,34.5078],[135.3897,34.4989],[135.3969,34.496],[135.404,34.4945],[135.4056,34.492],[135.4063,34.4873],[135.4114,34.4821],[135.4143,34.4822],[135.4177,34.4798],[135.4185,34.4775],[135.4162,34.4762],[135.4152,34.4736],[135.4135,34.4739],[135.3947,34.4888],[135.3709,34.5004],[135.3708,34.5027],[135.3738,34.5073],[135.3758,34.506],[135.3778,34.5078]]]}},{"type":"Feature","properties":{"code":"27362","name":"田尻町","pref_code":"27","pref":"大阪府"},"geometry":{"type":"MultiPolygon","coordinates":[[[[135.2888,34.4036],[135.2946,34.3992],[135.2967,34.3991],[135.2951,34.3978],[135.2984,34.3941],[135.2985,34.3929],[135.2971,34.3923],[135.3004,34.39],[135.2972,34.3892],[135.2977,34.3886],[135.2968,34.3881],[135.2987,34.3855],[135.2968,34.3845],[135.2951,34.3865],[135.2894,34.3842],[135.2896,34.3834],[135.2876,34.3852],[135.2852,34.3838],[135.2813,34.3896],[135.2841,34.3907],[135.2826,34.3934],[135.2798,34.3954],[135.2824,34.3989],[135.2871,34.396],[135.2879,34.3959],[135.2848,34.3997],[135.2876,34.3967],[135.2884,34.3973],[135.2862,34.399],[135.2884,34.3981],[135.2858,34.4002],[135.2865,34.4008],[135.2857,34.4016],[135.2863,34.401],[135.2888,34.4036]]],[[[135.2331,34.4316],[135.2416,34.4373],[135.252,34.4299],[135.2403,34.4229],[135.2181,34.4385],[135.2293,34.446],[135.2399,34.4385],[135.2321,34.4333],[135.2331,34.4316]]]]}},{"type":"Feature","properties":{"code":"27366","name":"岬町","pref_code":"27","pref":"大阪府"},"geometry":{"type":"MultiPolygon","coordinates":[[[[135.1804,34.3408],[135.1827,34.3396],[135.1834,34.3388],[135.1804,34.3407],[135.1783,34.3391],[135.179,34.3385],[135.1783,34.3391],[135.1767,34.3376],[135.1779,34.3368],[135.179,34.3376],[135.1784,34.3382],[135.1796,34.3381],[135.1804,34.3375],[135.1821,34.3389],[135.1804,34.3373],[135.1796,34.338],[135.1781,34.3367],[135.1826,34.3363],[135.1831,34.3372],[135.183,34.3364],[135.1909,34.3373],[135.1923,34.3386],[135.1939,34.3364],[135.1881,34.3319],[135.1894,34.3291],[135.1923,34.3296],[135.1939,34.3251],[135.1936,34.3212],[135.1885,34.3195],[135.1907,34.3183],[135.1916,34.3124],[135.1948,34.3109],[135.2018,34.3124],[135.2036,34.3087],[135.2077,34.3092],[135.2086,34.3031],[135.2052,34.3004],[135.2043,34.2979],[135.2052,34.2884],[135.1987,34.2881],[135.1964,34.286],[135.1918,34.2866],[135.1897,34.2828],[135.1878,34.2832],[135.1849,34.2811],[135.1843,34.2788],[135.1803,34.2799],[135.1786,34.2789],[135.1718,34.2806],[135.1669,34.2799],[135.1655,34.2788],[135.1574,34.2771],[135.1536,34.2743],[135.1523,34.2747],[135.154,34.2766],[135.1533,34.279],[135.1548,34.281],[135.1533,34.2824],[135.1468,34.2838],[135.1434,34.2804],[135.1396,34.2819],[135.1379,34.2746],[135.1366,34.2735],[135.1312,34.2725],[135.1288,34.276],[135.1257,34.2775],[135.1208,34.2738],[135.117,34.2731],[135.1139,34.2744],[135.1118,34.2733],[135.1116,34.2718],[135.1106,34.2724],[135.1074,34.2785],[135.1091,34.2827],[135.1086,34.284],[135.1031,34.2863],[135.1014,34.2858],[135.0986,34.2892],[135.0998,34.2927],[135.0992,34.2946],[135.0968,34.2966],[135.1064,34.3058],[135.1061,34.3086],[135.1034,34.3098],[135.1035,34.3111],[135.0971,34.3079],[135.0928,34.312],[135.0941,34.3129],[135.093,34.3136],[135.0946,34.3139],[135.0921,34.3147],[135.092,34.3139],[135.0919,34.3151],[135.0982,34.3146],[135.1021,34.3198],[135.116,34.3228],[135.118,34.3228],[135.1173,34.3222],[135.1185,34.3212],[135.1193,34.3217],[135.1184,34.3225],[135.1193,34.3218],[135.1201,34.3233],[135.1227,34.3199],[135.1206,34.3237],[135.1247,34.3254],[135.1274,34.3244],[135.1306,34.3262],[135.1332,34.323],[135.1299,34.3213],[135.1301,34.3205],[135.134,34.3191],[135.1352,34.3205],[135.1347,34.3192],[135.1391,34.3186],[135.1415,34.3204],[135.1394,34.3187],[135.1402,34.3177],[135.1426,34.3197],[135.143,34.3192],[135.1438,34.3192],[135.1434,34.3208],[135.1421,34.3211],[135.1453,34.3219],[135.1453,34.3231],[135.1457,34.3236],[135.1455,34.322],[135.1481,34.3233],[135.146,34.3229],[135.1477,34.3239],[135.1465,34.3253],[135.145,34.3246],[135.1474,34.326],[135.1492,34.3261],[135.1529,34.3312],[135.1569,34.332],[135.1602,34.331],[135.1635,34.3314],[135.1682,34.3348],[135.1687,34.3365],[135.1704,34.3372],[135.1692,34.3366],[135.1699,34.3359],[135.1718,34.3365],[135.1699,34.3354],[135.1709,34.3351],[135.1728,34.3362],[135.1709,34.3375],[135.1732,34.3365],[135.18,34.3408],[135.1804,34.3408]]],[[[135.0918,34.3128],[135.0918,34.3131],[135.092,34.3133],[135.0918,34.3128]]],[[[135.0913,34.3139],[135.0916,34.3132],[135.0913,34.3134],[135.0913,34.3139]]],[[[135.1391,34.3221],[135.138,34.3215],[135.1379,34.3212],[135.1379,34.3216],[135.1391,34.3221]]],[[[135.145,34.3229],[135.1442,34.3246],[135.1447,34.3252],[135.145,34.3229]]],[[[135.1196,34.3244],[135.1187,34.3242],[135.1198,34.3236],[135.1191,34.3234],[135.1186,34.3242],[135.1196,34.3244]]],[[[135.1592,34.3314],[135.1592,34.3315],[135.1593,34.3315],[135.1592,34.3314]]],[[[135.1586,34.3317],[135.1588,34.3316],[135.1585,34.3316],[135.1586,34.3317]]],[[[135.17,34.3376],[135.1707,34.338],[135.171,34.3377],[135.1707,34.3379],[135.17,34.3376]]]]}}]}