{"type":"FeatureCollection","pref_code":"31","features":[{"type":"Feature","properties":{"code":"31201","name":"鳥取市","pref_code":"31","pref":"鳥取県"},"geometry":{"type":"MultiPolygon","coordinates":[[[[133.9655,35.5228],[133.9655,35.5229],[133.9655,35.5228],[133.9655,35.5228]]],[[[133.9718,35.5247],[133.9703,35.5238],[133.9701,35.5239],[133.9706,35.5244],[133.9718,35.5247]]],[[[133.9734,35.5243],[133.9729,35.5247],[133.9735,35.5244],[133.9734,35.5243]]],[[[134.0214,35.5246],[134.0193,35.525],[134.0214,35.5248],[134.0214,35.5246]]],[[[134.0915,35.5253],[134.0917,35.5255],[134.0917,35.5252],[134.0915,35.5253]]],[[[134.084,35.5255],[134.0843,35.5257],[134.0843,35.5257],[134.084,35.5255]]],[[[134.0909,35.5267],[134.091,35.5266],[134.0909,35.5265],[134.0909,35.5267]]],[[[134.1048,35.5268],[134.1053,35.5268],[134.1053,35.5266],[134.1048,35.5268]]],[[[134.1046,35.5269],[134.1047,35.5269],[134.1047,35.5269],[134.1046,35.5269]]],[[[134.1051,35.5268],[134.1052,35.527],[134.1053,35.5268],[134.1051,35.5268]]],[[[134.1049,35.5269],[134.1048,35.527],[134.105,35.5269],[134.1049,35.5269]]],[[[134.1047,35.5269],[134.1046,35.527],[134.1046,35.527],[134.1047,35.5269]]],[[[134.105,35.527],[134.105,35.527],[134.105,35.527],[134.105,35.527]]],[[[134.0909,35.5273],[134.091,35.5271],[134.0908,35.5272],[134.0909,35.5273]]],[[[134.1045,35.5272],[134.1048,35.5271],[134.1047,35.5271],[134.1045,35.5272]]],[[[134.0907,35.5274],[134.0909,35.5276],[134.091,35.5274],[134.0907,35.5274]]],[[[134.112,35.5284],[134.112,35.5278],[134.1115,35.5277],[134.112,35.5284]]],[[[134.0864,35.5281],[134.0863,35.5281],[134.087,35.5286],[134.0864,35.5281]]],[[[134.0881,35.5285],[134.0889,35.5282],[134.0881,35.5284],[134.0881,35.5285]]],[[[134.1126,35.5286],[134.1123,35.5286],[134.1124,35.5289],[134.1126,35.5286]]],[[[134.2775,35.5726],[134.282,35.5674],[134.2866,35.5679],[134.2915,35.5622],[134.2952,35.5616],[134.2962,35.5561],[134.2982,35.5536],[134.2971,35.5528],[134.2975,35.551],[134.2994,35.5487],[134.3061,35.5471],[134.308,35.539],[134.3108,35.5379],[134.3169,35.5384],[134.3176,35.5356],[134.3275,35.5335],[134.3267,35.5322],[134.3279,35.5316],[134.3288,35.5278],[134.3271,35.5256],[134.3275,35.5231],[134.3248,35.5198],[134.3255,35.5185],[134.323,35.513],[134.3267,35.51],[134.3245,35.5073],[134.3254,35.5058],[134.3235,35.5025],[134.3243,35.4976],[134.3217,35.4964],[134.3207,35.4931],[134.3187,35.4912],[134.3204,35.4898],[134.3199,35.4863],[134.3282,35.4852],[134.3292,35.4831],[134.3308,35.4829],[134.3359,35.4782],[134.3389,35.4793],[134.3455,35.4778],[134.3504,35.4779],[134.3527,35.482],[134.3566,35.4816],[134.3571,35.4828],[134.3602,35.4833],[134.3612,35.484],[134.3608,35.486],[134.363,35.4863],[134.3654,35.4897],[134.3677,35.4898],[134.372,35.4925],[134.3747,35.499],[134.3764,35.5004],[134.3853,35.5002],[134.3873,35.4981],[134.3937,35.5005],[134.3969,35.4948],[134.4003,35.4922],[134.4004,35.4901],[134.4026,35.4883],[134.408,35.4867],[134.4136,35.4898],[134.4187,35.4887],[134.4221,35.4867],[134.426,35.4873],[134.4271,35.4861],[134.428,35.48],[134.4307,35.4786],[134.4302,35.4756],[134.4343,35.4716],[134.4351,35.4667],[134.4337,35.4664],[134.4344,35.4639],[134.4382,35.4612],[134.4375,35.457],[134.4407,35.4398],[134.4341,35.4365],[134.4301,35.4367],[134.428,35.4349],[134.4225,35.4361],[134.4153,35.4339],[134.4089,35.4363],[134.4086,35.438],[134.3998,35.4406],[134.394,35.4382],[134.3866,35.4373],[134.3845,35.4357],[134.38,35.4401],[134.3773,35.4316],[134.3732,35.4302],[134.3723,35.4308],[134.3714,35.4295],[134.3657,35.427],[134.3636,35.4276],[134.363,35.426],[134.3517,35.4258],[134.349,35.4245],[134.342,35.4284],[134.3423,35.4297],[134.3409,35.4303],[134.3374,35.4302],[134.333,35.4282],[134.3256,35.4297],[134.3146,35.4355],[134.3123,35.4392],[134.3103,35.4387],[134.3036,35.4402],[134.301,35.4432],[134.2969,35.4451],[134.2899,35.4437],[134.2888,35.4419],[134.2851,35.4433],[134.2824,35.4425],[134.28,35.4444],[134.2784,35.4496],[134.2766,35.4503],[134.2742,35.449],[134.2743,35.4461],[134.2729,35.4434],[134.2651,35.4401],[134.2632,35.4369],[134.2637,35.4351],[134.2621,35.4314],[134.2583,35.4318],[134.2582,35.4308],[134.2495,35.4289],[134.2449,35.4298],[134.2388,35.4269],[134.2382,35.4212],[134.2306,35.4179],[134.2298,35.4155],[134.2258,35.4139],[134.2185,35.4139],[134.2145,35.4125],[134.2173,35.4066],[134.2159,35.4033],[134.2184,35.4017],[134.2184,35.4],[134.2196,35.3992],[134.219,35.3976],[134.2293,35.3912],[134.2322,35.3911],[134.2334,35.3885],[134.2358,35.3868],[134.2323,35.3816],[134.2338,35.3789],[134.2308,35.3716],[134.231,35.3691],[134.2348,35.3632],[134.2343,35.3609],[134.2411,35.3561],[134.2421,35.3541],[134.2421,35.3525],[134.2384,35.3479],[134.2383,35.3446],[134.2418,35.3344],[134.2443,35.3323],[134.245,35.3281],[134.249,35.3264],[134.2541,35.3274],[134.2546,35.3205],[134.2574,35.3154],[134.2627,35.3127],[134.269,35.3125],[134.2706,35.3091],[134.2669,35.3055],[134.2562,35.3024],[134.2536,35.2972],[134.2497,35.2956],[134.2473,35.2978],[134.2447,35.2983],[134.2392,35.2967],[134.2378,35.2983],[134.2357,35.2963],[134.2316,35.2974],[134.2235,35.2974],[134.2198,35.3014],[134.2138,35.2943],[134.2088,35.2923],[134.2076,35.2894],[134.2023,35.2873],[134.1992,35.2873],[134.1979,35.2807],[134.1947,35.2788],[134.1892,35.2794],[134.1822,35.2769],[134.1721,35.2759],[134.167,35.2737],[134.1634,35.2744],[134.1601,35.2719],[134.1566,35.2717],[134.148,35.2779],[134.1483,35.2816],[134.1436,35.2807],[134.1399,35.2815],[134.1392,35.279],[134.1343,35.2832],[134.1313,35.2802],[134.1271,35.2801],[134.1157,35.2835],[134.1137,35.285],[134.1146,35.2868],[134.1141,35.2885],[134.1115,35.2893],[134.1115,35.2906],[134.1097,35.2911],[134.1081,35.2934],[134.103,35.2961],[134.1024,35.3002],[134.1005,35.3],[134.0992,35.3014],[134.0978,35.3057],[134.0947,35.3054],[134.094,35.3065],[134.0915,35.3052],[134.0864,35.3074],[134.084,35.3028],[134.0752,35.3026],[134.0707,35.2993],[134.0702,35.2973],[134.062,35.3031],[134.0548,35.2982],[134.0521,35.2981],[134.0481,35.2985],[134.0423,35.3037],[134.0376,35.3045],[134.0339,35.304],[134.0303,35.3053],[134.0297,35.3073],[134.0282,35.3078],[134.0217,35.3056],[134.0123,35.3068],[134.0081,35.3082],[134.0035,35.3115],[134.0036,35.3127],[133.9995,35.3147],[134.0014,35.3179],[134.001,35.3199],[134.0045,35.3238],[134.0042,35.3253],[134.0119,35.3298],[134.0155,35.3341],[134.0146,35.3361],[134.0114,35.3378],[134.0108,35.3404],[134.0158,35.3461],[134.0148,35.3504],[134.0172,35.3519],[134.0198,35.356],[134.0178,35.3611],[134.019,35.3637],[134.024,35.3642],[134.0243,35.3684],[134.0273,35.369],[134.0333,35.3663],[134.0336,35.3682],[134.0352,35.3686],[134.0379,35.3723],[134.0416,35.3737],[134.0423,35.3775],[134.0316,35.3792],[134.0168,35.3869],[134.0147,35.3862],[134.0104,35.3887],[134.0084,35.388],[134.0077,35.3893],[134.0048,35.3896],[134.0038,35.3907],[133.9995,35.3892],[133.9918,35.3931],[133.991,35.3964],[133.9926,35.3992],[133.9956,35.4017],[133.9951,35.4032],[134.0009,35.4065],[133.9989,35.4114],[133.9943,35.4151],[133.995,35.4156],[133.9939,35.4182],[133.9959,35.4204],[133.9958,35.423],[133.9937,35.4235],[133.989,35.4204],[133.9854,35.4222],[133.9831,35.4251],[133.9802,35.4244],[133.9781,35.4252],[133.971,35.422],[133.9686,35.4241],[133.9655,35.4245],[133.9647,35.4267],[133.9536,35.4273],[133.9511,35.4286],[133.9501,35.4333],[133.9517,35.4359],[133.9482,35.437],[133.9474,35.4413],[133.9498,35.4441],[133.9517,35.4506],[133.9537,35.4508],[133.9522,35.4541],[133.948,35.4552],[133.946,35.4618],[133.9484,35.4692],[133.9518,35.4749],[133.9523,35.4798],[133.9544,35.4828],[133.9542,35.4855],[133.9559,35.486],[133.9542,35.4885],[133.9566,35.4948],[133.9562,35.4974],[133.9572,35.4992],[133.9633,35.5022],[133.9646,35.5044],[133.9672,35.5058],[133.9693,35.5086],[133.9685,35.5104],[133.9711,35.5125],[133.9706,35.5183],[133.9652,35.5228],[133.9696,35.5216],[133.9711,35.5226],[133.9697,35.5232],[133.9715,35.5231],[133.9711,35.5215],[133.9726,35.5219],[133.9722,35.5236],[133.9733,35.5225],[133.9776,35.523],[133.9798,35.5221],[133.9825,35.5254],[133.9839,35.5224],[133.9894,35.5229],[133.9915,35.5254],[133.9937,35.5251],[133.9951,35.5232],[133.9954,35.5244],[133.9983,35.5244],[134.0013,35.5266],[134.0022,35.528],[134.0006,35.5293],[134.0014,35.5299],[134.0018,35.5287],[134.0028,35.5292],[134.0026,35.5307],[133.9993,35.5301],[134.0014,35.5306],[134.0028,35.5332],[134.0031,35.5323],[134.004,35.5328],[134.0047,35.5361],[134.0078,35.5379],[134.0134,35.5315],[134.0129,35.5298],[134.0155,35.5298],[134.0182,35.5236],[134.0197,35.5239],[134.0172,35.5224],[134.0178,35.5216],[134.0189,35.5233],[134.0196,35.5228],[134.0185,35.522],[134.0201,35.521],[134.0214,35.5226],[134.0207,35.5236],[134.0217,35.5224],[134.0202,35.5206],[134.0217,35.5197],[134.0338,35.5185],[134.0723,35.5204],[134.0801,35.522],[134.0824,35.5254],[134.085,35.5246],[134.0852,35.5251],[134.0875,35.526],[134.0862,35.5246],[134.0878,35.5242],[134.0877,35.5251],[134.0881,35.5244],[134.0895,35.5251],[134.0883,35.5251],[134.0882,35.5262],[134.0958,35.524],[134.0987,35.5245],[134.0984,35.5255],[134.1004,35.527],[134.1035,35.5252],[134.1043,35.5268],[134.1058,35.5253],[134.1091,35.5252],[134.1101,35.5255],[134.1101,35.5272],[134.1189,35.5263],[134.1516,35.5308],[134.1529,35.5323],[134.1593,35.5319],[134.16,35.5332],[134.1616,35.5322],[134.1674,35.5333],[134.1676,35.5345],[134.168,35.5335],[134.1708,35.534],[134.1711,35.5354],[134.1721,35.5344],[134.1743,35.536],[134.1779,35.5359],[134.178,35.5401],[134.1841,35.5409],[134.1837,35.5413],[134.1838,35.5416],[134.1843,35.5413],[134.1842,35.5404],[134.1792,35.5402],[134.1793,35.5381],[134.1839,35.5382],[134.1831,35.5395],[134.1847,35.5396],[134.1853,35.5384],[134.1867,35.539],[134.1914,35.5356],[134.1917,35.536],[134.1925,35.5361],[134.1914,35.5356],[134.1961,35.5327],[134.1972,35.5334],[134.1945,35.5372],[134.1938,35.5362],[134.1934,35.5373],[134.1934,35.5361],[134.1934,35.5372],[134.1873,35.5398],[134.1873,35.5434],[134.189,35.5433],[134.1898,35.5408],[134.1917,35.541],[134.1911,35.5426],[134.1927,35.543],[134.1917,35.5452],[134.1916,35.547],[134.1946,35.5399],[134.1971,35.5408],[134.1959,35.5429],[134.1974,35.5408],[134.2051,35.5413],[134.231,35.5464],[134.2713,35.5599],[134.2747,35.564],[134.2748,35.5643],[134.2743,35.5644],[134.2737,35.565],[134.2738,35.5652],[134.2752,35.5647],[134.2746,35.566],[134.2726,35.5654],[134.2768,35.5686],[134.2765,35.5715],[134.278,35.5719],[134.2775,35.5726]]],[[[134.1285,35.5318],[134.1284,35.5318],[134.1285,35.5318],[134.1285,35.5318]]],[[[134.1282,35.5324],[134.1288,35.5319],[134.128,35.5322],[134.1282,35.5324]]],[[[134.1364,35.5397],[134.1372,35.5394],[134.1363,35.5396],[134.1364,35.5397]]],[[[134.1365,35.5399],[134.1365,35.5399],[134.1366,35.5398],[134.1365,35.5399]]],[[[134.1374,35.5406],[134.1373,35.5397],[134.1363,35.5402],[134.1374,35.5406]]],[[[134.1373,35.5414],[134.1371,35.5411],[134.137,35.5412],[134.1373,35.5414]]],[[[134.1837,35.5414],[134.1837,35.5414],[134.1837,35.5414],[134.1837,35.5414]]],[[[134.1837,35.5415],[134.1837,35.5414],[134.1837,35.5415],[134.1837,35.5415]]],[[[134.1838,35.5418],[134.1839,35.5416],[134.1837,35.5418],[134.1838,35.5418]]],[[[134.1835,35.5423],[134.1833,35.5417],[134.1833,35.5423],[134.1835,35.5423]]],[[[134.1832,35.5429],[134.1843,35.543],[134.1836,35.5423],[134.1832,35.5429]]],[[[134.183,35.543],[134.1827,35.5428],[134.1825,35.5429],[134.183,35.543]]],[[[134.1837,35.5433],[134.1837,35.5443],[134.1847,35.5456],[134.1837,35.5443],[134.1837,35.5433]]],[[[134.1904,35.5464],[134.1916,35.5466],[134.1916,35.5465],[134.1904,35.5464]]],[[[134.1916,35.55],[134.1848,35.547],[134.1814,35.547],[134.1847,35.5471],[134.1916,35.55]]],[[[134.2386,35.5635],[134.2387,35.5629],[134.238,35.5632],[134.2386,35.5635]]],[[[134.2713,35.5656],[134.271,35.5655],[134.2718,35.566],[134.2713,35.5656]]],[[[134.2764,35.5716],[134.2758,35.5717],[134.2763,35.5721],[134.2764,35.5716]]],[[[134.2775,35.573],[134.2776,35.5731],[134.2776,35.5731],[134.2775,35.573]]]]}},{"type":"Feature","properties":{"code":"31202","name":"米子市","pref_code":"31","pref":"鳥取県"},"geometry":{"type":"MultiPolygon","coordinates":[[[[133.2628,35.501],[133.2888,35.4806],[133.2941,35.4774],[133.2955,35.4783],[133.2958,35.4769],[133.2982,35.4758],[133.2988,35.4765],[133.3012,35.4743],[133.3079,35.4715],[133.311,35.4705],[133.3114,35.4713],[133.3115,35.4705],[133.3223,35.4663],[133.3314,35.4641],[133.3401,35.4632],[133.3415,35.4621],[133.3399,35.464],[133.3421,35.4622],[133.3507,35.4603],[133.365,35.4593],[133.3661,35.4584],[133.3673,35.459],[133.3679,35.4581],[133.3741,35.4563],[133.3676,35.4344],[133.375,35.4321],[133.3765,35.4339],[133.3771,35.4306],[133.3798,35.43],[133.3811,35.4315],[133.383,35.4305],[133.3833,35.4319],[133.3845,35.432],[133.3855,35.4358],[133.3841,35.4386],[133.3869,35.4391],[133.3866,35.4415],[133.3904,35.4458],[133.3916,35.4539],[133.3996,35.454],[133.402,35.4528],[133.4041,35.4544],[133.4051,35.4536],[133.4062,35.4545],[133.4096,35.4541],[133.4235,35.4587],[133.426,35.4609],[133.4254,35.4619],[133.4257,35.4631],[133.4263,35.4613],[133.4277,35.4629],[133.4276,35.4638],[133.426,35.4637],[133.4272,35.465],[133.4256,35.4643],[133.4255,35.4645],[133.4238,35.4641],[133.4232,35.4643],[133.4283,35.4657],[133.4293,35.4699],[133.4346,35.4688],[133.4352,35.4625],[133.434,35.4596],[133.4418,35.4597],[133.4421,35.4625],[133.4454,35.4612],[133.4499,35.4622],[133.4544,35.4615],[133.4558,35.4598],[133.4553,35.4565],[133.4591,35.4517],[133.4583,35.4473],[133.4643,35.4477],[133.4652,35.4451],[133.4712,35.44],[133.4743,35.4404],[133.4803,35.4372],[133.4797,35.4297],[133.4703,35.423],[133.4687,35.4228],[133.4676,35.4175],[133.4658,35.416],[133.4511,35.4166],[133.4469,35.4148],[133.4418,35.4146],[133.4416,35.413],[133.443,35.4109],[133.4423,35.4097],[133.4468,35.3946],[133.4454,35.3924],[133.4404,35.3904],[133.4299,35.3917],[133.4208,35.3901],[133.4193,35.3886],[133.415,35.3895],[133.4079,35.3954],[133.4066,35.3945],[133.4056,35.3969],[133.4033,35.3976],[133.402,35.4042],[133.4002,35.4048],[133.3998,35.402],[133.3981,35.4021],[133.398,35.4002],[133.3961,35.3991],[133.3978,35.3947],[133.3893,35.3969],[133.3891,35.3942],[133.3904,35.3931],[133.39,35.3921],[133.3875,35.3922],[133.3862,35.3864],[133.3895,35.3851],[133.3887,35.3834],[133.3845,35.3852],[133.3825,35.3884],[133.3811,35.386],[133.3821,35.3852],[133.3808,35.3841],[133.3814,35.3828],[133.3805,35.3811],[133.3792,35.3814],[133.3753,35.3787],[133.37,35.3787],[133.3593,35.3814],[133.3583,35.383],[133.3567,35.3832],[133.3558,35.3863],[133.3518,35.385],[133.3518,35.3881],[133.3475,35.3853],[133.3451,35.386],[133.343,35.3887],[133.3431,35.3869],[133.3416,35.3853],[133.3392,35.3853],[133.3382,35.3825],[133.3345,35.3815],[133.3288,35.3747],[133.3244,35.3743],[133.3237,35.3774],[133.3201,35.3808],[133.319,35.3835],[133.3156,35.3856],[133.3159,35.387],[133.3136,35.3869],[133.3153,35.392],[133.3212,35.3957],[133.3198,35.3993],[133.3217,35.4004],[133.3206,35.4039],[133.3216,35.4077],[133.3087,35.4309],[133.3007,35.4363],[133.272,35.446],[133.2269,35.4772],[133.2456,35.4948],[133.254,35.4981],[133.2561,35.4973],[133.2628,35.501]]],[[[133.3686,35.4582],[133.3685,35.4582],[133.3686,35.4582],[133.3686,35.4582]]],[[[133.3289,35.4653],[133.3287,35.4654],[133.3289,35.4653],[133.3289,35.4653]]],[[[133.3279,35.4656],[133.3282,35.4655],[133.3282,35.4655],[133.3279,35.4656]]],[[[133.3263,35.4658],[133.3264,35.4658],[133.3264,35.4658],[133.3263,35.4658]]]]}},{"type":"Feature","properties":{"code":"31204","name":"境港市","pref_code":"31","pref":"鳥取県"},"geometry":{"type":"MultiPolygon","coordinates":[[[[133.2718,35.5523],[133.2674,35.5486],[133.2667,35.5509],[133.2654,35.5506],[133.2652,35.5489],[133.2603,35.5438],[133.2608,35.5432],[133.2602,35.5438],[133.2578,35.5425],[133.2585,35.5416],[133.2504,35.5372],[133.2517,35.535],[133.2478,35.5335],[133.2483,35.5315],[133.2495,35.5312],[133.2483,35.5314],[133.2472,35.5356],[133.2462,35.5354],[133.2465,35.5337],[133.246,35.5354],[133.2446,35.5351],[133.2456,35.5341],[133.2452,35.5326],[133.2463,35.5327],[133.2452,35.5325],[133.2452,35.5314],[133.2471,35.5317],[133.245,35.5308],[133.2479,35.5304],[133.2458,35.5299],[133.2463,35.5277],[133.2503,35.5279],[133.2498,35.5301],[133.2504,35.5279],[133.2558,35.5283],[133.2544,35.5281],[133.2558,35.5281],[133.2606,35.5198],[133.2636,35.5209],[133.2531,35.517],[133.2544,35.5145],[133.2533,35.5162],[133.251,35.5153],[133.2515,35.5143],[133.2534,35.515],[133.2533,35.5132],[133.2558,35.5091],[133.2628,35.501],[133.2561,35.4973],[133.2537,35.498],[133.2448,35.4943],[133.2269,35.4772],[133.2225,35.4802],[133.2158,35.496],[133.1986,35.526],[133.1982,35.529],[133.201,35.5352],[133.2219,35.5476],[133.2338,35.5494],[133.2446,35.5491],[133.2453,35.5475],[133.2452,35.548],[133.2462,35.548],[133.2459,35.5461],[133.2472,35.5462],[133.247,35.548],[133.2479,35.5481],[133.2481,35.5464],[133.2498,35.5465],[133.2585,35.5502],[133.2718,35.5523]]],[[[133.2677,35.5204],[133.2673,35.5212],[133.2678,35.5204],[133.2677,35.5204]]],[[[133.2748,35.5474],[133.2645,35.5405],[133.2607,35.5361],[133.2619,35.5308],[133.2669,35.5218],[133.2618,35.5308],[133.2606,35.5361],[133.2645,35.5405],[133.2747,35.5474],[133.2748,35.5487],[133.2748,35.5474]]],[[[133.2722,35.5522],[133.2721,35.5522],[133.2721,35.5522],[133.2722,35.5522]]]]}},{"type":"Feature","properties":{"code":"31302","name":"岩美町","pref_code":"31","pref":"鳥取県"},"geometry":{"type":"MultiPolygon","coordinates":[[[[134.2781,35.5729],[134.2776,35.5733],[134.278,35.5735],[134.2781,35.5729]]],[[[134.2793,35.5733],[134.2793,35.5733],[134.2793,35.5733],[134.2793,35.5733]]],[[[134.2798,35.5737],[134.2798,35.5737],[134.2798,35.5737],[134.2798,35.5737]]],[[[134.28,35.5737],[134.28,35.5737],[134.28,35.5737],[134.28,35.5737]]],[[[134.2803,35.5738],[134.2803,35.5737],[134.2802,35.5737],[134.2803,35.5738]]],[[[134.2796,35.5738],[134.2796,35.5738],[134.2796,35.5738],[134.2796,35.5738]]],[[[134.2804,35.5738],[134.2804,35.5738],[134.2804,35.5738],[134.2804,35.5738]]],[[[134.2805,35.5739],[134.2805,35.5739],[134.2805,35.5739],[134.2805,35.5739]]],[[[134.2868,35.574],[134.2868,35.574],[134.2868,35.5739],[134.2868,35.574]]],[[[134.2867,35.574],[134.2867,35.574],[134.2867,35.574],[134.2867,35.574]]],[[[134.2807,35.574],[134.2807,35.574],[134.2807,35.5739],[134.2807,35.574]]],[[[134.2867,35.574],[134.2867,35.574],[134.2867,35.574],[134.2867,35.574]]],[[[134.2867,35.5741],[134.2867,35.574],[134.2867,35.574],[134.2867,35.5741]]],[[[134.2806,35.574],[134.2806,35.5741],[134.2806,35.5741],[134.2806,35.574]]],[[[134.2865,35.5741],[134.2864,35.5741],[134.2864,35.5741],[134.2865,35.5741]]],[[[134.2806,35.5741],[134.2805,35.5741],[134.2806,35.5742],[134.2806,35.5741]]],[[[134.2812,35.5741],[134.2812,35.5741],[134.2812,35.5742],[134.2812,35.5741]]],[[[134.2854,35.5743],[134.2853,35.5743],[134.2854,35.5743],[134.2854,35.5743]]],[[[134.2863,35.5743],[134.2864,35.5743],[134.2864,35.5742],[134.2863,35.5743]]],[[[134.2862,35.5743],[134.2862,35.5743],[134.2863,35.5743],[134.2862,35.5743]]],[[[134.2854,35.5743],[134.2854,35.5743],[134.2854,35.5743],[134.2854,35.5743]]],[[[134.281,35.5743],[134.281,35.5743],[134.281,35.5743],[134.281,35.5743]]],[[[134.2863,35.5743],[134.2863,35.5743],[134.2863,35.5743],[134.2863,35.5743]]],[[[134.2862,35.5743],[134.2862,35.5743],[134.2862,35.5743],[134.2862,35.5743]]],[[[134.286,35.5743],[134.286,35.5743],[134.286,35.5743],[134.286,35.5743]]],[[[134.2854,35.5743],[134.2854,35.5743],[134.2854,35.5743],[134.2854,35.5743]]],[[[134.286,35.5743],[134.2859,35.5743],[134.2859,35.5743],[134.286,35.5743]]],[[[134.2862,35.5743],[134.2861,35.5743],[134.2861,35.5743],[134.2862,35.5743]]],[[[134.2859,35.5744],[134.2858,35.5743],[134.2858,35.5743],[134.2859,35.5744]]],[[[134.2858,35.5743],[134.2858,35.5743],[134.2858,35.5744],[134.2858,35.5743]]],[[[134.2856,35.5743],[134.2856,35.5743],[134.2856,35.5744],[134.2856,35.5743]]],[[[134.2855,35.5744],[134.2855,35.5743],[134.2855,35.5744],[134.2855,35.5744]]],[[[134.2863,35.5744],[134.2862,35.5743],[134.2862,35.5744],[134.2863,35.5744]]],[[[134.2853,35.5744],[134.2853,35.5744],[134.2853,35.5744],[134.2853,35.5744]]],[[[134.2811,35.5744],[134.2812,35.5744],[134.2812,35.5744],[134.2811,35.5744]]],[[[134.2854,35.5744],[134.2854,35.5744],[134.2854,35.5744],[134.2854,35.5744]]],[[[134.2813,35.5745],[134.2813,35.5745],[134.2813,35.5745],[134.2813,35.5745]]],[[[134.2808,35.5745],[134.2808,35.5745],[134.2808,35.5745],[134.2808,35.5745]]],[[[134.2841,35.5746],[134.284,35.5746],[134.284,35.5746],[134.2841,35.5746]]],[[[134.2839,35.5746],[134.2839,35.5746],[134.2839,35.5746],[134.2839,35.5746]]],[[[134.2839,35.5747],[134.2839,35.5747],[134.2839,35.5747],[134.2839,35.5747]]],[[[134.2813,35.5748],[134.2813,35.5747],[134.2812,35.5747],[134.2813,35.5748]]],[[[134.2835,35.5748],[134.2835,35.5748],[134.2835,35.5748],[134.2835,35.5748]]],[[[134.2826,35.5748],[134.2825,35.5748],[134.2825,35.5748],[134.2826,35.5748]]],[[[134.2827,35.5748],[134.2827,35.5748],[134.2827,35.5748],[134.2827,35.5748]]],[[[134.2825,35.5748],[134.2825,35.5749],[134.2825,35.5749],[134.2825,35.5748]]],[[[134.2835,35.5752],[134.2836,35.5753],[134.2836,35.5752],[134.2835,35.5752]]],[[[134.2836,35.5753],[134.2836,35.5753],[134.2836,35.5753],[134.2836,35.5753]]],[[[134.2832,35.5755],[134.2832,35.5755],[134.2832,35.5755],[134.2832,35.5755]]],[[[134.2829,35.5756],[134.2829,35.5756],[134.2828,35.5756],[134.2829,35.5756]]],[[[134.2819,35.5831],[134.2852,35.5834],[134.2852,35.5832],[134.2819,35.5831]]],[[[134.2901,35.5845],[134.29,35.5846],[134.29,35.5847],[134.2901,35.5845]]],[[[134.2899,35.5845],[134.2897,35.5846],[134.2897,35.5847],[134.2899,35.5845]]],[[[134.2896,35.585],[134.2895,35.5849],[134.2893,35.5851],[134.2896,35.585]]],[[[134.2901,35.5848],[134.2896,35.5851],[134.29,35.5852],[134.2901,35.5848]]],[[[134.2895,35.5852],[134.2895,35.5852],[134.2895,35.5852],[134.2895,35.5852]]],[[[134.2899,35.5853],[134.2897,35.5854],[134.2899,35.5855],[134.2899,35.5853]]],[[[134.291,35.5857],[134.2908,35.5858],[134.2909,35.5859],[134.291,35.5857]]],[[[134.2903,35.5859],[134.2903,35.586],[134.2904,35.5859],[134.2903,35.5859]]],[[[134.29,35.5862],[134.29,35.5862],[134.2901,35.5862],[134.29,35.5862]]],[[[134.2906,35.5863],[134.2905,35.5863],[134.2906,35.5863],[134.2906,35.5863]]],[[[134.2902,35.5864],[134.2899,35.5866],[134.29,35.5866],[134.2902,35.5864]]],[[[134.2911,35.5874],[134.2911,35.5873],[134.291,35.5874],[134.2911,35.5874]]],[[[134.2905,35.5874],[134.2906,35.5873],[134.2904,35.5874],[134.2905,35.5874]]],[[[134.2908,35.5876],[134.2909,35.5876],[134.2909,35.5876],[134.2908,35.5876]]],[[[134.29,35.5879],[134.2901,35.5877],[134.2901,35.5877],[134.29,35.5879]]],[[[134.2922,35.5862],[134.2922,35.5862],[134.2922,35.5862],[134.2922,35.5862]]],[[[134.2911,35.5862],[134.2912,35.5862],[134.2911,35.5862],[134.2911,35.5862]]],[[[134.2916,35.5862],[134.2916,35.5862],[134.2917,35.5863],[134.2916,35.5862]]],[[[134.2915,35.5864],[134.2915,35.5863],[134.2912,35.5862],[134.2915,35.5864]]],[[[134.2922,35.5863],[134.2921,35.5863],[134.2921,35.5863],[134.2922,35.5863]]],[[[134.2921,35.5864],[134.2921,35.5864],[134.2919,35.5864],[134.2921,35.5864]]],[[[134.2914,35.5864],[134.2914,35.5864],[134.2915,35.5864],[134.2914,35.5864]]],[[[134.292,35.5867],[134.292,35.5867],[134.2921,35.5867],[134.292,35.5867]]],[[[134.2915,35.587],[134.2917,35.5869],[134.2908,35.5872],[134.2915,35.587]]],[[[134.2922,35.5874],[134.2922,35.5874],[134.2922,35.5874],[134.2922,35.5874]]],[[[134.2926,35.5874],[134.2925,35.5874],[134.2926,35.5874],[134.2926,35.5874]]],[[[134.2919,35.5876],[134.2918,35.5876],[134.292,35.5877],[134.2919,35.5876]]],[[[134.2911,35.5877],[134.2911,35.5877],[134.2911,35.5877],[134.2911,35.5877]]],[[[134.2924,35.5876],[134.2924,35.5874],[134.2915,35.588],[134.2924,35.5876]]],[[[134.2911,35.5877],[134.2911,35.5878],[134.2912,35.5878],[134.2911,35.5877]]],[[[134.2932,35.5879],[134.2933,35.5879],[134.2933,35.5879],[134.2932,35.5879]]],[[[134.2934,35.588],[134.2934,35.588],[134.2934,35.5879],[134.2934,35.588]]],[[[134.2935,35.588],[134.2934,35.588],[134.2934,35.5881],[134.2935,35.588]]],[[[134.2937,35.5882],[134.2937,35.5883],[134.2937,35.5883],[134.2937,35.5882]]],[[[134.2941,35.5883],[134.2941,35.5883],[134.2941,35.5883],[134.2941,35.5883]]],[[[134.2926,35.5884],[134.2925,35.5883],[134.2924,35.5884],[134.2926,35.5884]]],[[[134.2927,35.5885],[134.2928,35.5884],[134.2927,35.5883],[134.2927,35.5885]]],[[[134.2922,35.5883],[134.2921,35.5884],[134.2923,35.5885],[134.2922,35.5883]]],[[[134.2936,35.5889],[134.2936,35.5889],[134.2936,35.5889],[134.2936,35.5889]]],[[[134.2919,35.5889],[134.2919,35.5889],[134.2919,35.5889],[134.2919,35.5889]]],[[[134.2935,35.5889],[134.2934,35.589],[134.2935,35.589],[134.2935,35.5889]]],[[[134.2934,35.589],[134.2934,35.5889],[134.2933,35.5889],[134.2934,35.589]]],[[[134.2922,35.589],[134.2922,35.589],[134.2922,35.589],[134.2922,35.589]]],[[[134.2931,35.589],[134.2931,35.5891],[134.2932,35.5891],[134.2931,35.589]]],[[[134.295,35.5892],[134.295,35.5892],[134.295,35.5893],[134.295,35.5892]]],[[[134.295,35.5893],[134.2949,35.5893],[134.2949,35.5893],[134.295,35.5893]]],[[[134.2937,35.5894],[134.2937,35.5893],[134.2937,35.5893],[134.2937,35.5894]]],[[[134.2946,35.5893],[134.2945,35.5894],[134.2946,35.5894],[134.2946,35.5893]]],[[[134.2948,35.5894],[134.2948,35.5894],[134.2949,35.5893],[134.2948,35.5894]]],[[[134.2952,35.5894],[134.2952,35.5894],[134.2952,35.5894],[134.2952,35.5894]]],[[[134.2952,35.5895],[134.2952,35.5895],[134.2952,35.5895],[134.2952,35.5895]]],[[[134.2938,35.5896],[134.2939,35.5896],[134.2939,35.5896],[134.2938,35.5896]]],[[[134.2954,35.5896],[134.2953,35.5896],[134.2954,35.5896],[134.2954,35.5896]]],[[[134.2962,35.5896],[134.2962,35.5896],[134.2962,35.5896],[134.2962,35.5896]]],[[[134.3003,35.5896],[134.3002,35.5897],[134.3003,35.5897],[134.3003,35.5896]]],[[[134.2961,35.5897],[134.2962,35.5897],[134.2961,35.5896],[134.2961,35.5897]]],[[[134.2954,35.5896],[134.2954,35.5897],[134.2954,35.5897],[134.2954,35.5896]]],[[[134.2937,35.5896],[134.2935,35.5897],[134.2938,35.5898],[134.2937,35.5896]]],[[[134.2965,35.5897],[134.2965,35.5897],[134.2966,35.5897],[134.2965,35.5897]]],[[[134.2947,35.5897],[134.2946,35.5898],[134.2947,35.5898],[134.2947,35.5897]]],[[[134.3002,35.5897],[134.3002,35.5898],[134.3003,35.5898],[134.3002,35.5897]]],[[[134.2942,35.5898],[134.2942,35.5897],[134.294,35.5899],[134.2942,35.5898]]],[[[134.2962,35.5898],[134.2962,35.5898],[134.2962,35.5898],[134.2962,35.5898]]],[[[134.2954,35.5898],[134.2955,35.5898],[134.2955,35.5898],[134.2954,35.5898]]],[[[134.2947,35.5898],[134.2947,35.5899],[134.2948,35.5898],[134.2947,35.5898]]],[[[134.2961,35.5898],[134.296,35.5899],[134.2961,35.5899],[134.2961,35.5898]]],[[[134.2966,35.5898],[134.2967,35.5899],[134.2968,35.5898],[134.2966,35.5898]]],[[[134.2956,35.5898],[134.2955,35.5898],[134.2955,35.5898],[134.2954,35.59],[134.2956,35.5898]]],[[[134.2933,35.5896],[134.2928,35.59],[134.2933,35.5902],[134.2933,35.5896]]],[[[134.2946,35.5903],[134.2944,35.5898],[134.2936,35.5903],[134.2946,35.5903]]],[[[134.2954,35.5901],[134.2954,35.5901],[134.2954,35.5901],[134.2954,35.5901]]],[[[134.2927,35.5902],[134.2931,35.5903],[134.2929,35.5902],[134.2927,35.5902]]],[[[134.296,35.5901],[134.296,35.5899],[134.2951,35.5911],[134.296,35.5901]]],[[[134.2951,35.5905],[134.2951,35.5905],[134.2951,35.5905],[134.2951,35.5905]]],[[[134.296,35.5905],[134.2959,35.5905],[134.2959,35.5906],[134.296,35.5905]]],[[[134.2938,35.5906],[134.2938,35.5906],[134.2938,35.5906],[134.2938,35.5906]]],[[[134.2947,35.5911],[134.2951,35.5906],[134.295,35.5906],[134.2947,35.5911]]],[[[134.2969,35.5909],[134.2969,35.5909],[134.297,35.591],[134.2969,35.5909]]],[[[134.2955,35.591],[134.2955,35.5911],[134.2956,35.591],[134.2955,35.591]]],[[[134.2955,35.5911],[134.2954,35.5911],[134.2954,35.5911],[134.2955,35.5911]]],[[[134.2979,35.5919],[134.2979,35.5918],[134.2978,35.5919],[134.2979,35.5919]]],[[[134.3015,35.5896],[134.3015,35.5895],[134.3014,35.5895],[134.3015,35.5896]]],[[[134.3023,35.5895],[134.3022,35.5897],[134.3023,35.5897],[134.3023,35.5895]]],[[[134.3011,35.5896],[134.3011,35.5896],[134.3011,35.5897],[134.3011,35.5896]]],[[[134.3004,35.5896],[134.3003,35.5897],[134.3004,35.5897],[134.3004,35.5896]]],[[[134.3014,35.5897],[134.3014,35.5897],[134.3014,35.5897],[134.3014,35.5897]]],[[[134.3022,35.5898],[134.3022,35.5897],[134.3022,35.5897],[134.3022,35.5898]]],[[[134.3008,35.5896],[134.3007,35.5899],[134.3009,35.5898],[134.3008,35.5896]]],[[[134.3017,35.5899],[134.3017,35.5898],[134.3017,35.5898],[134.3017,35.5899]]],[[[134.301,35.5898],[134.301,35.5899],[134.301,35.5899],[134.301,35.5898]]],[[[134.3008,35.5899],[134.3008,35.5899],[134.3009,35.5899],[134.3008,35.5899]]],[[[134.3011,35.59],[134.3012,35.5899],[134.3011,35.5898],[134.3011,35.59]]],[[[134.3006,35.5898],[134.3004,35.59],[134.3006,35.5901],[134.3006,35.5898]]],[[[134.301,35.5899],[134.3009,35.59],[134.301,35.59],[134.301,35.5899]]],[[[134.3009,35.59],[134.301,35.5901],[134.301,35.59],[134.3009,35.59]]],[[[134.3026,35.59],[134.3026,35.5901],[134.3026,35.5901],[134.3026,35.59]]],[[[134.3009,35.59],[134.3008,35.5901],[134.3009,35.5901],[134.3009,35.59]]],[[[134.3025,35.5901],[134.3025,35.5901],[134.3025,35.5901],[134.3025,35.5901]]],[[[134.3015,35.5901],[134.3015,35.5902],[134.3016,35.5902],[134.3015,35.5901]]],[[[134.3025,35.5902],[134.3025,35.5902],[134.3025,35.5902],[134.3025,35.5902]]],[[[134.3028,35.5902],[134.3026,35.5902],[134.3028,35.5902],[134.3029,35.5903],[134.3028,35.5902]]],[[[134.3022,35.5903],[134.3022,35.5903],[134.3023,35.5903],[134.3022,35.5903]]],[[[134.3025,35.5903],[134.3025,35.5903],[134.3025,35.5903],[134.3025,35.5903]]],[[[134.3013,35.5904],[134.301,35.5902],[134.3005,35.5902],[134.3013,35.5904]]],[[[134.3029,35.5903],[134.3028,35.5904],[134.3029,35.5904],[134.3029,35.5903]]],[[[134.3027,35.5903],[134.3028,35.5904],[134.3028,35.5904],[134.3027,35.5903]]],[[[134.3024,35.5904],[134.3023,35.5904],[134.3023,35.5904],[134.3024,35.5904]]],[[[134.302,35.5904],[134.302,35.5904],[134.3019,35.5905],[134.302,35.5904]]],[[[134.3023,35.5904],[134.3023,35.5905],[134.3024,35.5905],[134.3023,35.5904]]],[[[134.302,35.5906],[134.302,35.5906],[134.3021,35.5906],[134.302,35.5906]]],[[[134.3026,35.5907],[134.3027,35.5906],[134.3024,35.5906],[134.3026,35.5907]]],[[[134.3022,35.5909],[134.3022,35.5907],[134.302,35.5908],[134.3022,35.5909]]],[[[134.3011,35.5908],[134.3011,35.5909],[134.3011,35.5909],[134.3011,35.5908]]],[[[134.3024,35.591],[134.3024,35.591],[134.3023,35.591],[134.3024,35.591]]],[[[134.3023,35.591],[134.3023,35.5911],[134.3023,35.5911],[134.3023,35.591]]],[[[134.3021,35.5911],[134.3022,35.5911],[134.3021,35.591],[134.3021,35.5911]]],[[[134.3023,35.5912],[134.3023,35.5912],[134.3023,35.5912],[134.3023,35.5912]]],[[[134.3022,35.5912],[134.3022,35.5912],[134.3022,35.5912],[134.3022,35.5912]]],[[[134.3024,35.5914],[134.3024,35.5914],[134.3024,35.5914],[134.3024,35.5914]]],[[[134.3022,35.5914],[134.3022,35.5915],[134.3022,35.5915],[134.3022,35.5914]]],[[[134.302,35.5915],[134.302,35.5915],[134.3021,35.5915],[134.302,35.5915]]],[[[134.3019,35.5915],[134.3019,35.5916],[134.302,35.5916],[134.3019,35.5915]]],[[[134.3019,35.5917],[134.3018,35.5917],[134.3018,35.5917],[134.3019,35.5917]]],[[[134.3034,35.5921],[134.3034,35.5922],[134.3035,35.5922],[134.3034,35.5921]]],[[[134.3034,35.5923],[134.3037,35.5924],[134.3037,35.5922],[134.3034,35.5923]]],[[[134.3028,35.5923],[134.3027,35.5924],[134.3031,35.5925],[134.3028,35.5923]]],[[[134.302,35.5924],[134.302,35.5924],[134.302,35.5924],[134.302,35.5924]]],[[[134.3024,35.5924],[134.3023,35.5925],[134.3024,35.5925],[134.3024,35.5924]]],[[[134.3035,35.5925],[134.3035,35.5925],[134.3035,35.5925],[134.3035,35.5925]]],[[[134.3027,35.5926],[134.3026,35.5926],[134.3025,35.5928],[134.3027,35.5926]]],[[[134.3025,35.5927],[134.3024,35.5927],[134.3025,35.5927],[134.3025,35.5927]]],[[[134.3029,35.5929],[134.3033,35.5926],[134.3029,35.5926],[134.3029,35.5929]]],[[[134.302,35.5926],[134.3018,35.5928],[134.3019,35.5929],[134.302,35.5926]]],[[[134.3037,35.593],[134.3037,35.593],[134.3037,35.5931],[134.3037,35.593]]],[[[134.3035,35.5931],[134.3035,35.5931],[134.3036,35.5931],[134.3035,35.5931]]],[[[134.303,35.594],[134.303,35.5941],[134.303,35.5941],[134.303,35.594]]],[[[134.3031,35.5943],[134.3031,35.5943],[134.3032,35.5943],[134.3031,35.5943]]],[[[134.3035,35.5944],[134.3033,35.5945],[134.3034,35.5946],[134.3035,35.5944]]],[[[134.3032,35.5945],[134.3033,35.5945],[134.3033,35.5945],[134.3032,35.5945]]],[[[134.3034,35.5947],[134.3034,35.5947],[134.3034,35.5947],[134.3034,35.5947]]],[[[134.3038,35.5947],[134.3038,35.5947],[134.3038,35.5947],[134.3038,35.5947]]],[[[134.303,35.5948],[134.303,35.5947],[134.303,35.5947],[134.303,35.5948]]],[[[134.3032,35.5947],[134.3032,35.5948],[134.3033,35.5947],[134.3032,35.5947]]],[[[134.3031,35.5948],[134.3032,35.5948],[134.3032,35.5948],[134.3031,35.5948]]],[[[134.303,35.5953],[134.3032,35.595],[134.3029,35.5951],[134.303,35.5953]]],[[[134.3033,35.5952],[134.3034,35.5952],[134.3034,35.5952],[134.3033,35.5952]]],[[[134.3027,35.5952],[134.3027,35.5952],[134.3027,35.5953],[134.3027,35.5952]]],[[[134.3076,35.5913],[134.3076,35.5913],[134.3077,35.5913],[134.3076,35.5913]]],[[[134.3077,35.5914],[134.3076,35.5914],[134.3076,35.5915],[134.3077,35.5914]]],[[[134.308,35.5914],[134.3079,35.5914],[134.3079,35.5916],[134.308,35.5914]]],[[[134.3082,35.5916],[134.3082,35.5915],[134.3082,35.5915],[134.3082,35.5916]]],[[[134.3077,35.5916],[134.3077,35.5916],[134.3078,35.5916],[134.3077,35.5916]]],[[[134.3068,35.5915],[134.3067,35.5917],[134.307,35.5917],[134.3068,35.5915]]],[[[134.3075,35.5917],[134.3076,35.5917],[134.3076,35.5916],[134.3075,35.5917]]],[[[134.3066,35.5917],[134.3067,35.5916],[134.3066,35.5916],[134.3066,35.5917]]],[[[134.3063,35.5919],[134.3063,35.5919],[134.3063,35.5919],[134.3063,35.5919]]],[[[134.3062,35.5919],[134.306,35.592],[134.3061,35.592],[134.3062,35.5919]]],[[[134.3066,35.592],[134.3066,35.592],[134.3066,35.592],[134.3066,35.592]]],[[[134.3065,35.592],[134.3065,35.5921],[134.3065,35.5921],[134.3065,35.592]]],[[[134.3041,35.5921],[134.3041,35.5921],[134.3041,35.5921],[134.3041,35.5921]]],[[[134.3039,35.5921],[134.3038,35.5922],[134.3039,35.5922],[134.3039,35.5921]]],[[[134.3056,35.5922],[134.3056,35.5923],[134.3056,35.5923],[134.3056,35.5922]]],[[[134.3056,35.5924],[134.3056,35.5924],[134.3056,35.5924],[134.3056,35.5924]]],[[[134.3054,35.5925],[134.3054,35.5925],[134.3055,35.5925],[134.3054,35.5925]]],[[[134.3039,35.5925],[134.3039,35.5926],[134.3039,35.5926],[134.3039,35.5925]]],[[[134.3051,35.5926],[134.3052,35.5927],[134.3052,35.5926],[134.3051,35.5926]]],[[[134.305,35.5927],[134.305,35.5926],[134.305,35.5927],[134.305,35.5927]]],[[[134.3041,35.5927],[134.3041,35.5928],[134.3041,35.5928],[134.3041,35.5927]]],[[[134.3053,35.5927],[134.3052,35.5928],[134.3053,35.5928],[134.3053,35.5927]]],[[[134.3041,35.5928],[134.304,35.5928],[134.3041,35.5928],[134.3041,35.5928]]],[[[134.3048,35.5928],[134.3048,35.5928],[134.3048,35.5928],[134.3048,35.5928]]],[[[134.3042,35.5928],[134.3041,35.5928],[134.3042,35.5928],[134.3042,35.5928]]],[[[134.3053,35.5928],[134.3053,35.5929],[134.3053,35.5929],[134.3053,35.5928]]],[[[134.3039,35.5928],[134.3039,35.5928],[134.304,35.5929],[134.3039,35.5928]]],[[[134.3038,35.5928],[134.3038,35.5929],[134.3039,35.5928],[134.3038,35.5928]]],[[[134.3062,35.5929],[134.3061,35.5928],[134.3061,35.5929],[134.3062,35.5929]]],[[[134.3049,35.5929],[134.3048,35.5929],[134.3048,35.5929],[134.3049,35.5929]]],[[[134.3055,35.5929],[134.3055,35.5929],[134.3054,35.5929],[134.3055,35.5929]]],[[[134.3061,35.5929],[134.306,35.5929],[134.306,35.593],[134.3061,35.5929]]],[[[134.3042,35.5929],[134.3041,35.593],[134.3042,35.593],[134.3042,35.5929]]],[[[134.3047,35.593],[134.3047,35.593],[134.3048,35.593],[134.3047,35.593]]],[[[134.3053,35.593],[134.3053,35.5931],[134.3054,35.5931],[134.3053,35.593]]],[[[134.3048,35.5931],[134.3048,35.5931],[134.3048,35.5931],[134.3048,35.5931]]],[[[134.3061,35.593],[134.306,35.5931],[134.3061,35.5932],[134.3061,35.593]]],[[[134.3047,35.5932],[134.3044,35.593],[134.3043,35.5933],[134.3047,35.5932]]],[[[134.3063,35.5931],[134.3063,35.5932],[134.3064,35.5932],[134.3063,35.5931]]],[[[134.3051,35.5931],[134.305,35.5931],[134.3051,35.5932],[134.3051,35.5931]]],[[[134.3066,35.5932],[134.3066,35.5932],[134.3066,35.5932],[134.3066,35.5932]]],[[[134.3041,35.5932],[134.304,35.5933],[134.3041,35.5933],[134.3041,35.5932]]],[[[134.3047,35.5933],[134.3048,35.5933],[134.3047,35.5933],[134.3047,35.5933]]],[[[134.3039,35.5933],[134.3039,35.5933],[134.3039,35.5933],[134.3039,35.5933]]],[[[134.3047,35.5934],[134.3046,35.5934],[134.3047,35.5934],[134.3047,35.5934]]],[[[134.3045,35.5934],[134.3046,35.5934],[134.3046,35.5934],[134.3045,35.5934]]],[[[134.3043,35.5935],[134.3044,35.5934],[134.3044,35.5934],[134.3043,35.5935]]],[[[134.307,35.5935],[134.3071,35.5935],[134.307,35.5934],[134.307,35.5935]]],[[[134.3048,35.5935],[134.3047,35.5935],[134.3047,35.5935],[134.3048,35.5935]]],[[[134.3068,35.5934],[134.3067,35.5935],[134.3069,35.5936],[134.3068,35.5934]]],[[[134.3046,35.5935],[134.3046,35.5936],[134.3047,35.5935],[134.3046,35.5935]]],[[[134.3049,35.5935],[134.3049,35.5936],[134.305,35.5936],[134.3049,35.5935]]],[[[134.3046,35.5936],[134.3041,35.5935],[134.3043,35.5938],[134.3046,35.5936]]],[[[134.3052,35.5937],[134.3052,35.5937],[134.3052,35.5937],[134.3052,35.5937]]],[[[134.3065,35.5938],[134.3065,35.5938],[134.3065,35.5938],[134.3065,35.5938]]],[[[134.3053,35.5939],[134.3053,35.5939],[134.3054,35.5939],[134.3053,35.5939]]],[[[134.306,35.5939],[134.306,35.5939],[134.306,35.5939],[134.306,35.5939]]],[[[134.3066,35.5939],[134.3066,35.5939],[134.3066,35.5939],[134.3066,35.5939]]],[[[134.3071,35.5939],[134.307,35.5939],[134.307,35.5941],[134.3071,35.5939]]],[[[134.3034,35.5936],[134.3033,35.5943],[134.3048,35.5939],[134.3043,35.5938],[134.3034,35.5936]]],[[[134.3051,35.594],[134.3051,35.5941],[134.3052,35.5941],[134.3051,35.594]]],[[[134.3072,35.5941],[134.3072,35.5941],[134.3072,35.5941],[134.3072,35.5941]]],[[[134.3062,35.5944],[134.3065,35.5941],[134.3062,35.5942],[134.3062,35.5944]]],[[[134.3053,35.5944],[134.3052,35.5943],[134.3052,35.5944],[134.3053,35.5944]]],[[[134.3047,35.5943],[134.3046,35.5943],[134.3047,35.5945],[134.3047,35.5943]]],[[[134.307,35.5944],[134.307,35.5944],[134.3069,35.5944],[134.307,35.5944]]],[[[134.309,35.5914],[134.309,35.5914],[134.3088,35.5914],[134.309,35.5914]]],[[[134.3221,35.5915],[134.3221,35.5915],[134.3221,35.5916],[134.3221,35.5915]]],[[[134.322,35.5916],[134.322,35.5916],[134.322,35.5917],[134.322,35.5916]]],[[[134.3087,35.5917],[134.3086,35.5917],[134.3087,35.5917],[134.3087,35.5917]]],[[[134.3091,35.5919],[134.3092,35.5915],[134.309,35.5917],[134.3091,35.5919]]],[[[134.3086,35.5918],[134.3086,35.5917],[134.3085,35.592],[134.3086,35.5918]]],[[[134.3089,35.5921],[134.3089,35.5919],[134.3089,35.5919],[134.3089,35.5921]]],[[[134.3092,35.592],[134.3092,35.592],[134.3092,35.592],[134.3092,35.592]]],[[[134.3229,35.5918],[134.3222,35.5919],[134.3227,35.5922],[134.3229,35.5918]]],[[[134.3094,35.5921],[134.3095,35.592],[134.3094,35.592],[134.3094,35.5921]]],[[[134.3092,35.5922],[134.3092,35.5921],[134.3092,35.592],[134.3092,35.5922]]],[[[134.3091,35.5922],[134.3091,35.5922],[134.3091,35.5922],[134.3091,35.5922]]],[[[134.3094,35.5922],[134.3093,35.5922],[134.3093,35.5922],[134.3094,35.5922]]],[[[134.3094,35.5922],[134.3094,35.5922],[134.3094,35.5923],[134.3094,35.5922]]],[[[134.323,35.5922],[134.323,35.5923],[134.323,35.5923],[134.323,35.5922]]],[[[134.3087,35.5924],[134.3088,35.5924],[134.3087,35.5922],[134.3087,35.5924]]],[[[134.3091,35.5923],[134.309,35.5924],[134.3091,35.5925],[134.3091,35.5923]]],[[[134.3096,35.5925],[134.3097,35.5925],[134.3096,35.5924],[134.3096,35.5925]]],[[[134.3094,35.5927],[134.3094,35.5924],[134.3094,35.5924],[134.3094,35.5927]]],[[[134.3103,35.5928],[134.3102,35.5928],[134.3103,35.5928],[134.3103,35.5928]]],[[[134.3103,35.5929],[134.3102,35.5929],[134.3103,35.5929],[134.3103,35.5929]]],[[[134.3102,35.5929],[134.3102,35.593],[134.3103,35.593],[134.3102,35.5929]]],[[[134.3185,35.5934],[134.3185,35.5934],[134.3184,35.5934],[134.3185,35.5934]]],[[[134.3113,35.5935],[134.3113,35.5935],[134.3113,35.5935],[134.3113,35.5935]]],[[[134.3112,35.5936],[134.3112,35.5937],[134.3113,35.5937],[134.3112,35.5936]]],[[[134.3119,35.5939],[134.3119,35.5938],[134.3118,35.5939],[134.3119,35.5939]]],[[[134.3356,35.5943],[134.3361,35.5937],[134.3358,35.5937],[134.3356,35.5943]]],[[[134.3372,35.5943],[134.3373,35.5943],[134.3374,35.5942],[134.3372,35.5943]]],[[[134.3371,35.5945],[134.337,35.5945],[134.337,35.5945],[134.3371,35.5945]]],[[[134.3371,35.5953],[134.3371,35.5953],[134.3371,35.5953],[134.3371,35.5953]]],[[[134.337,35.5953],[134.3371,35.5953],[134.337,35.5953],[134.337,35.5953]]],[[[134.3373,35.5953],[134.3372,35.5953],[134.3373,35.5954],[134.3373,35.5953]]],[[[134.3373,35.5956],[134.3375,35.5954],[134.3373,35.5954],[134.3373,35.5956]]],[[[134.3379,35.5956],[134.338,35.5956],[134.338,35.5956],[134.3379,35.5956]]],[[[134.3376,35.5957],[134.3376,35.5957],[134.3376,35.5957],[134.3376,35.5957]]],[[[134.3085,35.5958],[134.3086,35.5958],[134.3087,35.5958],[134.3085,35.5958]]],[[[134.32,35.5962],[134.32,35.5962],[134.3197,35.5962],[134.32,35.5962]]],[[[134.3194,35.5966],[134.3195,35.5966],[134.3195,35.5966],[134.3194,35.5966]]],[[[134.3386,35.597],[134.3386,35.597],[134.3387,35.597],[134.3386,35.597]]],[[[134.31,35.5976],[134.3099,35.5976],[134.31,35.5976],[134.31,35.5976]]],[[[134.3378,35.5976],[134.3378,35.5977],[134.3378,35.5977],[134.3378,35.5976]]],[[[134.32,35.5983],[134.3201,35.5981],[134.3176,35.5971],[134.32,35.5983]]],[[[134.31,35.5977],[134.3095,35.5975],[134.3098,35.5979],[134.31,35.5977]]],[[[134.3103,35.5979],[134.3103,35.5979],[134.3102,35.5979],[134.3103,35.5979]]],[[[134.3097,35.5979],[134.3097,35.598],[134.3097,35.598],[134.3097,35.5979]]],[[[134.3099,35.598],[134.3098,35.5981],[134.3099,35.5981],[134.3099,35.598]]],[[[134.31,35.5985],[134.31,35.5984],[134.3099,35.5984],[134.31,35.5985]]],[[[134.3382,35.5996],[134.3382,35.5997],[134.3382,35.5997],[134.3382,35.5996]]],[[[134.3377,35.6003],[134.3377,35.6003],[134.3377,35.6003],[134.3377,35.6003]]],[[[134.3376,35.6012],[134.3377,35.6013],[134.3377,35.6012],[134.3376,35.6012]]],[[[134.3376,35.6013],[134.3376,35.6014],[134.3377,35.6014],[134.3376,35.6013]]],[[[134.3375,35.6014],[134.3375,35.6014],[134.3376,35.6014],[134.3375,35.6014]]],[[[134.3379,35.6014],[134.3373,35.6016],[134.3375,35.6016],[134.3379,35.6014]]],[[[134.3374,35.6016],[134.3373,35.6016],[134.3373,35.6016],[134.3374,35.6016]]],[[[134.338,35.6018],[134.3379,35.6018],[134.3379,35.6018],[134.338,35.6018]]],[[[134.3387,35.6019],[134.3388,35.6019],[134.3388,35.6019],[134.3387,35.6019]]],[[[134.3381,35.6019],[134.3381,35.6019],[134.3381,35.6019],[134.3381,35.6019]]],[[[134.3382,35.6019],[134.3382,35.6019],[134.3382,35.6019],[134.3382,35.6019]]],[[[134.3383,35.602],[134.3383,35.602],[134.3383,35.6019],[134.3383,35.602]]],[[[134.3381,35.602],[134.3381,35.602],[134.3381,35.602],[134.3381,35.602]]],[[[134.3382,35.602],[134.3382,35.602],[134.3382,35.602],[134.3382,35.602]]],[[[134.3379,35.602],[134.338,35.602],[134.3379,35.602],[134.3379,35.602]]],[[[134.3386,35.6021],[134.3385,35.6022],[134.3386,35.6022],[134.3386,35.6021]]],[[[134.3387,35.6022],[134.3387,35.6022],[134.3387,35.6022],[134.3387,35.6022]]],[[[134.3387,35.6026],[134.3387,35.6026],[134.3387,35.6025],[134.3387,35.6026]]],[[[134.3383,35.6068],[134.3383,35.6067],[134.3383,35.6067],[134.3383,35.6068]]],[[[134.3388,35.5967],[134.3388,35.5967],[134.3388,35.5967],[134.3388,35.5967]]],[[[134.3398,35.5971],[134.3398,35.5971],[134.3399,35.5972],[134.3398,35.5971]]],[[[134.3399,35.5973],[134.3399,35.5973],[134.3399,35.5972],[134.3399,35.5973]]],[[[134.3397,35.5973],[134.3398,35.5973],[134.3397,35.5973],[134.3397,35.5973]]],[[[134.34,35.5974],[134.3399,35.5974],[134.3399,35.5976],[134.34,35.5974]]],[[[134.3397,35.5975],[134.3398,35.5975],[134.3397,35.5975],[134.3397,35.5975]]],[[[134.3405,35.5984],[134.3405,35.5984],[134.3405,35.5984],[134.3405,35.5984]]],[[[134.3401,35.5987],[134.3401,35.5987],[134.3401,35.5987],[134.3401,35.5987]]],[[[134.3402,35.5987],[134.3402,35.5987],[134.3402,35.5987],[134.3402,35.5987]]],[[[134.3399,35.5988],[134.3399,35.5989],[134.34,35.5989],[134.3399,35.5988]]],[[[134.3391,35.5997],[134.3391,35.5997],[134.3391,35.5996],[134.3391,35.5997]]],[[[134.3388,35.6018],[134.3388,35.6018],[134.3388,35.6018],[134.3388,35.6018]]],[[[134.3388,35.6019],[134.3389,35.6019],[134.3389,35.6018],[134.3388,35.6019]]],[[[134.3389,35.6019],[134.3389,35.6019],[134.3388,35.6019],[134.3389,35.6019]]],[[[134.3389,35.602],[134.3389,35.602],[134.3389,35.6019],[134.3389,35.602]]],[[[134.3389,35.6021],[134.3388,35.6021],[134.3388,35.6021],[134.3389,35.6021]]],[[[134.3388,35.6021],[134.3388,35.6021],[134.3387,35.6022],[134.3388,35.6021]]],[[[134.3392,35.6023],[134.3392,35.6023],[134.3392,35.6024],[134.3392,35.6023]]],[[[134.3398,35.6024],[134.3398,35.6024],[134.3398,35.6024],[134.3398,35.6024]]],[[[134.3397,35.6024],[134.3397,35.6024],[134.3397,35.6024],[134.3397,35.6024]]],[[[134.3393,35.6024],[134.3393,35.6025],[134.3393,35.6025],[134.3393,35.6024]]],[[[134.3398,35.6025],[134.3397,35.6025],[134.3397,35.6025],[134.3398,35.6025]]],[[[134.3388,35.6025],[134.3387,35.6025],[134.3389,35.6026],[134.3388,35.6025]]],[[[134.3405,35.6028],[134.3406,35.6028],[134.3406,35.6028],[134.3405,35.6028]]],[[[134.3406,35.6028],[134.3405,35.6028],[134.3405,35.6028],[134.3406,35.6028]]],[[[134.3403,35.6028],[134.3402,35.6029],[134.3403,35.6029],[134.3403,35.6028]]],[[[134.3403,35.6032],[134.3404,35.6031],[134.3403,35.6031],[134.3403,35.6032]]],[[[134.3405,35.6032],[134.3404,35.6032],[134.3405,35.6032],[134.3405,35.6032]]],[[[134.3405,35.6034],[134.3404,35.6034],[134.3404,35.6034],[134.3405,35.6034]]],[[[134.34,35.6034],[134.3399,35.6034],[134.34,35.6034],[134.34,35.6034]]],[[[134.3399,35.6036],[134.3399,35.6035],[134.3399,35.6035],[134.3399,35.6036]]],[[[134.3403,35.6037],[134.3405,35.6035],[134.3395,35.6038],[134.3403,35.6037]]],[[[134.3405,35.6036],[134.3405,35.6037],[134.3406,35.6037],[134.3405,35.6036]]],[[[134.3408,35.6038],[134.3409,35.6038],[134.3409,35.6037],[134.3408,35.6038]]],[[[134.3407,35.6042],[134.3407,35.6042],[134.3407,35.6042],[134.3407,35.6042]]],[[[134.3404,35.6045],[134.3405,35.6046],[134.3405,35.6046],[134.3404,35.6045]]],[[[134.3404,35.6047],[134.3404,35.6046],[134.3403,35.6047],[134.3404,35.6047]]],[[[134.3401,35.6049],[134.3401,35.6048],[134.34,35.6049],[134.3401,35.6049]]],[[[134.3391,35.6051],[134.3386,35.6053],[134.3388,35.6054],[134.3391,35.6051]]],[[[134.3425,35.6073],[134.3426,35.6073],[134.3426,35.6073],[134.3425,35.6073]]],[[[134.3428,35.6073],[134.3428,35.6073],[134.3428,35.6073],[134.3428,35.6073]]],[[[134.3425,35.6073],[134.3425,35.6073],[134.3425,35.6073],[134.3425,35.6073]]],[[[134.3429,35.6074],[134.343,35.6073],[134.3429,35.6073],[134.3429,35.6074]]],[[[134.3426,35.6078],[134.3427,35.6078],[134.3428,35.6075],[134.3426,35.6078]]],[[[134.3393,35.6077],[134.3391,35.6078],[134.3393,35.6079],[134.3393,35.6077]]],[[[134.3436,35.6078],[134.3435,35.6078],[134.3435,35.6078],[134.3436,35.6078]]],[[[134.3423,35.6078],[134.342,35.6076],[134.3419,35.6081],[134.3423,35.6078]]],[[[134.3411,35.6077],[134.3409,35.608],[134.3411,35.608],[134.3411,35.6077]]],[[[134.3417,35.6079],[134.3415,35.6076],[134.3413,35.6082],[134.3417,35.6079]]],[[[134.3391,35.6079],[134.3391,35.6079],[134.3391,35.6079],[134.3391,35.6079]]],[[[134.3392,35.608],[134.3393,35.608],[134.3393,35.6079],[134.3392,35.608]]],[[[134.3424,35.608],[134.3424,35.608],[134.3424,35.608],[134.3424,35.608]]],[[[134.3411,35.608],[134.3411,35.6081],[134.3411,35.6081],[134.3411,35.608]]],[[[134.3392,35.608],[134.3391,35.6081],[134.3391,35.6081],[134.3392,35.608]]],[[[134.3411,35.608],[134.341,35.6081],[134.3411,35.6081],[134.3411,35.608]]],[[[134.341,35.6081],[134.341,35.6081],[134.3409,35.608],[134.341,35.6081]]],[[[134.3421,35.6082],[134.3422,35.6083],[134.3422,35.6082],[134.3421,35.6082]]],[[[134.342,35.6083],[134.342,35.6083],[134.3421,35.6083],[134.342,35.6083]]],[[[134.3413,35.6083],[134.3412,35.6083],[134.3413,35.6084],[134.3413,35.6083]]],[[[134.3414,35.6083],[134.3413,35.6083],[134.3413,35.6084],[134.3414,35.6083]]],[[[134.342,35.6083],[134.3419,35.6083],[134.342,35.6084],[134.342,35.6083]]],[[[134.3397,35.6084],[134.3396,35.6083],[134.3396,35.6084],[134.3397,35.6084]]],[[[134.3404,35.6085],[134.3407,35.6082],[134.3404,35.6083],[134.3404,35.6085]]],[[[134.3436,35.6085],[134.3436,35.6084],[134.3436,35.6084],[134.3436,35.6085]]],[[[134.3436,35.6085],[134.3436,35.6085],[134.3436,35.6085],[134.3436,35.6085]]],[[[134.3435,35.6088],[134.3434,35.6088],[134.3435,35.6089],[134.3435,35.6088]]],[[[134.355,35.6009],[134.355,35.6009],[134.355,35.601],[134.355,35.6009]]],[[[134.3513,35.601],[134.3513,35.601],[134.3513,35.601],[134.3513,35.601]]],[[[134.3548,35.601],[134.3547,35.601],[134.3548,35.601],[134.3548,35.601]]],[[[134.3549,35.601],[134.3549,35.6011],[134.3549,35.601],[134.3549,35.601]]],[[[134.3512,35.601],[134.3511,35.6011],[134.3511,35.6011],[134.3512,35.601]]],[[[134.3534,35.6011],[134.3534,35.6011],[134.3534,35.6011],[134.3534,35.6011]]],[[[134.3511,35.6012],[134.3512,35.6012],[134.3512,35.6012],[134.3511,35.6012]]],[[[134.353,35.6012],[134.3529,35.6012],[134.3529,35.6012],[134.353,35.6012]]],[[[134.3545,35.6012],[134.3545,35.6012],[134.3546,35.6013],[134.3545,35.6012]]],[[[134.3545,35.6012],[134.3544,35.6012],[134.3545,35.6013],[134.3545,35.6012]]],[[[134.3509,35.6013],[134.351,35.6012],[134.3509,35.6012],[134.3509,35.6013]]],[[[134.3549,35.6013],[134.3548,35.6013],[134.3548,35.6013],[134.3549,35.6013]]],[[[134.3512,35.6013],[134.3513,35.6013],[134.3513,35.6013],[134.3512,35.6013]]],[[[134.3537,35.6013],[134.3537,35.6013],[134.3537,35.6013],[134.3537,35.6013]]],[[[134.353,35.6013],[134.3529,35.6013],[134.353,35.6013],[134.353,35.6013]]],[[[134.3529,35.6014],[134.3529,35.6014],[134.3529,35.6014],[134.3529,35.6014]]],[[[134.3512,35.6014],[134.3512,35.6015],[134.3513,35.6014],[134.3512,35.6014]]],[[[134.3508,35.6014],[134.3508,35.6014],[134.3509,35.6015],[134.3508,35.6014]]],[[[134.3529,35.6015],[134.3529,35.6015],[134.3529,35.6014],[134.3529,35.6015]]],[[[134.3509,35.6014],[134.3509,35.6015],[134.3509,35.6015],[134.3509,35.6014]]],[[[134.3545,35.6015],[134.3545,35.6015],[134.3545,35.6015],[134.3545,35.6015]]],[[[134.3539,35.6015],[134.3539,35.6015],[134.3539,35.6015],[134.3539,35.6015]]],[[[134.3545,35.6015],[134.3545,35.6015],[134.3545,35.6015],[134.3545,35.6015]]],[[[134.353,35.6015],[134.353,35.6016],[134.3531,35.6015],[134.353,35.6015]]],[[[134.3511,35.6015],[134.351,35.6015],[134.3511,35.6016],[134.3511,35.6015]]],[[[134.3528,35.6016],[134.3528,35.6015],[134.3528,35.6015],[134.3528,35.6016]]],[[[134.3544,35.6015],[134.3544,35.6016],[134.3545,35.6016],[134.3544,35.6015]]],[[[134.3531,35.6016],[134.3531,35.6015],[134.353,35.6016],[134.3531,35.6016]]],[[[134.3511,35.6016],[134.3511,35.6016],[134.3511,35.6016],[134.3511,35.6016]]],[[[134.3532,35.6017],[134.3532,35.6017],[134.3531,35.6017],[134.3532,35.6017]]],[[[134.3529,35.6016],[134.3526,35.6018],[134.3528,35.6018],[134.3529,35.6016]]],[[[134.3507,35.6017],[134.3507,35.6017],[134.3507,35.6017],[134.3507,35.6017]]],[[[134.3528,35.602],[134.3528,35.602],[134.3528,35.602],[134.3528,35.602]]],[[[134.3529,35.6019],[134.3524,35.6019],[134.3526,35.6022],[134.3527,35.602],[134.3529,35.6019]]],[[[134.3515,35.602],[134.3514,35.602],[134.3514,35.6021],[134.3515,35.602]]],[[[134.3529,35.602],[134.3529,35.6021],[134.353,35.6021],[134.3529,35.602]]],[[[134.3516,35.602],[134.3516,35.6021],[134.3517,35.6021],[134.3516,35.602]]],[[[134.3528,35.6021],[134.3528,35.602],[134.3527,35.6021],[134.3528,35.6021]]],[[[134.3519,35.602],[134.3517,35.6021],[134.3519,35.6022],[134.3519,35.602]]],[[[134.3514,35.6021],[134.3513,35.6021],[134.3513,35.6021],[134.3514,35.6021]]],[[[134.3514,35.6021],[134.3513,35.6021],[134.3514,35.6021],[134.3514,35.6021]]],[[[134.3529,35.6023],[134.3529,35.6022],[134.3524,35.6024],[134.3529,35.6023]]],[[[134.353,35.6024],[134.353,35.6023],[134.353,35.6023],[134.353,35.6024]]],[[[134.3525,35.6025],[134.3524,35.6026],[134.3525,35.6026],[134.3525,35.6025]]],[[[134.3527,35.6024],[134.3526,35.6026],[134.3527,35.6026],[134.3527,35.6024]]],[[[134.3522,35.6025],[134.3522,35.6026],[134.3523,35.6026],[134.3522,35.6025]]],[[[134.3527,35.6027],[134.3527,35.6027],[134.3527,35.6027],[134.3527,35.6027]]],[[[134.345,35.605],[134.345,35.6052],[134.345,35.6052],[134.345,35.605]]],[[[134.3448,35.6052],[134.3448,35.6052],[134.3448,35.6052],[134.3448,35.6052]]],[[[134.3451,35.6053],[134.345,35.6053],[134.3451,35.6054],[134.3451,35.6053]]],[[[134.345,35.6054],[134.345,35.6054],[134.3451,35.6054],[134.345,35.6054]]],[[[134.3463,35.6078],[134.3462,35.6077],[134.3462,35.6077],[134.3463,35.6078]]],[[[134.3461,35.608],[134.3461,35.608],[134.3461,35.608],[134.3461,35.608]]],[[[134.3438,35.6081],[134.3439,35.6081],[134.3439,35.6081],[134.3438,35.6081]]],[[[134.3441,35.6083],[134.3441,35.6083],[134.3441,35.6083],[134.3441,35.6083]]],[[[134.3438,35.6083],[134.3438,35.6083],[134.3438,35.6083],[134.3438,35.6083]]],[[[134.3442,35.6084],[134.3442,35.6083],[134.3442,35.6083],[134.3442,35.6084]]],[[[134.3458,35.6084],[134.3458,35.6084],[134.3458,35.6085],[134.3458,35.6084]]],[[[134.3442,35.6085],[134.3442,35.6085],[134.3442,35.6086],[134.3442,35.6085]]],[[[134.3443,35.6086],[134.3444,35.6086],[134.3444,35.6085],[134.3443,35.6086]]],[[[134.344,35.6086],[134.3439,35.6087],[134.3439,35.6088],[134.344,35.6086]]],[[[134.3457,35.6087],[134.3457,35.6087],[134.3457,35.6087],[134.3457,35.6087]]],[[[134.345,35.6092],[134.345,35.6092],[134.345,35.6091],[134.345,35.6092]]],[[[134.3453,35.6094],[134.3453,35.6094],[134.3453,35.6094],[134.3453,35.6094]]],[[[134.3453,35.6095],[134.3453,35.6096],[134.3454,35.6095],[134.3453,35.6095]]],[[[134.3451,35.6095],[134.3451,35.6095],[134.3451,35.6096],[134.3451,35.6095]]],[[[134.4169,35.5629],[134.4218,35.5626],[134.4223,35.5566],[134.4251,35.5519],[134.4209,35.5447],[134.4256,35.5418],[134.4227,35.5375],[134.4233,35.5346],[134.42,35.5332],[134.4203,35.5274],[134.4174,35.525],[134.4165,35.5214],[134.4131,35.5176],[134.4127,35.5149],[134.4155,35.5135],[134.4185,35.5141],[134.4244,35.5087],[134.4276,35.5087],[134.4309,35.5025],[134.4282,35.5],[134.4275,35.4964],[134.4339,35.4843],[134.4357,35.4783],[134.4381,35.4761],[134.4373,35.4751],[134.4379,35.474],[134.4344,35.4708],[134.4302,35.4756],[134.4308,35.4784],[134.428,35.48],[134.4271,35.4861],[134.426,35.4873],[134.4221,35.4867],[134.4187,35.4887],[134.4136,35.4898],[134.4085,35.4868],[134.4035,35.488],[134.4004,35.4901],[134.4003,35.4922],[134.397,35.4947],[134.397,35.496],[134.3933,35.5006],[134.3873,35.4981],[134.3853,35.5002],[134.3764,35.5004],[134.3747,35.499],[134.372,35.4925],[134.3677,35.4898],[134.3654,35.4897],[134.363,35.4863],[134.3608,35.486],[134.3612,35.484],[134.3602,35.4833],[134.3571,35.4828],[134.3566,35.4816],[134.3527,35.482],[134.3504,35.4779],[134.3455,35.4778],[134.3389,35.4793],[134.3359,35.4782],[134.3308,35.4829],[134.3292,35.4831],[134.3282,35.4852],[134.3199,35.4863],[134.3204,35.4898],[134.3187,35.4912],[134.3207,35.4931],[134.3217,35.4964],[134.3243,35.4976],[134.3235,35.5025],[134.3254,35.5058],[134.3245,35.5073],[134.3267,35.51],[134.323,35.513],[134.3255,35.5185],[134.3248,35.5198],[134.3275,35.5231],[134.3271,35.5256],[134.3288,35.5278],[134.3279,35.5316],[134.3267,35.5322],[134.3275,35.5335],[134.3176,35.5356],[134.3169,35.5384],[134.3108,35.5379],[134.308,35.539],[134.3061,35.5471],[134.2994,35.5487],[134.2975,35.551],[134.2971,35.5528],[134.2982,35.5536],[134.2962,35.5561],[134.2952,35.5616],[134.2915,35.5622],[134.2866,35.5679],[134.282,35.5674],[134.2783,35.5715],[134.2778,35.5729],[134.2791,35.5727],[134.2826,35.5747],[134.2883,35.5733],[134.2898,35.5744],[134.2909,35.5762],[134.2859,35.5791],[134.2877,35.5813],[134.2864,35.5794],[134.2897,35.5775],[134.2907,35.5788],[134.2899,35.5794],[134.2915,35.5797],[134.2904,35.581],[134.2886,35.5803],[134.2895,35.5812],[134.2968,35.5801],[134.297,35.5809],[134.2934,35.5815],[134.2916,35.5819],[134.2909,35.5833],[134.2917,35.5819],[134.2971,35.5813],[134.292,35.5827],[134.293,35.5837],[134.292,35.5846],[134.2901,35.5833],[134.2857,35.5825],[134.2901,35.5835],[134.2901,35.5848],[134.2915,35.585],[134.291,35.5859],[134.2922,35.5861],[134.2924,35.5865],[134.2911,35.5877],[134.2924,35.5871],[134.2927,35.5874],[134.2923,35.5881],[134.2928,35.5876],[134.2937,35.5878],[134.2942,35.5883],[134.2939,35.5894],[134.295,35.5892],[134.2953,35.5894],[134.2954,35.5896],[134.2955,35.5897],[134.2959,35.5898],[134.2961,35.5896],[134.2962,35.5896],[134.2964,35.5898],[134.2966,35.5896],[134.2979,35.5902],[134.2985,35.5896],[134.2992,35.5903],[134.2996,35.5898],[134.3,35.59],[134.3003,35.5896],[134.3008,35.5895],[134.3008,35.5893],[134.3022,35.5894],[134.303,35.5904],[134.3024,35.5912],[134.3032,35.5914],[134.3019,35.5919],[134.3042,35.5921],[134.3046,35.593],[134.3051,35.5925],[134.3055,35.5928],[134.3054,35.5926],[134.3057,35.592],[134.3071,35.5913],[134.3073,35.5917],[134.3075,35.5912],[134.3083,35.5913],[134.3083,35.5915],[134.3089,35.5913],[134.3093,35.5914],[134.3096,35.5924],[134.3104,35.5918],[134.3105,35.5936],[134.3116,35.5929],[134.3115,35.5938],[134.3118,35.5936],[134.3141,35.5942],[134.3166,35.5965],[134.3159,35.5954],[134.3169,35.5959],[134.3191,35.596],[134.3158,35.5953],[134.3128,35.5932],[134.3157,35.5928],[134.3161,35.5943],[134.3175,35.5933],[134.3172,35.5925],[134.3189,35.5934],[134.319,35.5922],[134.3196,35.5926],[134.3192,35.5937],[134.3183,35.5939],[134.3187,35.5948],[134.3198,35.5926],[134.3196,35.5921],[134.3236,35.5906],[134.3317,35.5912],[134.3371,35.5934],[134.3367,35.5946],[134.3374,35.5938],[134.3381,35.5956],[134.3372,35.597],[134.3392,35.5964],[134.3389,35.5973],[134.3398,35.597],[134.3407,35.5979],[134.3407,35.5986],[134.3395,35.5997],[134.3374,35.6005],[134.3381,35.6013],[134.3376,35.6019],[134.3383,35.6015],[134.3385,35.6019],[134.3388,35.6016],[134.3407,35.6026],[134.3407,35.6028],[134.3403,35.603],[134.3407,35.6032],[134.3405,35.6035],[134.3408,35.6036],[134.341,35.6038],[134.3409,35.6044],[134.3384,35.6063],[134.3397,35.6082],[134.3421,35.6074],[134.3424,35.6078],[134.3422,35.6073],[134.3433,35.607],[134.3454,35.6091],[134.346,35.6075],[134.3474,35.6065],[134.346,35.6074],[134.3445,35.6066],[134.3448,35.6058],[134.3466,35.606],[134.3447,35.6055],[134.3446,35.6045],[134.3477,35.6013],[134.3509,35.6005],[134.3517,35.6013],[134.3512,35.6018],[134.3518,35.6019],[134.3532,35.601],[134.3537,35.601],[134.3542,35.6015],[134.3543,35.6012],[134.3558,35.6005],[134.3589,35.6004],[134.3663,35.602],[134.3705,35.6048],[134.371,35.6061],[134.3703,35.6075],[134.3695,35.608],[134.37,35.609],[134.3695,35.6094],[134.3697,35.6097],[134.3693,35.6106],[134.3697,35.6112],[134.3695,35.6117],[134.3692,35.6119],[134.3697,35.6118],[134.3695,35.612],[134.3696,35.6126],[134.3695,35.6127],[134.3701,35.6136],[134.3699,35.6142],[134.3699,35.6146],[134.3713,35.6087],[134.3748,35.6082],[134.3798,35.6041],[134.382,35.6032],[134.3869,35.6039],[134.3895,35.602],[134.393,35.6015],[134.3931,35.5981],[134.4009,35.5956],[134.4034,35.5934],[134.4052,35.5898],[134.4082,35.5892],[134.4083,35.5873],[134.4056,35.5844],[134.4071,35.5772],[134.405,35.5705],[134.41,35.5628],[134.4146,35.5641],[134.4169,35.5629]]],[[[134.3568,35.6005],[134.3565,35.6006],[134.3569,35.6008],[134.3568,35.6005]]],[[[134.3558,35.6006],[134.3558,35.6007],[134.3559,35.6007],[134.3558,35.6006]]],[[[134.3566,35.6007],[134.3561,35.6006],[134.3561,35.601],[134.3566,35.6007]]],[[[134.3559,35.6009],[134.3559,35.6009],[134.3558,35.6009],[134.3559,35.6009]]],[[[134.3551,35.6009],[134.3551,35.601],[134.3551,35.601],[134.3551,35.6009]]],[[[134.3555,35.601],[134.3555,35.601],[134.3555,35.601],[134.3555,35.601]]],[[[134.3551,35.601],[134.3551,35.601],[134.3551,35.601],[134.3551,35.601]]],[[[134.3563,35.601],[134.3563,35.6011],[134.3563,35.6011],[134.3563,35.601]]],[[[134.3559,35.6013],[134.3559,35.6013],[134.3562,35.6014],[134.3559,35.6013]]],[[[134.3562,35.6014],[134.3563,35.6014],[134.3563,35.6014],[134.3562,35.6014]]],[[[134.3702,35.6058],[134.3702,35.6057],[134.3702,35.6057],[134.3702,35.6058]]],[[[134.3705,35.6058],[134.3705,35.6058],[134.3706,35.6058],[134.3705,35.6058]]],[[[134.37,35.6058],[134.3699,35.6058],[134.3699,35.6058],[134.37,35.6058]]],[[[134.3701,35.6059],[134.3702,35.6058],[134.3701,35.6058],[134.3701,35.6059]]],[[[134.3705,35.6058],[134.3702,35.6058],[134.3703,35.606],[134.3705,35.6058]]],[[[134.3706,35.6059],[134.3705,35.6059],[134.3706,35.6059],[134.3706,35.6059]]],[[[134.3699,35.6059],[134.3698,35.6059],[134.3698,35.606],[134.3699,35.6059]]],[[[134.3708,35.606],[134.3708,35.606],[134.3708,35.606],[134.3708,35.606]]],[[[134.3707,35.606],[134.3707,35.606],[134.3708,35.606],[134.3707,35.606]]],[[[134.37,35.606],[134.37,35.6061],[134.3701,35.606],[134.37,35.606]]],[[[134.3697,35.6061],[134.3698,35.6061],[134.3698,35.606],[134.3697,35.6061]]],[[[134.3699,35.6061],[134.37,35.6061],[134.37,35.606],[134.3699,35.6061]]],[[[134.3706,35.6061],[134.3706,35.6061],[134.3706,35.6061],[134.3706,35.6061]]],[[[134.3696,35.6061],[134.3697,35.6061],[134.3697,35.6061],[134.3696,35.6061]]],[[[134.3707,35.6061],[134.3707,35.6062],[134.3707,35.6062],[134.3707,35.6061]]],[[[134.3698,35.6062],[134.3699,35.6062],[134.3699,35.6062],[134.3698,35.6062]]],[[[134.3704,35.6063],[134.3705,35.6063],[134.3704,35.6062],[134.3704,35.6063]]],[[[134.3696,35.6064],[134.3695,35.6063],[134.3695,35.6064],[134.3696,35.6064]]],[[[134.3707,35.6064],[134.3707,35.6064],[134.3707,35.6064],[134.3707,35.6064]]],[[[134.3706,35.6065],[134.3706,35.6065],[134.3707,35.6065],[134.3706,35.6065]]],[[[134.3705,35.6065],[134.3705,35.6065],[134.3705,35.6065],[134.3705,35.6065]]],[[[134.3703,35.6067],[134.3702,35.6069],[134.3702,35.6069],[134.3703,35.6067]]],[[[134.3701,35.6069],[134.3701,35.6069],[134.3701,35.6069],[134.3701,35.6069]]],[[[134.37,35.6069],[134.3699,35.607],[134.37,35.607],[134.37,35.6069]]],[[[134.3678,35.6071],[134.3678,35.6071],[134.368,35.6071],[134.3678,35.6071]]],[[[134.3703,35.6071],[134.3702,35.6072],[134.3703,35.6072],[134.3703,35.6071]]],[[[134.3701,35.6073],[134.3702,35.6073],[134.3702,35.6072],[134.3701,35.6073]]],[[[134.3693,35.6083],[134.3694,35.6084],[134.3695,35.6083],[134.3693,35.6083]]],[[[134.3689,35.6087],[134.3692,35.6088],[134.3691,35.6087],[134.3689,35.6087]]],[[[134.3694,35.6088],[134.3694,35.6088],[134.3695,35.6088],[134.3694,35.6088]]],[[[134.3691,35.6088],[134.3691,35.6089],[134.3692,35.6088],[134.3691,35.6088]]],[[[134.3696,35.6089],[134.3695,35.609],[134.3696,35.609],[134.3696,35.6089]]],[[[134.3697,35.6089],[134.3696,35.6091],[134.3696,35.6091],[134.3697,35.6089]]],[[[134.3694,35.6091],[134.3694,35.6091],[134.3694,35.6092],[134.3694,35.6091]]],[[[134.369,35.6091],[134.369,35.6092],[134.369,35.6092],[134.369,35.6091]]],[[[134.369,35.6093],[134.369,35.6093],[134.369,35.6093],[134.369,35.6093]]],[[[134.3695,35.6098],[134.3695,35.6099],[134.3695,35.6099],[134.3695,35.6098]]],[[[134.3693,35.61],[134.3693,35.61],[134.3693,35.61],[134.3693,35.61]]],[[[134.3692,35.6105],[134.3693,35.6105],[134.3693,35.6105],[134.3692,35.6105]]],[[[134.3695,35.6114],[134.3693,35.6114],[134.3693,35.6115],[134.3695,35.6114]]],[[[134.3693,35.612],[134.3693,35.612],[134.3692,35.6121],[134.3693,35.612]]],[[[134.3696,35.6125],[134.3695,35.6125],[134.3695,35.6125],[134.3696,35.6125]]],[[[134.3696,35.6131],[134.3696,35.613],[134.3696,35.6131],[134.3696,35.6131]]],[[[134.3694,35.6131],[134.3693,35.6131],[134.3693,35.6131],[134.3694,35.6131]]],[[[134.3693,35.6131],[134.3693,35.6132],[134.3693,35.6132],[134.3693,35.6131]]],[[[134.3695,35.6133],[134.3695,35.6133],[134.3695,35.6133],[134.3695,35.6133]]],[[[134.3694,35.6133],[134.3694,35.6133],[134.3694,35.6133],[134.3694,35.6133]]],[[[134.3699,35.6135],[134.3699,35.6135],[134.3699,35.6135],[134.3699,35.6135]]],[[[134.3699,35.6135],[134.3698,35.6136],[134.3698,35.6136],[134.3699,35.6135]]],[[[134.37,35.6136],[134.37,35.6136],[134.37,35.6136],[134.37,35.6136]]],[[[134.37,35.6137],[134.3699,35.6138],[134.3699,35.6138],[134.37,35.6137]]]]}},{"type":"Feature","properties":{"code":"31370","name":"湯梨浜町","pref_code":"31","pref":"鳥取県"},"geometry":{"type":"MultiPolygon","coordinates":[[[[133.9542,35.4885],[133.9559,35.486],[133.9542,35.4855],[133.9544,35.4828],[133.9523,35.4798],[133.9518,35.4749],[133.9484,35.4692],[133.946,35.4618],[133.948,35.4552],[133.9522,35.4541],[133.9537,35.4508],[133.9517,35.4506],[133.9498,35.4441],[133.9474,35.4413],[133.9482,35.437],[133.9517,35.4359],[133.9507,35.4354],[133.9499,35.4309],[133.9514,35.4282],[133.9436,35.4317],[133.9412,35.43],[133.933,35.4303],[133.9214,35.4267],[133.9093,35.4287],[133.908,35.4269],[133.9037,35.4263],[133.902,35.4238],[133.8995,35.4235],[133.8986,35.4222],[133.8962,35.422],[133.8935,35.4237],[133.8905,35.4229],[133.8875,35.4235],[133.8874,35.4273],[133.8822,35.4302],[133.8812,35.4325],[133.878,35.4328],[133.8741,35.4353],[133.8708,35.4352],[133.8678,35.4406],[133.8651,35.4404],[133.864,35.4419],[133.8605,35.4432],[133.8617,35.4511],[133.8632,35.4523],[133.8628,35.4591],[133.8658,35.4606],[133.8667,35.4636],[133.8653,35.4671],[133.8658,35.4717],[133.8561,35.4811],[133.8547,35.4801],[133.8546,35.4765],[133.8521,35.4761],[133.8507,35.4775],[133.8466,35.4784],[133.8475,35.4804],[133.8501,35.4817],[133.8505,35.4833],[133.8491,35.484],[133.8494,35.485],[133.8534,35.4899],[133.852,35.4914],[133.8549,35.4965],[133.8556,35.5045],[133.8741,35.506],[133.8747,35.5064],[133.875,35.5083],[133.8757,35.5093],[133.8752,35.5065],[133.8762,35.5085],[133.8775,35.5086],[133.8764,35.5085],[133.8765,35.5072],[133.8775,35.5074],[133.8771,35.5082],[133.8778,35.507],[133.8835,35.507],[133.8878,35.5091],[133.8906,35.5074],[133.8972,35.5074],[133.9029,35.5104],[133.9062,35.5106],[133.9077,35.5092],[133.91,35.5089],[133.9253,35.51],[133.9333,35.5121],[133.936,35.514],[133.935,35.5152],[133.9367,35.5166],[133.9355,35.5154],[133.9366,35.5142],[133.9383,35.5153],[133.9374,35.5159],[133.9381,35.5166],[133.9388,35.515],[133.9398,35.5166],[133.9375,35.5171],[133.9395,35.5184],[133.9436,35.518],[133.946,35.5194],[133.9527,35.5171],[133.957,35.5182],[133.9598,35.5204],[133.9599,35.5218],[133.9589,35.5214],[133.9596,35.522],[133.9596,35.5224],[133.9601,35.5225],[133.9603,35.5228],[133.9593,35.5251],[133.9596,35.5251],[133.9596,35.5251],[133.9599,35.5252],[133.9597,35.5254],[133.9609,35.5256],[133.9631,35.5228],[133.9652,35.5228],[133.9706,35.5183],[133.9711,35.5127],[133.9685,35.5104],[133.9693,35.5086],[133.9672,35.5058],[133.9646,35.5044],[133.9633,35.5022],[133.9572,35.4992],[133.9562,35.4974],[133.9566,35.4948],[133.9542,35.4885]]],[[[133.8794,35.5079],[133.8796,35.5078],[133.8795,35.5078],[133.8794,35.5079]]],[[[133.8788,35.5089],[133.8789,35.5087],[133.8787,35.5088],[133.8788,35.5089]]],[[[133.9075,35.5095],[133.9076,35.5098],[133.9077,35.5099],[133.9075,35.5095]]],[[[133.9065,35.5104],[133.9066,35.5105],[133.9066,35.5104],[133.9065,35.5104]]],[[[133.9065,35.5105],[133.9065,35.5104],[133.9065,35.5104],[133.9065,35.5105]]],[[[133.9335,35.5169],[133.9337,35.5188],[133.9336,35.5169],[133.9349,35.5153],[133.9335,35.5169]]],[[[133.9433,35.5182],[133.9436,35.5181],[133.9435,35.5181],[133.9433,35.5182]]],[[[133.943,35.5181],[133.943,35.5182],[133.9431,35.5181],[133.943,35.5181]]],[[[133.9428,35.5183],[133.9429,35.5183],[133.9429,35.5182],[133.9428,35.5183]]],[[[133.9418,35.5183],[133.9418,35.5183],[133.9418,35.5183],[133.9418,35.5183]]],[[[133.9378,35.5183],[133.9351,35.5183],[133.9351,35.5184],[133.9378,35.5183]]],[[[133.9402,35.5185],[133.9403,35.5185],[133.9402,35.5185],[133.9402,35.5185]]],[[[133.9417,35.5185],[133.9417,35.5185],[133.9417,35.5185],[133.9417,35.5185]]],[[[133.9419,35.5185],[133.9418,35.5185],[133.9418,35.5186],[133.9419,35.5185]]],[[[133.9383,35.5186],[133.9384,35.5186],[133.9383,35.5186],[133.9383,35.5186]]],[[[133.9418,35.5186],[133.9418,35.5187],[133.9418,35.5186],[133.9418,35.5186]]],[[[133.9386,35.5187],[133.9386,35.5187],[133.9386,35.5187],[133.9386,35.5187]]],[[[133.9401,35.5187],[133.9401,35.5188],[133.9402,35.5188],[133.9401,35.5187]]],[[[133.939,35.5191],[133.9391,35.5192],[133.9391,35.5191],[133.939,35.5191]]],[[[133.9338,35.5199],[133.9348,35.52],[133.9348,35.5198],[133.9338,35.5199]]],[[[133.9591,35.5203],[133.9592,35.5202],[133.9591,35.5202],[133.9591,35.5203]]],[[[133.9592,35.5203],[133.9592,35.5203],[133.9592,35.5203],[133.9592,35.5203]]],[[[133.9591,35.5217],[133.9591,35.5217],[133.9591,35.5217],[133.9591,35.5217]]],[[[133.9589,35.5217],[133.9589,35.5217],[133.9589,35.5217],[133.9589,35.5217]]],[[[133.9591,35.5217],[133.959,35.5217],[133.959,35.5217],[133.9591,35.5217]]],[[[133.959,35.5218],[133.959,35.5217],[133.9589,35.5217],[133.959,35.5218]]],[[[133.9591,35.5247],[133.9591,35.5247],[133.9591,35.5247],[133.9591,35.5247]]],[[[133.9592,35.5248],[133.9591,35.5248],[133.9592,35.5248],[133.9592,35.5248]]],[[[133.959,35.5251],[133.9589,35.5251],[133.9589,35.5252],[133.959,35.5251]]],[[[133.9592,35.5218],[133.9593,35.5218],[133.9593,35.5218],[133.9592,35.5218]]],[[[133.9593,35.5219],[133.9593,35.5219],[133.9593,35.5219],[133.9593,35.5219]]],[[[133.9594,35.522],[133.9594,35.5219],[133.9594,35.5219],[133.9594,35.522]]],[[[133.9595,35.5221],[133.9595,35.522],[133.9595,35.522],[133.9595,35.5221]]],[[[133.9599,35.5226],[133.9599,35.5226],[133.9599,35.5226],[133.9599,35.5226]]],[[[133.9596,35.5242],[133.9597,35.5242],[133.9597,35.5242],[133.9596,35.5242]]],[[[133.9593,35.5251],[133.9593,35.525],[133.9593,35.525],[133.9593,35.5251]]],[[[133.9596,35.5252],[133.9596,35.5251],[133.9595,35.5251],[133.9596,35.5252]]],[[[133.9597,35.5252],[133.9597,35.5252],[133.9597,35.5251],[133.9597,35.5252]]],[[[133.9595,35.5252],[133.9596,35.5252],[133.9595,35.5252],[133.9595,35.5252]]],[[[133.9597,35.5252],[133.9598,35.5252],[133.9597,35.5252],[133.9597,35.5252]]],[[[133.9593,35.5252],[133.9593,35.5252],[133.9593,35.5252],[133.9593,35.5252]]],[[[133.9593,35.5253],[133.9593,35.5253],[133.9592,35.5253],[133.9593,35.5253]]],[[[133.9597,35.5253],[133.9598,35.5253],[133.9598,35.5253],[133.9597,35.5253]]],[[[133.9598,35.5254],[133.9597,35.5255],[133.96,35.5255],[133.9598,35.5254]]],[[[133.9597,35.5255],[133.9597,35.5255],[133.9597,35.5255],[133.9597,35.5255]]],[[[133.9601,35.5256],[133.96,35.5255],[133.9599,35.5256],[133.9601,35.5256]]],[[[133.9598,35.5256],[133.9597,35.5256],[133.9599,35.5256],[133.9598,35.5256]]],[[[133.9605,35.5256],[133.9605,35.5256],[133.9605,35.5256],[133.9605,35.5256]]],[[[133.9601,35.5256],[133.9601,35.5256],[133.9601,35.5256],[133.9601,35.5256]]],[[[133.9604,35.5256],[133.9602,35.5256],[133.9604,35.5256],[133.9604,35.5256]]],[[[133.9608,35.5258],[133.9608,35.5257],[133.9608,35.5257],[133.9608,35.5258]]],[[[133.9604,35.5258],[133.9605,35.5258],[133.9605,35.5258],[133.9604,35.5258]]],[[[133.9607,35.526],[133.9607,35.526],[133.9607,35.526],[133.9607,35.526]]],[[[133.9607,35.526],[133.9607,35.526],[133.9607,35.526],[133.9607,35.526]]],[[[133.9605,35.5262],[133.9605,35.5262],[133.9605,35.5262],[133.9605,35.5262]]],[[[133.9604,35.5262],[133.9605,35.5262],[133.9604,35.5262],[133.9604,35.5262]]],[[[133.9607,35.5263],[133.9607,35.5263],[133.9607,35.5262],[133.9607,35.5263]]],[[[133.9606,35.5262],[133.9606,35.5263],[133.9606,35.5263],[133.9606,35.5262]]],[[[133.9605,35.5263],[133.9605,35.5263],[133.9605,35.5263],[133.9605,35.5263]]],[[[133.9629,35.5233],[133.9629,35.5233],[133.9629,35.5233],[133.9629,35.5233]]],[[[133.9628,35.5242],[133.9628,35.5242],[133.9628,35.5241],[133.9628,35.5242]]],[[[133.9623,35.5247],[133.9623,35.5247],[133.9623,35.5247],[133.9623,35.5247]]],[[[133.9623,35.5247],[133.9624,35.5247],[133.9623,35.5247],[133.9623,35.5247]]],[[[133.9622,35.5247],[133.9621,35.5247],[133.9621,35.5247],[133.9622,35.5247]]],[[[133.9622,35.5248],[133.9622,35.5248],[133.9622,35.5248],[133.9622,35.5248]]],[[[133.962,35.5248],[133.962,35.5248],[133.962,35.5248],[133.962,35.5248]]],[[[133.9623,35.5249],[133.9623,35.5248],[133.9623,35.5248],[133.9623,35.5249]]],[[[133.962,35.5249],[133.962,35.5249],[133.962,35.5249],[133.962,35.5249]]],[[[133.9624,35.525],[133.9624,35.5249],[133.9624,35.5249],[133.9624,35.525]]],[[[133.9619,35.525],[133.9619,35.525],[133.9619,35.5249],[133.9619,35.525]]],[[[133.9619,35.525],[133.9619,35.5251],[133.9619,35.525],[133.9619,35.525]]],[[[133.9618,35.525],[133.9619,35.5251],[133.9619,35.525],[133.9618,35.525]]],[[[133.9623,35.5251],[133.9623,35.5251],[133.9622,35.5251],[133.9623,35.5251]]],[[[133.9617,35.5251],[133.9618,35.5252],[133.9618,35.5251],[133.9617,35.5251]]],[[[133.9619,35.5252],[133.9619,35.5252],[133.9619,35.5252],[133.9619,35.5252]]],[[[133.9618,35.5254],[133.9618,35.5254],[133.9618,35.5253],[133.9618,35.5254]]],[[[133.9614,35.5255],[133.9614,35.5254],[133.9614,35.5255],[133.9614,35.5255]]],[[[133.9621,35.5255],[133.9621,35.5255],[133.9621,35.5255],[133.9621,35.5255]]],[[[133.9612,35.5256],[133.9612,35.5256],[133.9612,35.5256],[133.9612,35.5256]]],[[[133.9615,35.5256],[133.9615,35.5256],[133.9615,35.5256],[133.9615,35.5256]]],[[[133.9613,35.5256],[133.9613,35.5256],[133.9613,35.5256],[133.9613,35.5256]]],[[[133.9613,35.5257],[133.9613,35.5257],[133.9613,35.5257],[133.9613,35.5257]]],[[[133.9614,35.5257],[133.9614,35.5257],[133.9614,35.5257],[133.9614,35.5257]]],[[[133.9612,35.5257],[133.9612,35.5257],[133.9612,35.5257],[133.9612,35.5257]]],[[[133.9613,35.5257],[133.9613,35.5257],[133.9614,35.5257],[133.9613,35.5257]]],[[[133.9614,35.5258],[133.9614,35.5258],[133.9614,35.5258],[133.9614,35.5258]]],[[[133.9615,35.526],[133.9615,35.526],[133.9615,35.526],[133.9615,35.526]]],[[[133.9611,35.526],[133.9611,35.526],[133.9611,35.526],[133.9611,35.526]]],[[[133.9612,35.5261],[133.9613,35.526],[133.9612,35.526],[133.9612,35.5261]]],[[[133.9651,35.5229],[133.9651,35.5229],[133.9651,35.5229],[133.9651,35.5229]]],[[[133.9639,35.523],[133.964,35.523],[133.9639,35.523],[133.9639,35.523]]],[[[133.964,35.523],[133.964,35.523],[133.964,35.523],[133.964,35.523]]],[[[133.9651,35.523],[133.9651,35.523],[133.965,35.523],[133.9651,35.523]]],[[[133.965,35.523],[133.965,35.523],[133.965,35.523],[133.965,35.523]]],[[[133.9641,35.523],[133.9642,35.523],[133.9641,35.523],[133.9641,35.523]]],[[[133.9648,35.523],[133.9648,35.523],[133.9648,35.523],[133.9648,35.523]]],[[[133.9647,35.523],[133.9647,35.523],[133.9647,35.523],[133.9647,35.523]]],[[[133.965,35.523],[133.965,35.523],[133.965,35.523],[133.965,35.523]]],[[[133.9641,35.523],[133.9642,35.523],[133.9642,35.523],[133.9641,35.523]]],[[[133.9644,35.523],[133.9644,35.523],[133.9644,35.523],[133.9644,35.523]]],[[[133.9651,35.523],[133.9651,35.523],[133.9651,35.523],[133.9651,35.523]]],[[[133.9644,35.523],[133.9644,35.523],[133.9644,35.523],[133.9644,35.523]]],[[[133.9645,35.523],[133.9645,35.523],[133.9645,35.523],[133.9645,35.523]]],[[[133.9642,35.523],[133.9643,35.523],[133.9643,35.523],[133.9642,35.523]]],[[[133.9644,35.523],[133.9645,35.523],[133.9644,35.523],[133.9644,35.523]]],[[[133.9648,35.523],[133.9649,35.5231],[133.9648,35.523],[133.9648,35.523]]],[[[133.9645,35.5231],[133.9646,35.523],[133.9645,35.523],[133.9645,35.5231]]],[[[133.9631,35.523],[133.9631,35.5231],[133.9631,35.523],[133.9631,35.523]]],[[[133.9645,35.5231],[133.9646,35.5231],[133.9646,35.5231],[133.9645,35.5231]]],[[[133.9651,35.5231],[133.965,35.5231],[133.9651,35.5231],[133.9651,35.5231]]],[[[133.9642,35.5231],[133.9642,35.5232],[133.9642,35.5231],[133.9642,35.5231]]],[[[133.9649,35.5232],[133.9649,35.5231],[133.9649,35.5232],[133.9649,35.5232]]],[[[133.965,35.5231],[133.9649,35.5231],[133.9649,35.5232],[133.965,35.5231]]],[[[133.9629,35.5232],[133.963,35.5232],[133.9629,35.5232],[133.9629,35.5232]]],[[[133.9629,35.5232],[133.9629,35.5232],[133.9629,35.5232],[133.9629,35.5232]]],[[[133.9629,35.5233],[133.9629,35.5233],[133.9629,35.5233],[133.9629,35.5233]]],[[[133.9629,35.5234],[133.9629,35.5234],[133.9629,35.5234],[133.9629,35.5234]]]]}},{"type":"Feature","properties":{"code":"31371","name":"琴浦町","pref_code":"31","pref":"鳥取県"},"geometry":{"type":"MultiPolygon","coordinates":[[[[133.6082,35.5222],[133.6266,35.5191],[133.6332,35.5194],[133.6426,35.5162],[133.6437,35.5168],[133.644,35.5168],[133.6426,35.5162],[133.6436,35.515],[133.6475,35.5153],[133.6484,35.5156],[133.6494,35.5157],[133.648,35.5151],[133.65,35.5139],[133.6509,35.5143],[133.6505,35.5157],[133.651,35.5142],[133.6583,35.512],[133.6577,35.5111],[133.6567,35.5124],[133.6556,35.512],[133.6561,35.5099],[133.6574,35.5104],[133.6563,35.5098],[133.6571,35.5091],[133.6591,35.5105],[133.6617,35.5095],[133.6624,35.5115],[133.6591,35.5112],[133.6589,35.5119],[133.6625,35.5115],[133.6614,35.5089],[133.6688,35.5066],[133.6695,35.5076],[133.6705,35.5065],[133.6725,35.5065],[133.6726,35.5074],[133.6727,35.5066],[133.6754,35.5066],[133.6761,35.5077],[133.677,35.5067],[133.6879,35.5076],[133.6986,35.5065],[133.7032,35.5071],[133.7033,35.5079],[133.7049,35.5083],[133.7049,35.5072],[133.7085,35.5058],[133.7138,35.5055],[133.7174,35.504],[133.7178,35.5011],[133.7209,35.4986],[133.7198,35.4957],[133.722,35.4954],[133.7213,35.4927],[133.7199,35.4919],[133.7214,35.4884],[133.7205,35.4882],[133.7199,35.485],[133.7205,35.4823],[133.7182,35.4774],[133.7213,35.4738],[133.7252,35.4661],[133.724,35.462],[133.7143,35.4553],[133.7111,35.4517],[133.711,35.4502],[133.7004,35.4453],[133.6944,35.4381],[133.6881,35.4335],[133.6873,35.4318],[133.6835,35.4308],[133.6771,35.4255],[133.6726,35.4241],[133.6727,35.4227],[133.6699,35.4194],[133.6659,35.4188],[133.6659,35.4176],[133.6589,35.4125],[133.6597,35.4109],[133.6483,35.4055],[133.6445,35.401],[133.6434,35.3975],[133.6443,35.3957],[133.6397,35.3908],[133.6388,35.3869],[133.6366,35.3848],[133.6328,35.384],[133.6264,35.3792],[133.6218,35.3775],[133.6118,35.3765],[133.6053,35.3738],[133.6009,35.3703],[133.5957,35.3692],[133.5939,35.3705],[133.5882,35.3673],[133.5846,35.3681],[133.5763,35.366],[133.5766,35.3599],[133.5751,35.3591],[133.5747,35.3569],[133.5717,35.3551],[133.5668,35.3613],[133.5613,35.362],[133.5589,35.3636],[133.5608,35.3811],[133.5785,35.379],[133.5766,35.3823],[133.5794,35.3862],[133.5826,35.3882],[133.5822,35.3935],[133.5808,35.3962],[133.5819,35.4004],[133.5838,35.4021],[133.5837,35.4086],[133.5819,35.4158],[133.5771,35.422],[133.5779,35.4232],[133.5772,35.4266],[133.5748,35.4297],[133.5808,35.4297],[133.5814,35.4273],[133.5836,35.4273],[133.5838,35.4308],[133.5856,35.4304],[133.5865,35.4314],[133.5893,35.44],[133.5908,35.4398],[133.5907,35.4408],[133.5941,35.4429],[133.5986,35.4492],[133.5974,35.4503],[133.5985,35.4515],[133.5979,35.4587],[133.6,35.4585],[133.5975,35.4665],[133.5976,35.4745],[133.6009,35.4881],[133.6002,35.4909],[133.6018,35.4958],[133.6018,35.5017],[133.6032,35.5045],[133.6014,35.5055],[133.6008,35.5102],[133.5983,35.5114],[133.6067,35.517],[133.6054,35.5189],[133.6082,35.5222]]],[[[133.6628,35.5126],[133.6611,35.5141],[133.6629,35.5127],[133.6628,35.5126]]],[[[133.6597,35.5142],[133.6577,35.5131],[133.6572,35.513],[133.659,35.5142],[133.6597,35.5142]]],[[[133.6456,35.5163],[133.6447,35.5169],[133.6456,35.5163],[133.6456,35.5163]]],[[[133.6594,35.5171],[133.6602,35.517],[133.6594,35.5169],[133.6594,35.5171]]]]}},{"type":"Feature","properties":{"code":"31372","name":"北栄町","pref_code":"31","pref":"鳥取県"},"geometry":{"type":"Polygon","coordinates":[[[133.8552,35.5045],[133.8555,35.4988],[133.852,35.4914],[133.8534,35.4899],[133.8492,35.4844],[133.8505,35.4833],[133.8501,35.4817],[133.8475,35.4804],[133.8466,35.4784],[133.8392,35.4782],[133.8387,35.4773],[133.8353,35.4783],[133.8361,35.48],[133.8276,35.4814],[133.8256,35.4767],[133.8263,35.4753],[133.8254,35.4755],[133.8266,35.4722],[133.8254,35.4639],[133.8211,35.4634],[133.8217,35.4629],[133.8191,35.4606],[133.8187,35.458],[133.8103,35.4593],[133.8109,35.461],[133.8096,35.4614],[133.8089,35.4603],[133.8067,35.4611],[133.804,35.4606],[133.8042,35.4652],[133.8014,35.4657],[133.7986,35.4692],[133.7966,35.4699],[133.7845,35.4633],[133.7783,35.4674],[133.779,35.4684],[133.7764,35.4695],[133.7774,35.4711],[133.7758,35.4719],[133.7722,35.4684],[133.7653,35.4675],[133.7656,35.4685],[133.7632,35.4708],[133.7611,35.4711],[133.7551,35.467],[133.7517,35.466],[133.7523,35.4652],[133.7501,35.4638],[133.7507,35.4629],[133.747,35.4605],[133.7481,35.457],[133.7509,35.4542],[133.7454,35.4518],[133.7429,35.449],[133.7368,35.4467],[133.731,35.4408],[133.7263,35.4404],[133.7174,35.4338],[133.7095,35.4328],[133.6989,35.4266],[133.6867,35.4216],[133.6756,35.4206],[133.673,35.4193],[133.6706,35.4202],[133.6726,35.4241],[133.6771,35.4255],[133.6835,35.4308],[133.6873,35.4318],[133.6881,35.4335],[133.6944,35.4381],[133.7004,35.4453],[133.711,35.4502],[133.7111,35.4517],[133.7143,35.4553],[133.724,35.462],[133.7251,35.4669],[133.7182,35.4774],[133.7205,35.4823],[133.7199,35.485],[133.7205,35.4882],[133.7214,35.4884],[133.7199,35.4919],[133.7213,35.4927],[133.722,35.4954],[133.7198,35.4957],[133.7209,35.4986],[133.7178,35.5011],[133.7174,35.504],[133.7465,35.5011],[133.7808,35.5006],[133.8157,35.5015],[133.8552,35.5045]]]}},{"type":"Feature","properties":{"code":"31384","name":"日吉津村","pref_code":"31","pref":"鳥取県"},"geometry":{"type":"MultiPolygon","coordinates":[[[[133.3741,35.4563],[133.3916,35.4538],[133.3904,35.4458],[133.3866,35.4415],[133.3869,35.4391],[133.3841,35.4386],[133.3855,35.4358],[133.3845,35.432],[133.3833,35.4319],[133.383,35.4305],[133.3811,35.4315],[133.3798,35.43],[133.3771,35.4306],[133.3765,35.4339],[133.375,35.4321],[133.3676,35.4344],[133.3741,35.4563]]],[[[133.3818,35.4563],[133.3816,35.4563],[133.3817,35.4564],[133.3818,35.4563]]]]}},{"type":"Feature","properties":{"code":"31386","name":"大山町","pref_code":"31","pref":"鳥取県"},"geometry":{"type":"MultiPolygon","coordinates":[[[[133.5871,35.5317],[133.5936,35.5312],[133.5912,35.5313],[133.5944,35.5267],[133.6,35.5264],[133.6038,35.5234],[133.6082,35.5222],[133.6054,35.5189],[133.6067,35.517],[133.5983,35.5114],[133.6008,35.5102],[133.6014,35.5055],[133.6032,35.5045],[133.6018,35.5017],[133.6018,35.4958],[133.6002,35.4909],[133.6009,35.4881],[133.5976,35.4745],[133.5975,35.4665],[133.6,35.4585],[133.5979,35.4587],[133.5985,35.4515],[133.5974,35.4503],[133.5986,35.4494],[133.5941,35.4429],[133.5907,35.4408],[133.5908,35.4398],[133.5893,35.44],[133.5865,35.4314],[133.5856,35.4304],[133.5838,35.4308],[133.5836,35.4273],[133.5814,35.4273],[133.5808,35.4297],[133.5748,35.4297],[133.5772,35.4266],[133.5779,35.4232],[133.5771,35.422],[133.5819,35.4158],[133.5837,35.4086],[133.5838,35.4021],[133.5819,35.4004],[133.5808,35.3962],[133.5822,35.3935],[133.5826,35.3882],[133.5794,35.3862],[133.5766,35.3823],[133.5785,35.379],[133.5608,35.3811],[133.5589,35.3633],[133.5561,35.3566],[133.553,35.3562],[133.5507,35.3519],[133.5501,35.3464],[133.5494,35.346],[133.5494,35.3477],[133.5451,35.3501],[133.5453,35.3527],[133.5426,35.3496],[133.5369,35.3553],[133.5287,35.3586],[133.5262,35.3611],[133.5211,35.37],[133.5227,35.3793],[133.5248,35.3828],[133.5208,35.3848],[133.5237,35.387],[133.5226,35.3887],[133.5188,35.3903],[133.5156,35.3932],[133.5163,35.3962],[133.5085,35.3982],[133.4911,35.4001],[133.4771,35.3974],[133.4754,35.3987],[133.4706,35.3991],[133.4659,35.3976],[133.4617,35.3984],[133.4539,35.3977],[133.4496,35.3963],[133.4457,35.3978],[133.4418,35.4146],[133.4469,35.4148],[133.4511,35.4166],[133.466,35.4161],[133.4676,35.4175],[133.4687,35.4228],[133.4796,35.4295],[133.4805,35.4368],[133.4743,35.4404],[133.4712,35.44],[133.4652,35.4451],[133.4643,35.4477],[133.4583,35.4473],[133.4591,35.4517],[133.4553,35.4565],[133.4558,35.4598],[133.4544,35.4615],[133.4499,35.4622],[133.4454,35.4612],[133.4421,35.4625],[133.4418,35.4597],[133.434,35.4596],[133.4352,35.4625],[133.4346,35.4688],[133.4293,35.4699],[133.4346,35.4787],[133.4331,35.4809],[133.431,35.4804],[133.4315,35.4809],[133.4354,35.4841],[133.4428,35.4874],[133.4437,35.4912],[133.4474,35.4949],[133.4603,35.4988],[133.4657,35.4979],[133.4722,35.4989],[133.4905,35.5083],[133.4939,35.5117],[133.4935,35.5127],[133.4942,35.513],[133.4942,35.5118],[133.4955,35.5125],[133.4944,35.5134],[133.4953,35.5142],[133.4933,35.5142],[133.4954,35.5142],[133.4958,35.5141],[133.4973,35.5156],[133.5023,35.5152],[133.5152,35.5175],[133.5199,35.5209],[133.5229,35.5194],[133.5305,35.5195],[133.5361,35.524],[133.5385,35.5236],[133.5412,35.5212],[133.5465,35.5215],[133.5563,35.5241],[133.5594,35.5273],[133.5643,35.5287],[133.5636,35.5295],[133.5636,35.5301],[133.5642,35.5289],[133.566,35.5298],[133.5638,35.5306],[133.5662,35.5297],[133.5784,35.53],[133.5871,35.5317]]],[[[133.4929,35.5117],[133.4929,35.5123],[133.493,35.5117],[133.4929,35.5117]]],[[[133.493,35.5129],[133.4931,35.5135],[133.4931,35.5134],[133.493,35.5129]]],[[[133.5631,35.5301],[133.563,35.531],[133.5632,35.531],[133.5631,35.5301]]]]}}]}