{"type":"FeatureCollection","pref_code":"33","features":[{"type":"Feature","properties":{"code":"33100","name":"岡山市","pref_code":"33","pref":"岡山県"},"geometry":{"type":"MultiPolygon","coordinates":[[[[133.9729,34.6033],[133.9673,34.5992],[133.9683,34.5988],[133.9601,34.5976],[133.9609,34.5966],[133.9608,34.5966],[133.9584,34.598],[133.9588,34.5972],[133.9566,34.5968],[133.9523,34.6028],[133.9494,34.6011],[133.9503,34.6],[133.9489,34.5992],[133.9477,34.6001],[133.9461,34.599],[133.9497,34.5946],[133.9522,34.5957],[133.9545,34.5964],[133.9481,34.5936],[133.9558,34.5864],[133.9568,34.5869],[133.9564,34.5862],[133.9587,34.5841],[133.9599,34.5847],[133.9595,34.5836],[133.9618,34.5844],[133.961,34.5862],[133.962,34.5868],[133.9604,34.5875],[133.9631,34.59],[133.9643,34.5895],[133.9681,34.5926],[133.974,34.5945],[133.9896,34.595],[133.9897,34.5937],[133.9916,34.593],[133.9916,34.5948],[133.9964,34.595],[133.9985,34.5933],[134.0029,34.593],[134.0045,34.5952],[134.0069,34.5946],[134.0067,34.5955],[134.0099,34.596],[134.0116,34.598],[134.0132,34.5979],[134.0128,34.5978],[134.013,34.5971],[134.0204,34.599],[134.0213,34.5984],[134.0227,34.5989],[134.0273,34.5991],[134.0288,34.5988],[134.0271,34.5988],[134.0287,34.5985],[134.0287,34.5975],[134.0293,34.5986],[134.0329,34.5977],[134.034,34.596],[134.0315,34.5949],[134.0326,34.5949],[134.0347,34.5905],[134.0375,34.592],[134.0407,34.5875],[134.0412,34.5838],[134.0396,34.5827],[134.041,34.581],[134.0407,34.5805],[134.0389,34.5802],[134.0387,34.5802],[134.0387,34.5799],[134.0409,34.5801],[134.0412,34.581],[134.0437,34.5781],[134.0458,34.5782],[134.0472,34.5766],[134.0461,34.5757],[134.0391,34.5761],[134.0352,34.5733],[134.0359,34.5743],[134.0349,34.5735],[134.0323,34.5746],[134.0291,34.5784],[134.0227,34.5752],[134.0172,34.5778],[134.0157,34.5769],[134.0144,34.5777],[134.0101,34.575],[134.0065,34.5754],[134.0046,34.577],[133.9973,34.5763],[133.9957,34.5776],[133.9907,34.5758],[133.9861,34.5775],[133.9854,34.5749],[133.9822,34.5721],[133.9827,34.5703],[133.9812,34.5686],[133.9825,34.5667],[133.9809,34.5639],[133.9771,34.5598],[133.9706,34.5575],[133.9646,34.5591],[133.9648,34.5616],[133.9617,34.5663],[133.9581,34.5671],[133.9562,34.5704],[133.951,34.5705],[133.9387,34.5764],[133.9318,34.5631],[133.9197,34.5449],[133.9022,34.5369],[133.8972,34.5428],[133.8947,34.5413],[133.8933,34.5429],[133.8848,34.5379],[133.8872,34.5368],[133.8863,34.5356],[133.8879,34.5349],[133.8862,34.5322],[133.8867,34.5248],[133.8753,34.5242],[133.8744,34.5216],[133.8665,34.5185],[133.8637,34.52],[133.859,34.5188],[133.8564,34.5209],[133.8538,34.5197],[133.8516,34.5211],[133.85,34.527],[133.852,34.5295],[133.8498,34.5319],[133.8471,34.5291],[133.8458,34.529],[133.8429,34.5307],[133.8416,34.5338],[133.8394,34.5339],[133.8379,34.5357],[133.8297,34.5334],[133.8272,34.5374],[133.826,34.5372],[133.8241,34.5434],[133.8215,34.5445],[133.8208,34.5469],[133.8162,34.5473],[133.8195,34.5508],[133.8274,34.5519],[133.8335,34.5549],[133.8305,34.5628],[133.8257,34.5666],[133.8292,34.5686],[133.8331,34.5685],[133.8431,34.5808],[133.8436,34.5902],[133.8383,34.5992],[133.8397,34.6005],[133.8352,34.6063],[133.8343,34.6114],[133.8346,34.6134],[133.8358,34.6139],[133.8358,34.6177],[133.8342,34.6177],[133.8361,34.62],[133.8336,34.6262],[133.8321,34.6258],[133.8303,34.6279],[133.8332,34.628],[133.8352,34.6301],[133.8358,34.6341],[133.8391,34.6339],[133.839,34.6357],[133.8375,34.6354],[133.8366,34.6373],[133.8318,34.6509],[133.8366,34.6516],[133.8356,34.6545],[133.8377,34.655],[133.8349,34.6593],[133.8354,34.6614],[133.826,34.6665],[133.8249,34.6694],[133.8132,34.6678],[133.8037,34.6634],[133.8013,34.6626],[133.8002,34.6633],[133.7938,34.6728],[133.7954,34.6724],[133.7959,34.6772],[133.8012,34.6791],[133.8017,34.6816],[133.8042,34.6847],[133.8043,34.6873],[133.8023,34.6894],[133.7986,34.6904],[133.7946,34.6966],[133.7932,34.6962],[133.7914,34.6988],[133.7897,34.6983],[133.7877,34.6949],[133.7865,34.6964],[133.787,34.6972],[133.7822,34.6987],[133.7983,34.7059],[133.7999,34.7108],[133.7982,34.7123],[133.7979,34.716],[133.7989,34.7163],[133.7973,34.7224],[133.7908,34.7313],[133.7888,34.7315],[133.7868,34.7338],[133.7814,34.7361],[133.7782,34.7397],[133.7745,34.7404],[133.7702,34.7428],[133.7679,34.7416],[133.7657,34.7425],[133.7623,34.7453],[133.7621,34.7486],[133.759,34.7485],[133.757,34.7497],[133.7544,34.7473],[133.7452,34.7493],[133.7465,34.7506],[133.7462,34.7533],[133.7424,34.7568],[133.7426,34.7585],[133.7398,34.7615],[133.7405,34.7676],[133.7397,34.7696],[133.7436,34.7733],[133.7438,34.7771],[133.7462,34.7771],[133.7492,34.7822],[133.7475,34.7848],[133.7479,34.7878],[133.7528,34.7859],[133.7557,34.7819],[133.7584,34.7857],[133.7623,34.7864],[133.7665,34.7899],[133.7677,34.7867],[133.7731,34.7865],[133.775,34.7993],[133.7731,34.7997],[133.7795,34.8043],[133.7809,34.8089],[133.7831,34.8093],[133.7833,34.8109],[133.7874,34.811],[133.7903,34.8141],[133.7951,34.8139],[133.7952,34.817],[133.7963,34.818],[133.7955,34.8192],[133.7964,34.8201],[133.7997,34.8195],[133.7986,34.817],[133.7992,34.8148],[133.8075,34.8115],[133.8076,34.8083],[133.8149,34.8054],[133.8189,34.8066],[133.8204,34.8106],[133.8184,34.813],[133.8176,34.8169],[133.8182,34.8188],[133.8206,34.8196],[133.8176,34.8239],[133.8162,34.8292],[133.8176,34.8346],[133.82,34.8351],[133.8286,34.8418],[133.8334,34.8435],[133.8345,34.8428],[133.8332,34.841],[133.8435,34.8447],[133.8429,34.8484],[133.848,34.8536],[133.8467,34.8567],[133.8454,34.857],[133.8449,34.8598],[133.8469,34.8642],[133.8432,34.8692],[133.8467,34.875],[133.8473,34.8781],[133.8503,34.8796],[133.8481,34.8837],[133.8485,34.8859],[133.8503,34.8873],[133.8526,34.887],[133.8512,34.8884],[133.8514,34.8901],[133.8566,34.8952],[133.86,34.8941],[133.8649,34.8965],[133.866,34.9001],[133.8719,34.9002],[133.8784,34.9032],[133.8766,34.9062],[133.8747,34.907],[133.8678,34.9053],[133.864,34.9062],[133.8587,34.9124],[133.8511,34.9153],[133.8485,34.9186],[133.8473,34.9227],[133.852,34.9269],[133.8528,34.9291],[133.8502,34.9344],[133.8521,34.9362],[133.8528,34.9392],[133.8504,34.9432],[133.8535,34.9451],[133.8569,34.9429],[133.8612,34.9436],[133.8638,34.9372],[133.8693,34.9324],[133.8673,34.9375],[133.8754,34.9401],[133.8829,34.9483],[133.8849,34.9483],[133.8874,34.9464],[133.8883,34.9438],[133.8906,34.945],[133.8961,34.9449],[133.8991,34.9427],[133.9016,34.943],[133.9016,34.9465],[133.904,34.9461],[133.9055,34.9491],[133.9113,34.9477],[133.9125,34.9465],[133.9104,34.9459],[133.91,34.9433],[133.9073,34.9415],[133.9063,34.9382],[133.907,34.935],[133.9097,34.9325],[133.9087,34.9268],[133.9063,34.9249],[133.9033,34.9255],[133.9005,34.9224],[133.9063,34.9182],[133.9038,34.9157],[133.9016,34.9159],[133.8986,34.9133],[133.8943,34.9136],[133.8948,34.9086],[133.8982,34.9075],[133.9002,34.9031],[133.902,34.9016],[133.9052,34.9053],[133.9079,34.9052],[133.909,34.907],[133.9121,34.906],[133.9116,34.9047],[133.9129,34.9032],[133.9185,34.9026],[133.9211,34.901],[133.9208,34.9004],[133.9232,34.9014],[133.9211,34.898],[133.9208,34.8947],[133.923,34.8929],[133.9268,34.8931],[133.9306,34.8878],[133.9352,34.8844],[133.9387,34.8845],[133.9328,34.8781],[133.928,34.8751],[133.928,34.8725],[133.9297,34.8741],[133.9323,34.874],[133.937,34.8711],[133.941,34.8713],[133.945,34.8696],[133.9554,34.8727],[133.9585,34.8717],[133.9611,34.868],[133.9615,34.8637],[133.9633,34.8635],[133.9689,34.8547],[133.9685,34.8532],[133.9649,34.8524],[133.9616,34.8498],[133.9639,34.8501],[133.9715,34.848],[133.9724,34.8458],[133.975,34.8463],[133.9762,34.8451],[133.9747,34.8443],[133.9782,34.8431],[133.9776,34.8473],[133.9801,34.8498],[133.9798,34.8514],[133.9819,34.855],[133.9854,34.8543],[133.9863,34.8529],[133.9872,34.8544],[133.994,34.8501],[133.9926,34.8459],[133.9928,34.8412],[133.9905,34.8375],[133.9876,34.8356],[133.9884,34.8328],[133.991,34.8323],[133.9883,34.8304],[133.9912,34.8272],[133.9901,34.8248],[133.9851,34.8207],[133.9871,34.8181],[133.9873,34.8141],[133.9855,34.8129],[133.9863,34.8081],[133.9848,34.8065],[133.9747,34.8039],[133.9729,34.7996],[133.968,34.7951],[133.9669,34.7919],[133.9617,34.7879],[133.962,34.7856],[133.9696,34.7848],[133.9716,34.7821],[133.9732,34.7825],[133.976,34.7801],[133.9799,34.7807],[133.9805,34.7755],[133.9779,34.7743],[133.9767,34.7691],[133.9814,34.7661],[133.9866,34.7674],[133.9858,34.7609],[133.9838,34.7598],[133.9835,34.758],[133.9809,34.755],[133.9726,34.7539],[133.9714,34.7496],[133.9728,34.7448],[133.9751,34.7456],[133.9784,34.745],[133.9785,34.744],[133.9834,34.7442],[133.9837,34.7429],[133.9806,34.7435],[133.9794,34.7419],[133.9842,34.7394],[133.9823,34.7376],[133.9865,34.7363],[133.9866,34.7331],[133.9905,34.7308],[133.992,34.7288],[133.9916,34.7273],[133.9939,34.7267],[133.9923,34.7215],[133.9936,34.7196],[133.9946,34.7228],[133.9966,34.7223],[134.0007,34.7263],[134.0096,34.7264],[134.0092,34.7283],[134.0111,34.7304],[134.0227,34.7343],[134.034,34.7418],[134.0348,34.744],[134.0388,34.7445],[134.04,34.7465],[134.0452,34.749],[134.0453,34.7512],[134.0481,34.7535],[134.047,34.7567],[134.0512,34.7615],[134.0506,34.7636],[134.0479,34.764],[134.0489,34.7668],[134.0526,34.7701],[134.0584,34.7678],[134.0609,34.7764],[134.0645,34.7798],[134.0694,34.7812],[134.0706,34.7829],[134.0791,34.7812],[134.0816,34.783],[134.0871,34.782],[134.0879,34.7761],[134.0905,34.7733],[134.0898,34.7711],[134.0929,34.7701],[134.0902,34.7618],[134.1008,34.761],[134.1082,34.7563],[134.108,34.7608],[134.1091,34.7608],[134.114,34.7576],[134.1195,34.7571],[134.1188,34.7536],[134.123,34.7522],[134.1227,34.7503],[134.1199,34.7477],[134.1163,34.7479],[134.111,34.7458],[134.1113,34.7419],[134.1062,34.7421],[134.1051,34.7349],[134.1005,34.723],[134.093,34.7143],[134.0835,34.7067],[134.0839,34.6975],[134.0807,34.6917],[134.0769,34.6806],[134.0734,34.6772],[134.0602,34.6701],[134.0519,34.6592],[134.0542,34.6583],[134.0547,34.6567],[134.0603,34.6595],[134.06,34.6575],[134.0613,34.6569],[134.059,34.6561],[134.0582,34.6518],[134.06,34.65],[134.0643,34.6499],[134.0644,34.6484],[134.0668,34.6477],[134.0778,34.6501],[134.0838,34.6494],[134.0749,34.6458],[134.0767,34.6447],[134.0749,34.6434],[134.075,34.6399],[134.0728,34.638],[134.0741,34.6351],[134.0791,34.6328],[134.0824,34.6335],[134.086,34.6324],[134.0885,34.6337],[134.0902,34.6329],[134.0945,34.6355],[134.0944,34.6373],[134.0969,34.6371],[134.1006,34.6396],[134.1034,34.6376],[134.1034,34.6365],[134.1046,34.6375],[134.1046,34.633],[134.1109,34.6347],[134.1093,34.631],[134.1126,34.6302],[134.1163,34.6277],[134.1154,34.6263],[134.118,34.6237],[134.117,34.6223],[134.1146,34.6228],[134.1149,34.6207],[134.117,34.6196],[134.1129,34.6196],[134.112,34.6159],[134.1086,34.6169],[134.1092,34.615],[134.1077,34.6135],[134.1093,34.6099],[134.1083,34.6086],[134.1096,34.6056],[134.1121,34.6039],[134.1129,34.601],[134.1117,34.5956],[134.1137,34.5925],[134.112,34.5913],[134.1122,34.5885],[134.1107,34.5893],[134.1103,34.5894],[134.1067,34.5888],[134.1084,34.5891],[134.1086,34.5902],[134.1081,34.5905],[134.1065,34.5891],[134.1049,34.5897],[134.1035,34.5896],[134.1016,34.5874],[134.1018,34.5869],[134.101,34.586],[134.1011,34.5851],[134.1011,34.5848],[134.1008,34.5861],[134.1016,34.587],[134.1012,34.5881],[134.0998,34.5857],[134.1008,34.5849],[134.0985,34.5852],[134.0967,34.5827],[134.0925,34.581],[134.0893,34.5815],[134.0858,34.5803],[134.0818,34.5848],[134.0796,34.5852],[134.0804,34.5861],[134.0797,34.5865],[134.0689,34.5834],[134.0544,34.5864],[134.0526,34.5904],[134.0529,34.5903],[134.0539,34.5942],[134.0537,34.5953],[134.0555,34.5959],[134.0532,34.596],[134.0579,34.6035],[134.0609,34.6023],[134.0623,34.605],[134.0645,34.605],[134.064,34.6075],[134.0623,34.6087],[134.058,34.6078],[134.058,34.606],[134.058,34.6068],[134.057,34.6063],[134.0575,34.6058],[134.0568,34.6064],[134.0536,34.6038],[134.052,34.6058],[134.0502,34.6047],[134.0484,34.6031],[134.0507,34.6008],[134.0479,34.5973],[134.0443,34.5993],[134.0452,34.6003],[134.0453,34.6021],[134.0436,34.6069],[134.0422,34.6083],[134.0419,34.6071],[134.0421,34.6083],[134.0325,34.6091],[134.0326,34.6077],[134.0314,34.6039],[134.0307,34.6041],[134.0325,34.6081],[134.0294,34.6065],[134.0297,34.6042],[134.029,34.6064],[134.019,34.6097],[134.0147,34.6107],[134.0146,34.6107],[134.0146,34.6105],[134.0143,34.6106],[134.008,34.612],[134.0068,34.6122],[134.0066,34.612],[134.0062,34.6121],[134.0058,34.6124],[134.0056,34.6122],[134.0041,34.6127],[133.996,34.6136],[133.9917,34.6125],[133.9869,34.6092],[133.9809,34.6068],[133.9838,34.6065],[133.984,34.6056],[133.9826,34.6053],[133.9846,34.6028],[133.9828,34.6018],[133.9808,34.6043],[133.98,34.6039],[133.9809,34.6027],[133.9781,34.6029],[133.9817,34.6002],[133.9774,34.6003],[133.9748,34.6019],[133.9755,34.6027],[133.9739,34.6027],[133.9746,34.602],[133.9729,34.6033]]],[[[133.9652,34.5918],[133.9651,34.5918],[133.9652,34.5918],[133.9652,34.5918]]],[[[133.9652,34.5919],[133.9651,34.5919],[133.9651,34.5919],[133.9652,34.5919]]],[[[133.9653,34.5921],[133.9654,34.5919],[133.9652,34.592],[133.9653,34.5921]]],[[[133.9657,34.5922],[133.9657,34.592],[133.9656,34.5921],[133.9657,34.5922]]],[[[133.9658,34.5922],[133.9658,34.5921],[133.9658,34.5922],[133.9658,34.5922]]],[[[133.9741,34.5993],[133.9741,34.5994],[133.9741,34.5993],[133.9741,34.5993]]],[[[133.9898,34.6008],[133.9899,34.6007],[133.9898,34.6007],[133.9898,34.6008]]],[[[133.9895,34.6009],[133.9894,34.601],[133.9895,34.6009],[133.9895,34.6009]]],[[[133.9893,34.6056],[133.9908,34.603],[133.9907,34.6005],[133.9893,34.6013],[133.988,34.6043],[133.9893,34.6056]]],[[[133.9869,34.6046],[133.9868,34.6047],[133.987,34.6046],[133.9869,34.6046]]],[[[133.9868,34.6047],[133.9867,34.6048],[133.9868,34.6047],[133.9868,34.6047]]],[[[133.9894,34.606],[133.9893,34.6061],[133.9894,34.6062],[133.9894,34.606]]],[[[133.9881,34.6071],[133.9858,34.6047],[133.984,34.6076],[133.9872,34.6084],[133.9881,34.6071]]],[[[134.0128,34.6078],[134.0133,34.6071],[134.0129,34.6071],[134.0128,34.6078]]],[[[133.9919,34.6079],[133.9902,34.6076],[133.9902,34.6076],[133.9919,34.6079]]],[[[134.0204,34.6086],[134.0204,34.6086],[134.0206,34.6088],[134.0204,34.6086]]],[[[134.0195,34.609],[134.0199,34.6089],[134.0199,34.6088],[134.0195,34.609]]],[[[134.019,34.6094],[134.0197,34.6085],[134.0193,34.6087],[134.019,34.6094]]],[[[133.9952,34.6103],[133.9952,34.6103],[133.9953,34.6103],[133.9952,34.6103]]],[[[133.9947,34.6107],[133.9953,34.6103],[133.9948,34.6104],[133.9947,34.6107]]],[[[134.0147,34.6106],[134.0147,34.6106],[134.0147,34.6106],[134.0147,34.6106]]],[[[133.9962,34.6131],[133.9959,34.6131],[133.9959,34.6131],[133.9962,34.6131]]],[[[134.0925,34.5588],[134.0938,34.5577],[134.0933,34.5571],[134.0926,34.5573],[134.0925,34.5588]]],[[[134.0935,34.5626],[134.0916,34.5616],[134.0921,34.56],[134.0907,34.5609],[134.0914,34.562],[134.0935,34.5626]]],[[[134.0913,34.562],[134.0913,34.562],[134.0913,34.562],[134.0913,34.562]]],[[[134.0926,34.5621],[134.0926,34.5621],[134.0926,34.5621],[134.0926,34.5621]]],[[[134.1042,34.5677],[134.1054,34.5677],[134.1062,34.5651],[134.1069,34.5642],[134.1065,34.5607],[134.1034,34.5598],[134.1023,34.5615],[134.1007,34.5603],[134.0987,34.5615],[134.097,34.5595],[134.0952,34.5625],[134.0976,34.5643],[134.0992,34.5635],[134.0989,34.5658],[134.1003,34.5669],[134.1022,34.566],[134.1031,34.5669],[134.1043,34.5666],[134.1039,34.5653],[134.1044,34.5652],[134.1051,34.5675],[134.1042,34.5677]]],[[[134.0982,34.5649],[134.0948,34.565],[134.0954,34.568],[134.0978,34.5665],[134.0982,34.5649]]],[[[134.1029,34.567],[134.1029,34.5669],[134.1029,34.567],[134.1029,34.567]]],[[[134.1032,34.567],[134.1032,34.567],[134.1032,34.567],[134.1032,34.567]]],[[[134.1002,34.5675],[134.1003,34.5673],[134.1002,34.5673],[134.1002,34.5675]]],[[[134.1031,34.5676],[134.1033,34.5675],[134.1031,34.5675],[134.1031,34.5676]]],[[[134.103,34.5678],[134.1031,34.5676],[134.103,34.5677],[134.103,34.5678]]],[[[134.0472,34.5765],[134.0472,34.5766],[134.0472,34.5766],[134.0472,34.5765]]],[[[134.0814,34.5835],[134.0814,34.5835],[134.0808,34.5835],[134.0814,34.5835]]],[[[134.1006,34.5845],[134.101,34.5843],[134.1006,34.5844],[134.1006,34.5845]]],[[[134.079,34.5851],[134.0812,34.5838],[134.079,34.5851],[134.079,34.5851]]],[[[134.0528,34.5903],[134.0528,34.5904],[134.0529,34.5903],[134.0528,34.5903]]],[[[134.0373,34.5922],[134.0365,34.5921],[134.0361,34.5919],[134.0365,34.5921],[134.0373,34.5922]]],[[[134.0446,34.6007],[134.0446,34.6007],[134.0446,34.6007],[134.0446,34.6007]]],[[[134.045,34.6009],[134.0443,34.6006],[134.0441,34.6007],[134.0442,34.6009],[134.0448,34.6009],[134.045,34.6009]]],[[[134.0642,34.6057],[134.0643,34.6056],[134.0642,34.6056],[134.0642,34.6057]]],[[[134.0643,34.6056],[134.0643,34.6057],[134.0643,34.6057],[134.0643,34.6056]]],[[[134.0578,34.6067],[134.0579,34.6067],[134.0579,34.6067],[134.0578,34.6067]]],[[[134.0639,34.6073],[134.0639,34.6074],[134.064,34.6073],[134.0639,34.6073]]],[[[134.0395,34.6078],[134.0396,34.608],[134.0396,34.6079],[134.0395,34.6078]]],[[[134.1077,34.5605],[134.1077,34.5605],[134.1078,34.5605],[134.1077,34.5605]]],[[[134.1076,34.5605],[134.1076,34.5605],[134.1077,34.5605],[134.1076,34.5605]]],[[[134.1093,34.5606],[134.1092,34.5606],[134.1093,34.5606],[134.1093,34.5606]]],[[[134.111,34.5623],[134.111,34.5623],[134.1109,34.5623],[134.111,34.5623]]],[[[134.1085,34.5641],[134.1104,34.5627],[134.1112,34.5609],[134.111,34.5606],[134.1079,34.5607],[134.1085,34.5641]]],[[[134.1108,34.5624],[134.1109,34.5623],[134.1107,34.5623],[134.1108,34.5624]]],[[[134.1127,34.5626],[134.1127,34.5626],[134.1128,34.5626],[134.1127,34.5626]]],[[[134.1125,34.5626],[134.1124,34.5626],[134.1125,34.5626],[134.1125,34.5626]]],[[[134.1127,34.5627],[134.1127,34.5628],[134.1128,34.5628],[134.1127,34.5627]]],[[[134.1126,34.5631],[134.1126,34.5632],[134.1126,34.5631],[134.1126,34.5631]]],[[[134.1127,34.5632],[134.1127,34.5632],[134.1127,34.5632],[134.1127,34.5632]]],[[[134.1127,34.5634],[134.1129,34.5633],[134.1127,34.5633],[134.1127,34.5634]]],[[[134.1078,34.5639],[134.1078,34.564],[134.1079,34.564],[134.1078,34.5639]]],[[[134.1058,34.5667],[134.1058,34.5666],[134.1058,34.5666],[134.1058,34.5667],[134.1058,34.5667]]],[[[134.1033,34.5673],[134.1033,34.5671],[134.1032,34.567],[134.1033,34.5673]]],[[[134.1035,34.5673],[134.1035,34.5674],[134.1035,34.5674],[134.1035,34.5673]]],[[[134.1034,34.5674],[134.1033,34.5674],[134.1034,34.5674],[134.1034,34.5674]]],[[[134.1035,34.5674],[134.1036,34.5674],[134.1036,34.5674],[134.1035,34.5674]]],[[[134.1037,34.5677],[134.1034,34.5678],[134.1037,34.5678],[134.1037,34.5677]]],[[[134.1032,34.5678],[134.1032,34.5679],[134.1032,34.5679],[134.1032,34.5678]]],[[[134.1065,34.5883],[134.1062,34.5887],[134.1066,34.5883],[134.1065,34.5883]]],[[[134.1056,34.5892],[134.1055,34.5893],[134.1056,34.5893],[134.1056,34.5892]]],[[[134.1106,34.5893],[134.1106,34.5893],[134.1105,34.5893],[134.1106,34.5893]]]]}},{"type":"Feature","properties":{"code":"33202","name":"倉敷市","pref_code":"33","pref":"岡山県"},"geometry":{"type":"MultiPolygon","coordinates":[[[[133.6943,34.4467],[133.6947,34.4464],[133.6943,34.4465],[133.6943,34.4467]]],[[[133.6931,34.4468],[133.6931,34.4464],[133.6927,34.4466],[133.6931,34.4468]]],[[[133.6969,34.4495],[133.6965,34.4483],[133.6962,34.449],[133.6969,34.4495]]],[[[133.6978,34.4515],[133.698,34.4511],[133.6977,34.4511],[133.6978,34.4515]]],[[[133.7482,34.4517],[133.7482,34.4519],[133.7483,34.4517],[133.7482,34.4517]]],[[[133.7474,34.4527],[133.7479,34.4528],[133.7478,34.4526],[133.7474,34.4527]]],[[[133.7465,34.4556],[133.7471,34.4539],[133.7456,34.455],[133.7465,34.4556]]],[[[133.6913,34.4643],[133.6926,34.4617],[133.6902,34.4604],[133.6883,34.4614],[133.6913,34.4643]]],[[[133.7169,34.4631],[133.7167,34.4611],[133.7142,34.4621],[133.7106,34.4605],[133.7098,34.4623],[133.7074,34.4639],[133.7106,34.4642],[133.7116,34.4661],[133.7169,34.4631]]],[[[133.747,34.4904],[133.7467,34.4908],[133.7468,34.4908],[133.747,34.4904]]],[[[133.6148,34.4942],[133.6154,34.4938],[133.616,34.4938],[133.6154,34.4938],[133.615,34.4939],[133.6148,34.4942]]],[[[133.6078,34.4944],[133.6086,34.4944],[133.607,34.4942],[133.6078,34.4944]]],[[[133.6844,34.5043],[133.6828,34.4879],[133.6689,34.4876],[133.6692,34.502],[133.6748,34.5042],[133.6844,34.5043]]],[[[133.6239,34.4974],[133.6239,34.4974],[133.6239,34.4974],[133.6239,34.4974]]],[[[133.743,34.4992],[133.7441,34.4984],[133.744,34.4974],[133.7439,34.4973],[133.743,34.4992]]],[[[133.6633,34.4962],[133.6586,34.5012],[133.6634,34.4962],[133.6633,34.4962]]],[[[133.6584,34.5013],[133.6585,34.5013],[133.6584,34.5013],[133.6584,34.5013]]],[[[133.6393,34.5018],[133.6398,34.5018],[133.6393,34.5018],[133.6393,34.5018]]],[[[133.6583,34.5015],[133.6557,34.5042],[133.6542,34.5057],[133.6583,34.5015]]],[[[133.6511,34.5114],[133.6518,34.5104],[133.6511,34.5114],[133.6511,34.5114]]],[[[133.6507,34.511],[133.6498,34.5116],[133.6507,34.511],[133.6507,34.511]]],[[[133.6515,34.5116],[133.6533,34.5127],[133.6533,34.5126],[133.6515,34.5116]]],[[[133.6537,34.5128],[133.6561,34.5142],[133.6562,34.5142],[133.6537,34.5128]]],[[[133.6566,34.5144],[133.6578,34.5152],[133.6579,34.5151],[133.6566,34.5144]]],[[[133.6647,34.5172],[133.6652,34.5137],[133.6648,34.5155],[133.6647,34.5172]]],[[[133.6583,34.5153],[133.6582,34.5154],[133.6602,34.5163],[133.6583,34.5153]]],[[[133.6608,34.5167],[133.6605,34.5166],[133.6625,34.5176],[133.6608,34.5167]]],[[[133.6634,34.5179],[133.6627,34.5175],[133.6626,34.5182],[133.6634,34.5179]]],[[[133.8259,34.6667],[133.8354,34.6614],[133.8349,34.6593],[133.8377,34.655],[133.8356,34.6545],[133.8366,34.6516],[133.8318,34.6509],[133.8366,34.6373],[133.8375,34.6354],[133.839,34.6357],[133.8391,34.6339],[133.8358,34.6341],[133.8355,34.6306],[133.8332,34.628],[133.8303,34.6279],[133.8248,34.6239],[133.8182,34.6211],[133.8161,34.6183],[133.8142,34.6187],[133.8132,34.6164],[133.8139,34.6128],[133.8093,34.6112],[133.8041,34.6114],[133.8018,34.6088],[133.8052,34.6045],[133.8055,34.6004],[133.8072,34.5967],[133.815,34.5989],[133.8244,34.5963],[133.8246,34.5906],[133.8321,34.594],[133.8383,34.5992],[133.8436,34.5902],[133.8432,34.5813],[133.8424,34.5788],[133.8331,34.5685],[133.8292,34.5686],[133.8257,34.5666],[133.8305,34.5628],[133.8335,34.5549],[133.8274,34.5519],[133.8195,34.5508],[133.8162,34.5473],[133.8208,34.5469],[133.8215,34.5445],[133.8241,34.5434],[133.826,34.5372],[133.8272,34.5374],[133.8297,34.5334],[133.8379,34.5357],[133.8394,34.5339],[133.8416,34.5338],[133.8429,34.5307],[133.8458,34.529],[133.85,34.5319],[133.852,34.5295],[133.85,34.527],[133.8514,34.5213],[133.8538,34.5197],[133.8563,34.5209],[133.859,34.5188],[133.8608,34.5187],[133.8621,34.52],[133.866,34.5194],[133.8664,34.5108],[133.869,34.5091],[133.8679,34.5061],[133.8697,34.5048],[133.8688,34.5031],[133.8702,34.5],[133.8671,34.496],[133.8694,34.496],[133.8704,34.4931],[133.8675,34.4926],[133.867,34.4905],[133.8671,34.4925],[133.8645,34.4924],[133.8633,34.494],[133.8606,34.493],[133.8636,34.4924],[133.8637,34.4901],[133.8623,34.4892],[133.8631,34.4867],[133.8624,34.4857],[133.8606,34.486],[133.8619,34.4838],[133.8584,34.4819],[133.8618,34.4828],[133.8607,34.4807],[133.8624,34.4804],[133.8622,34.4782],[133.8636,34.4764],[133.8671,34.4751],[133.871,34.4765],[133.8778,34.4731],[133.8777,34.4718],[133.8762,34.4714],[133.8762,34.4679],[133.8782,34.4644],[133.8822,34.462],[133.8818,34.4589],[133.8801,34.4568],[133.8671,34.4673],[133.8631,34.4672],[133.8626,34.4684],[133.8628,34.4673],[133.8601,34.4669],[133.8598,34.468],[133.8603,34.4651],[133.8597,34.4669],[133.8582,34.4667],[133.856,34.4694],[133.8473,34.4698],[133.8482,34.4707],[133.8473,34.4708],[133.8461,34.4705],[133.8472,34.4695],[133.8438,34.4701],[133.8404,34.4689],[133.8365,34.4714],[133.8357,34.4702],[133.836,34.4711],[133.8378,34.4723],[133.8365,34.4746],[133.8338,34.4743],[133.8329,34.473],[133.8348,34.471],[133.8316,34.4701],[133.8293,34.4751],[133.8303,34.4758],[133.8296,34.4757],[133.8275,34.4743],[133.8291,34.4751],[133.8301,34.473],[133.8267,34.4708],[133.8284,34.4709],[133.8278,34.4705],[133.8207,34.4686],[133.8203,34.4677],[133.8199,34.4696],[133.819,34.4693],[133.8197,34.4678],[133.8174,34.4669],[133.8176,34.4663],[133.8175,34.466],[133.8173,34.4669],[133.8156,34.468],[133.8151,34.4678],[133.815,34.4665],[133.8152,34.4663],[133.8168,34.4664],[133.8152,34.4663],[133.8178,34.4644],[133.814,34.4615],[133.8148,34.4601],[133.8087,34.4615],[133.8075,34.4577],[133.8086,34.4588],[133.811,34.4585],[133.8098,34.4559],[133.81,34.4526],[133.811,34.4522],[133.8094,34.45],[133.8107,34.4453],[133.8121,34.4456],[133.8129,34.4452],[133.8112,34.4454],[133.8124,34.4419],[133.8113,34.4423],[133.8117,34.4407],[133.8143,34.4406],[133.8132,34.4417],[133.8143,34.4422],[133.8136,34.4435],[133.8163,34.4392],[133.8143,34.4405],[133.8132,34.44],[133.8139,34.4386],[133.8151,34.4376],[133.816,34.4386],[133.8155,34.4376],[133.8183,34.4361],[133.8224,34.4297],[133.8207,34.4292],[133.8174,34.4319],[133.8125,34.432],[133.8061,34.435],[133.8071,34.4359],[133.8061,34.4365],[133.8051,34.4363],[133.8061,34.4355],[133.8023,34.4372],[133.8021,34.4359],[133.8003,34.4355],[133.7991,34.4357],[133.8008,34.4362],[133.7948,34.4363],[133.7945,34.4375],[133.791,34.4396],[133.7902,34.4394],[133.7908,34.438],[133.7888,34.4375],[133.7902,34.4374],[133.7894,34.4362],[133.7871,34.4354],[133.7852,34.4361],[133.7841,34.438],[133.7812,34.4395],[133.781,34.4432],[133.78,34.443],[133.7804,34.441],[133.78,34.4431],[133.781,34.4432],[133.7806,34.4454],[133.7804,34.4442],[133.7797,34.4436],[133.7794,34.447],[133.776,34.4492],[133.7755,34.4509],[133.7752,34.4497],[133.7748,34.4528],[133.7713,34.4553],[133.7707,34.4571],[133.7734,34.457],[133.7751,34.4581],[133.7739,34.4586],[133.7753,34.4589],[133.7742,34.4623],[133.773,34.4629],[133.7732,34.4614],[133.7724,34.4624],[133.767,34.4626],[133.7669,34.4693],[133.7662,34.4677],[133.766,34.4702],[133.7668,34.4703],[133.7666,34.4723],[133.7635,34.4727],[133.763,34.47],[133.7602,34.4702],[133.76,34.4686],[133.7596,34.4702],[133.7594,34.4684],[133.7581,34.4685],[133.7586,34.4727],[133.7567,34.4729],[133.7563,34.4733],[133.7582,34.4729],[133.759,34.4753],[133.7585,34.4762],[133.7571,34.4758],[133.7581,34.4748],[133.7561,34.476],[133.7572,34.477],[133.7572,34.4821],[133.7596,34.4858],[133.7511,34.4877],[133.7483,34.4895],[133.7429,34.5012],[133.7426,34.5014],[133.7432,34.5087],[133.7454,34.5119],[133.7435,34.5125],[133.739,34.5176],[133.7396,34.5252],[133.7379,34.5248],[133.7373,34.5232],[133.7365,34.5171],[133.7371,34.5086],[133.7351,34.5066],[133.735,34.4986],[133.7296,34.4986],[133.7217,34.5009],[133.7217,34.5039],[133.719,34.5039],[133.719,34.4964],[133.7372,34.4906],[133.7434,34.4706],[133.7411,34.4701],[133.7374,34.4708],[133.7328,34.4746],[133.7312,34.471],[133.7251,34.4729],[133.7245,34.4716],[133.7336,34.4686],[133.7244,34.4715],[133.725,34.4729],[133.72,34.4745],[133.7194,34.4731],[133.7209,34.4726],[133.704,34.4778],[133.7053,34.5231],[133.6908,34.5227],[133.6894,34.5237],[133.6897,34.5255],[133.6876,34.5256],[133.6789,34.5243],[133.6787,34.5231],[133.6843,34.5236],[133.6907,34.5196],[133.6903,34.5048],[133.6905,34.5124],[133.684,34.5125],[133.6841,34.5071],[133.6702,34.5074],[133.6704,34.5127],[133.6758,34.5149],[133.6759,34.5138],[133.6771,34.5137],[133.677,34.5183],[133.6698,34.5178],[133.6697,34.5192],[133.6598,34.5198],[133.6594,34.5208],[133.6569,34.5157],[133.6549,34.5162],[133.648,34.5121],[133.6496,34.5117],[133.649,34.5097],[133.6512,34.5101],[133.6478,34.5057],[133.6487,34.504],[133.6413,34.5045],[133.6416,34.5052],[133.6412,34.5045],[133.642,34.5032],[133.6401,34.5021],[133.6418,34.5032],[133.6412,34.5043],[133.6401,34.5029],[133.6411,34.5043],[133.6405,34.505],[133.6383,34.5041],[133.6397,34.5025],[133.6386,34.5025],[133.6371,34.5004],[133.6366,34.5017],[133.6306,34.5022],[133.6281,34.5012],[133.6288,34.4997],[133.6279,34.5015],[133.6264,34.5015],[133.6233,34.4982],[133.6235,34.4959],[133.6222,34.494],[133.6173,34.4913],[133.6162,34.4942],[133.6147,34.495],[133.6076,34.4954],[133.6062,34.4944],[133.6037,34.4951],[133.6025,34.5028],[133.6056,34.5032],[133.6093,34.5068],[133.6175,34.5073],[133.6184,34.5101],[133.6213,34.5108],[133.6231,34.513],[133.6216,34.5192],[133.6238,34.5188],[133.6271,34.5222],[133.6293,34.5206],[133.631,34.5208],[133.6309,34.524],[133.6359,34.5303],[133.6367,34.5349],[133.6402,34.5366],[133.6404,34.5393],[133.6502,34.5453],[133.6427,34.5481],[133.6445,34.5498],[133.6442,34.5512],[133.6461,34.5541],[133.6477,34.5542],[133.6479,34.5572],[133.6386,34.5604],[133.6384,34.5627],[133.6398,34.5643],[133.6371,34.5658],[133.6367,34.5694],[133.6297,34.5746],[133.6268,34.5751],[133.6229,34.579],[133.6248,34.582],[133.6323,34.5837],[133.6361,34.5833],[133.6374,34.5856],[133.637,34.5871],[133.6386,34.5889],[133.6442,34.5934],[133.6465,34.5934],[133.6494,34.5962],[133.6422,34.6023],[133.6378,34.6082],[133.6355,34.6201],[133.6319,34.628],[133.6336,34.6305],[133.632,34.6341],[133.6339,34.6378],[133.634,34.6398],[133.6321,34.6418],[133.6328,34.6426],[133.6376,34.6448],[133.6442,34.6453],[133.6451,34.6466],[133.6496,34.6452],[133.6619,34.6509],[133.6641,34.6483],[133.6666,34.6494],[133.6688,34.6549],[133.6736,34.6576],[133.6753,34.6602],[133.6787,34.6606],[133.6792,34.6588],[133.682,34.6576],[133.6865,34.6613],[133.689,34.6614],[133.6892,34.6635],[133.6932,34.6644],[133.6967,34.6594],[133.7005,34.6588],[133.7019,34.657],[133.7052,34.6583],[133.7059,34.657],[133.7109,34.6557],[133.7148,34.6571],[133.7168,34.6591],[133.7168,34.6563],[133.7235,34.6461],[133.7272,34.6469],[133.7277,34.6393],[133.7263,34.6308],[133.7311,34.6222],[133.7391,34.6244],[133.7459,34.6223],[133.7492,34.626],[133.752,34.6267],[133.7572,34.6314],[133.7547,34.634],[133.7513,34.6343],[133.753,34.6355],[133.7524,34.6369],[133.7544,34.6372],[133.7579,34.6418],[133.7624,34.6432],[133.7626,34.6448],[133.7638,34.6448],[133.7641,34.6429],[133.7665,34.6424],[133.7693,34.6402],[133.7708,34.6402],[133.7762,34.6446],[133.7803,34.6445],[133.7822,34.6424],[133.7845,34.6435],[133.7885,34.6421],[133.7903,34.6427],[133.7931,34.6404],[133.7936,34.6385],[133.7988,34.6405],[133.8008,34.643],[133.7991,34.6441],[133.7982,34.6479],[133.8004,34.649],[133.7988,34.6537],[133.8009,34.6559],[133.8013,34.6626],[133.8067,34.6653],[133.8119,34.6664],[133.8132,34.6678],[133.8249,34.6694],[133.8259,34.6667]]],[[[133.76,34.431],[133.7632,34.4311],[133.7632,34.4284],[133.7644,34.4273],[133.7693,34.4257],[133.7747,34.4267],[133.7769,34.4216],[133.7727,34.4211],[133.7699,34.4187],[133.764,34.4198],[133.7618,34.4214],[133.7621,34.4262],[133.7601,34.4269],[133.7607,34.4295],[133.76,34.431]]],[[[133.7639,34.4286],[133.7645,34.4279],[133.7638,34.4286],[133.7639,34.4286]]],[[[133.8057,34.4345],[133.8057,34.4346],[133.8064,34.4346],[133.8057,34.4345]]],[[[133.7992,34.4353],[133.7986,34.4354],[133.7992,34.4353],[133.7992,34.4353]]],[[[133.798,34.4354],[133.7973,34.4355],[133.798,34.4355],[133.798,34.4354]]],[[[133.8024,34.4361],[133.8058,34.435],[133.8025,34.4359],[133.8024,34.4361]]],[[[133.8027,34.4356],[133.802,34.4355],[133.8017,34.4357],[133.8027,34.4356]]],[[[133.7988,34.4357],[133.7978,34.4358],[133.7989,34.4357],[133.7988,34.4357]]],[[[133.7917,34.4379],[133.7929,34.4377],[133.7942,34.4369],[133.7942,34.4368],[133.7917,34.4379]]],[[[133.7595,34.4431],[133.7588,34.4425],[133.7565,34.444],[133.7576,34.4443],[133.7595,34.4431]]],[[[133.8127,34.4449],[133.8132,34.4426],[133.8125,34.4446],[133.8127,34.4449]]],[[[133.8133,34.4454],[133.8134,34.4447],[133.8133,34.4447],[133.8133,34.4454]]],[[[133.7533,34.4464],[133.7534,34.4465],[133.7534,34.4464],[133.7533,34.4464]]],[[[133.7546,34.4479],[133.7546,34.4477],[133.7545,34.4479],[133.7546,34.4479]]],[[[133.7513,34.4492],[133.7543,34.4478],[133.7537,34.4469],[133.7513,34.4492]]],[[[133.8113,34.4455],[133.8113,34.4504],[133.8109,34.451],[133.8114,34.4504],[133.8116,34.4481],[133.8116,34.4465],[133.8113,34.4455]]],[[[133.8112,34.4488],[133.8113,34.4481],[133.8112,34.4481],[133.8112,34.4488]]],[[[133.7755,34.4499],[133.7757,34.4499],[133.7757,34.4499],[133.7755,34.4499]]],[[[133.7501,34.4494],[133.7477,34.4503],[133.7477,34.4516],[133.7501,34.4494]]],[[[133.7748,34.4508],[133.7742,34.4516],[133.774,34.4519],[133.7742,34.4516],[133.7748,34.4508]]],[[[133.7701,34.4545],[133.7699,34.4542],[133.7699,34.4544],[133.7701,34.4545]]],[[[133.8114,34.4582],[133.8141,34.4587],[133.8114,34.4582],[133.8114,34.4582]]],[[[133.8089,34.4593],[133.81,34.459],[133.8099,34.459],[133.8089,34.4593]]],[[[133.774,34.4602],[133.7742,34.459],[133.7735,34.4611],[133.774,34.4602]]],[[[133.773,34.4606],[133.7728,34.4613],[133.7731,34.4607],[133.773,34.4606]]],[[[133.7731,34.4624],[133.7734,34.4615],[133.7731,34.4624],[133.7731,34.4624]]],[[[133.7742,34.462],[133.7737,34.4624],[133.7733,34.4626],[133.774,34.4623],[133.7741,34.4622],[133.7742,34.462]]],[[[133.7611,34.4641],[133.7627,34.463],[133.7622,34.4622],[133.7607,34.462],[133.7611,34.4641]]],[[[133.7488,34.4881],[133.7488,34.4886],[133.749,34.4885],[133.7488,34.4881]]],[[[133.8325,34.4175],[133.8326,34.4174],[133.8326,34.4174],[133.8325,34.4175]]],[[[133.833,34.4175],[133.833,34.4175],[133.833,34.4176],[133.833,34.4175]]],[[[133.83,34.4183],[133.8299,34.4185],[133.8299,34.4186],[133.83,34.4183]]],[[[133.8368,34.4253],[133.8346,34.4213],[133.833,34.4206],[133.8319,34.4174],[133.8274,34.4228],[133.8282,34.424],[133.8337,34.4237],[133.8368,34.4253]]],[[[133.8374,34.4225],[133.8374,34.4221],[133.8368,34.4223],[133.8374,34.4225]]],[[[133.8218,34.4235],[133.8219,34.4235],[133.8218,34.4234],[133.8218,34.4235]]],[[[133.8176,34.4259],[133.8186,34.4248],[133.818,34.4242],[133.8169,34.4241],[133.8176,34.4243],[133.814,34.4257],[133.8176,34.4259]]],[[[133.8536,34.4501],[133.8553,34.448],[133.8535,34.4449],[133.8508,34.4492],[133.8536,34.4501]]],[[[133.8652,34.4507],[133.8651,34.451],[133.8653,34.4507],[133.8652,34.4507]]],[[[133.8646,34.4514],[133.8648,34.4508],[133.8644,34.4513],[133.8646,34.4514]]],[[[133.8175,34.4659],[133.8181,34.4652],[133.8179,34.4651],[133.8175,34.4659]]],[[[133.8165,34.4665],[133.8166,34.4665],[133.8166,34.4665],[133.8165,34.4665]]],[[[133.8161,34.4665],[133.816,34.4665],[133.816,34.4666],[133.8161,34.4665]]],[[[133.8162,34.4665],[133.8163,34.4666],[133.8163,34.4665],[133.8162,34.4665]]],[[[133.8164,34.4666],[133.8164,34.4665],[133.8164,34.4665],[133.8164,34.4666]]],[[[133.861,34.4667],[133.8617,34.4665],[133.862,34.4665],[133.8617,34.4664],[133.861,34.4667]]],[[[133.8164,34.4666],[133.8164,34.4667],[133.8164,34.4666],[133.8164,34.4666]]],[[[133.8156,34.4669],[133.8153,34.4667],[133.8152,34.4667],[133.8156,34.4669]]],[[[133.8169,34.4669],[133.8168,34.467],[133.8169,34.4669],[133.8169,34.4669]]],[[[133.8631,34.467],[133.8631,34.467],[133.8631,34.467],[133.8631,34.467]]],[[[133.8167,34.4671],[133.8167,34.467],[133.8167,34.4671],[133.8167,34.4671]]],[[[133.8167,34.4671],[133.8167,34.4671],[133.8166,34.4671],[133.8167,34.4671]]],[[[133.8631,34.467],[133.8632,34.4671],[133.8631,34.467],[133.8631,34.467]]],[[[133.8166,34.4672],[133.8166,34.4672],[133.8166,34.4671],[133.8166,34.4672]]],[[[133.8164,34.4673],[133.8163,34.4674],[133.8164,34.4673],[133.8164,34.4673]]],[[[133.8156,34.468],[133.8159,34.4677],[133.8159,34.4677],[133.8159,34.4677],[133.8156,34.468]]],[[[133.8289,34.4713],[133.8302,34.4721],[133.8289,34.4713],[133.8289,34.4713]]]]}},{"type":"Feature","properties":{"code":"33204","name":"玉野市","pref_code":"33","pref":"岡山県"},"geometry":{"type":"MultiPolygon","coordinates":[[[[133.9234,34.4218],[133.9253,34.4188],[133.9197,34.4192],[133.9207,34.4209],[133.9234,34.4218]]],[[[133.9434,34.455],[133.9434,34.455],[133.9434,34.455],[133.9434,34.455]]],[[[133.9399,34.4809],[133.9401,34.4814],[133.9392,34.4802],[133.9399,34.4809]]],[[[133.9644,34.5026],[133.9636,34.5024],[133.964,34.5029],[133.9644,34.5026]]],[[[133.9636,34.5031],[133.9635,34.5035],[133.9638,34.5031],[133.9636,34.5031]]],[[[133.9633,34.5037],[133.9628,34.5037],[133.9629,34.5043],[133.9633,34.5037]]],[[[133.9575,34.5056],[133.9574,34.5055],[133.9574,34.5055],[133.9575,34.5056]]],[[[133.9972,34.5123],[133.997,34.5124],[133.9972,34.5124],[133.9972,34.5123]]],[[[134.0051,34.5131],[134.0051,34.5131],[134.0051,34.5131],[134.0051,34.5131]]],[[[134.0051,34.5132],[134.0051,34.5133],[134.0051,34.5132],[134.0051,34.5132]]],[[[134.0291,34.5784],[134.0342,34.5738],[134.0323,34.5722],[134.0298,34.5669],[134.0293,34.5642],[134.032,34.5624],[134.0321,34.5616],[134.0319,34.5624],[134.0301,34.5621],[134.0316,34.5618],[134.0302,34.5613],[134.0299,34.5594],[134.0312,34.5579],[134.034,34.558],[134.0292,34.5566],[134.0286,34.5545],[134.0291,34.553],[134.0323,34.553],[134.032,34.5515],[134.0293,34.5506],[134.0262,34.5533],[134.0245,34.5528],[134.021,34.5483],[134.0222,34.5452],[134.019,34.5438],[134.0152,34.5458],[134.0165,34.5481],[134.0147,34.5507],[134.0136,34.5508],[134.0133,34.549],[134.0108,34.5488],[134.0126,34.5491],[134.0127,34.55],[134.0106,34.5497],[134.0113,34.5507],[134.0097,34.5507],[134.0102,34.5495],[134.0096,34.5506],[134.0084,34.5494],[134.0098,34.5492],[134.0105,34.5485],[134.0088,34.549],[134.0081,34.5497],[134.0042,34.5445],[134.0046,34.5453],[134.0034,34.5458],[134.0035,34.5448],[134.0011,34.5456],[133.9954,34.5334],[134.0012,34.5296],[133.9957,34.528],[133.9958,34.5252],[133.9979,34.5249],[133.9979,34.5209],[134.0006,34.5187],[134.0026,34.5199],[134.0012,34.5183],[134.0019,34.5171],[134.0057,34.5179],[134.0073,34.5165],[134.0051,34.5152],[134.0058,34.5141],[134.0034,34.5115],[133.9994,34.5162],[133.9932,34.5185],[133.9915,34.5241],[133.9892,34.5265],[133.988,34.5302],[133.9796,34.5319],[133.9794,34.5329],[133.9694,34.5305],[133.963,34.5261],[133.961,34.5228],[133.9595,34.5227],[133.9602,34.5214],[133.9614,34.5226],[133.9602,34.5214],[133.9624,34.5187],[133.9583,34.5177],[133.9569,34.5147],[133.9617,34.5135],[133.9624,34.5155],[133.9616,34.5158],[133.9624,34.5156],[133.9602,34.5094],[133.9574,34.5068],[133.9578,34.5059],[133.9568,34.5069],[133.9565,34.506],[133.9589,34.5026],[133.9602,34.5024],[133.9592,34.5015],[133.963,34.5],[133.9623,34.499],[133.9648,34.495],[133.962,34.4921],[133.9575,34.4924],[133.9578,34.4909],[133.9576,34.4906],[133.9572,34.4904],[133.9574,34.4924],[133.9556,34.4934],[133.9547,34.4911],[133.956,34.4903],[133.9529,34.4903],[133.9529,34.4927],[133.9503,34.4929],[133.9504,34.4888],[133.9491,34.4864],[133.9481,34.487],[133.949,34.4881],[133.9462,34.488],[133.9482,34.4859],[133.9477,34.4848],[133.9443,34.4827],[133.9381,34.4811],[133.9379,34.4797],[133.9388,34.4798],[133.9377,34.4792],[133.9393,34.4754],[133.9352,34.4747],[133.9344,34.4732],[133.9354,34.4722],[133.9368,34.4726],[133.9355,34.472],[133.9389,34.4691],[133.9403,34.4654],[133.9435,34.4644],[133.9426,34.4595],[133.9416,34.4592],[133.9435,34.4562],[133.9432,34.4553],[133.9373,34.4545],[133.9369,34.4519],[133.9329,34.4513],[133.9324,34.453],[133.9304,34.4531],[133.9322,34.4543],[133.9311,34.4553],[133.9298,34.4543],[133.9304,34.4537],[133.9293,34.4542],[133.93,34.4548],[133.928,34.4562],[133.9269,34.4563],[133.925,34.4549],[133.9265,34.453],[133.9293,34.4528],[133.9297,34.4524],[133.9297,34.4524],[133.9278,34.4511],[133.9192,34.4498],[133.9139,34.4526],[133.9134,34.451],[133.91,34.4509],[133.8976,34.4574],[133.8991,34.4563],[133.881,34.4565],[133.8801,34.4568],[133.8818,34.4589],[133.8822,34.462],[133.8782,34.4644],[133.8762,34.4679],[133.8762,34.4714],[133.8777,34.4718],[133.8778,34.4731],[133.871,34.4765],[133.8671,34.4751],[133.8636,34.4764],[133.8622,34.4782],[133.8624,34.4804],[133.8607,34.4807],[133.8618,34.4828],[133.8585,34.4817],[133.8619,34.4838],[133.8606,34.486],[133.8624,34.4857],[133.8631,34.4867],[133.8623,34.4892],[133.8637,34.4901],[133.8636,34.4924],[133.8606,34.493],[133.8633,34.494],[133.8645,34.4924],[133.8671,34.4925],[133.867,34.4905],[133.8675,34.4926],[133.8704,34.4931],[133.8695,34.496],[133.8671,34.496],[133.8702,34.5],[133.8688,34.5031],[133.8697,34.5048],[133.8679,34.5061],[133.869,34.5091],[133.8664,34.5108],[133.8658,34.5165],[133.8667,34.5187],[133.8744,34.5216],[133.8753,34.5242],[133.8867,34.5248],[133.8862,34.5322],[133.8879,34.5349],[133.8863,34.5356],[133.8872,34.5368],[133.8848,34.5379],[133.8933,34.5429],[133.8947,34.5413],[133.8972,34.5428],[133.9022,34.5369],[133.9197,34.5449],[133.9318,34.5631],[133.9387,34.5764],[133.951,34.5705],[133.9562,34.5704],[133.9581,34.5671],[133.9617,34.5663],[133.9648,34.5616],[133.9646,34.5591],[133.9706,34.5575],[133.9771,34.5598],[133.9809,34.5639],[133.9825,34.5667],[133.9812,34.5686],[133.9827,34.5703],[133.9822,34.5721],[133.9854,34.5749],[133.9861,34.5775],[133.9907,34.5758],[133.9957,34.5776],[133.9973,34.5763],[134.0046,34.577],[134.0065,34.5754],[134.0101,34.575],[134.0144,34.5777],[134.0157,34.5769],[134.0172,34.5778],[134.0227,34.5752],[134.0291,34.5784]]],[[[134.0055,34.5151],[134.0056,34.5152],[134.0056,34.5152],[134.0055,34.5151]]],[[[133.9581,34.5167],[133.9592,34.5164],[133.9611,34.5159],[133.9581,34.5166],[133.9575,34.5152],[133.9581,34.5167]]],[[[134.0056,34.518],[134.0057,34.518],[134.0056,34.518],[134.0056,34.518]]],[[[134.0057,34.518],[134.0057,34.518],[134.0057,34.518],[134.0057,34.518]]],[[[134.018,34.507],[134.0239,34.5068],[134.0212,34.5036],[134.0194,34.5033],[134.0191,34.4984],[134.0166,34.4959],[134.0148,34.4967],[134.012,34.4962],[134.0104,34.4984],[134.0075,34.4981],[134.0116,34.503],[134.0144,34.5032],[134.018,34.507]]],[[[134.013,34.5033],[134.0128,34.5032],[134.0132,34.5033],[134.013,34.5033]]],[[[134.0133,34.5037],[134.0133,34.5037],[134.0138,34.5038],[134.0133,34.5037]]],[[[134.0061,34.5117],[134.0066,34.5114],[134.0063,34.5112],[134.0061,34.5117]]],[[[134.0061,34.5117],[134.0061,34.5117],[134.0062,34.5117],[134.0061,34.5117]]],[[[134.0063,34.5118],[134.0063,34.5118],[134.0063,34.5118],[134.0063,34.5118]]],[[[134.0062,34.5118],[134.0063,34.5118],[134.0062,34.5118],[134.0062,34.5118]]],[[[134.0064,34.5119],[134.0064,34.5119],[134.0064,34.5119],[134.0064,34.5119]]],[[[134.0165,34.5136],[134.0175,34.5126],[134.0158,34.5118],[134.0152,34.5123],[134.0165,34.5136]]],[[[134.017,34.5146],[134.017,34.5147],[134.017,34.5147],[134.017,34.5146]]],[[[134.0172,34.5148],[134.0171,34.5146],[134.017,34.5147],[134.0172,34.5148]]],[[[134.0074,34.516],[134.0074,34.5161],[134.0074,34.516],[134.0074,34.516]]],[[[134.0235,34.5464],[134.0243,34.546],[134.0232,34.5459],[134.0235,34.5464]]],[[[134.0114,34.5483],[134.0114,34.5483],[134.0111,34.548],[134.0114,34.5483]]]]}},{"type":"Feature","properties":{"code":"33205","name":"笠岡市","pref_code":"33","pref":"岡山県"},"geometry":{"type":"MultiPolygon","coordinates":[[[[133.489,34.3913],[133.4889,34.3918],[133.4891,34.3916],[133.489,34.3913]]],[[[133.4908,34.4319],[133.4899,34.4306],[133.4893,34.4305],[133.4892,34.4318],[133.4908,34.4319]]],[[[133.4908,34.4325],[133.4906,34.4327],[133.4908,34.4329],[133.4908,34.4325]]],[[[133.4882,34.4409],[133.4882,34.4408],[133.4882,34.4408],[133.4882,34.4409]]],[[[133.4869,34.4408],[133.4869,34.441],[133.487,34.441],[133.4869,34.4408]]],[[[133.4881,34.4409],[133.4881,34.441],[133.4881,34.4409],[133.4881,34.4409]]],[[[133.4832,34.4412],[133.4833,34.4413],[133.4833,34.4413],[133.4832,34.4412]]],[[[133.4741,34.4413],[133.4741,34.4414],[133.4741,34.4414],[133.4742,34.4413],[133.4741,34.4413]]],[[[133.4833,34.4413],[133.4834,34.4414],[133.4834,34.4413],[133.4833,34.4413]]],[[[133.474,34.4413],[133.474,34.4414],[133.4741,34.4415],[133.474,34.4413]]],[[[133.4742,34.4415],[133.4742,34.4415],[133.4742,34.4415],[133.4742,34.4415]]],[[[133.4918,34.4421],[133.4918,34.4421],[133.4918,34.4421],[133.4918,34.4421]]],[[[133.4918,34.4421],[133.4918,34.4422],[133.4918,34.4421],[133.4918,34.4421]]],[[[133.4917,34.4422],[133.4917,34.4422],[133.4917,34.4422],[133.4917,34.4422]]],[[[133.4791,34.4543],[133.4792,34.4543],[133.4789,34.4539],[133.4791,34.4543]]],[[[133.4796,34.4555],[133.4797,34.4554],[133.4792,34.4545],[133.4796,34.4555]]],[[[133.4813,34.4562],[133.48,34.4556],[133.48,34.4556],[133.4813,34.4562]]],[[[133.4827,34.4569],[133.4819,34.4564],[133.4818,34.4564],[133.4827,34.4569]]],[[[133.4832,34.4571],[133.4842,34.4574],[133.4832,34.4571],[133.4832,34.4571]]],[[[133.4844,34.4576],[133.485,34.4578],[133.4844,34.4576],[133.4844,34.4576]]],[[[133.4863,34.4583],[133.4857,34.4581],[133.487,34.4586],[133.4863,34.4583]]],[[[133.4877,34.459],[133.4885,34.4594],[133.4877,34.459],[133.4877,34.459]]],[[[133.4564,34.4685],[133.4563,34.4687],[133.4564,34.4687],[133.4564,34.4685]]],[[[133.4976,34.3503],[133.5001,34.3498],[133.4997,34.3489],[133.5001,34.3472],[133.5029,34.3464],[133.5038,34.3449],[133.5077,34.3445],[133.507,34.3442],[133.5079,34.3428],[133.5097,34.3435],[133.5077,34.3368],[133.5082,34.3352],[133.5081,34.3347],[133.5049,34.3369],[133.503,34.3364],[133.5009,34.3403],[133.4997,34.34],[133.5002,34.3394],[133.4972,34.3404],[133.4994,34.3446],[133.499,34.3456],[133.4968,34.3455],[133.4979,34.3472],[133.4976,34.3503]]],[[[133.5082,34.3439],[133.5092,34.3435],[133.5082,34.3438],[133.5082,34.3439]]],[[[133.498,34.3446],[133.4983,34.3442],[133.4979,34.3445],[133.498,34.3446]]],[[[133.4982,34.3454],[133.4985,34.3448],[133.4981,34.3454],[133.4982,34.3454]]],[[[133.4999,34.3487],[133.5,34.3484],[133.5001,34.3485],[133.5001,34.3484],[133.5,34.3484],[133.4999,34.3487]]],[[[133.4949,34.3846],[133.4979,34.3847],[133.4984,34.3832],[133.5008,34.3829],[133.4998,34.3819],[133.4968,34.3822],[133.4949,34.3846]]],[[[133.497,34.3872],[133.4972,34.3874],[133.4972,34.3872],[133.497,34.3872]]],[[[133.5088,34.3959],[133.5089,34.3957],[133.5087,34.3959],[133.5088,34.3959]]],[[[133.5059,34.4074],[133.5058,34.4074],[133.5058,34.4074],[133.5059,34.4074]]],[[[133.5092,34.4089],[133.5094,34.4087],[133.5092,34.4087],[133.5092,34.4089]]],[[[133.4959,34.4212],[133.4956,34.4218],[133.4959,34.4218],[133.4959,34.4212]]],[[[133.4957,34.425],[133.4957,34.4254],[133.4957,34.425],[133.4957,34.425]]],[[[133.5125,34.4349],[133.5148,34.4331],[133.5174,34.4349],[133.515,34.4308],[133.516,34.4288],[133.5116,34.426],[133.5089,34.4261],[133.5057,34.4241],[133.5041,34.4238],[133.5032,34.4252],[133.4998,34.4239],[133.5003,34.4285],[133.5013,34.4288],[133.5009,34.4311],[133.5036,34.4299],[133.5031,34.4318],[133.5037,34.4312],[133.5068,34.4334],[133.5085,34.4319],[133.5108,34.4318],[133.5125,34.4349]]],[[[133.4966,34.4297],[133.4967,34.4301],[133.4969,34.4301],[133.4966,34.4297]]],[[[133.5004,34.436],[133.4987,34.4304],[133.4959,34.4311],[133.4978,34.4329],[133.4976,34.4352],[133.4988,34.437],[133.5004,34.436]]],[[[133.5079,34.4344],[133.5074,34.434],[133.5074,34.4344],[133.5079,34.4344]]],[[[133.5041,34.4403],[133.5044,34.4381],[133.5027,34.4365],[133.5019,34.44],[133.5041,34.4403]]],[[[133.5011,34.4403],[133.501,34.44],[133.5005,34.4402],[133.5011,34.4403]]],[[[133.5016,34.4401],[133.5017,34.4404],[133.5017,34.4401],[133.5016,34.4401]]],[[[133.5093,34.4489],[133.5092,34.4493],[133.5094,34.4489],[133.5093,34.4489]]],[[[133.5098,34.4487],[133.5098,34.4488],[133.5104,34.4496],[133.5098,34.4487]]],[[[133.5036,34.4977],[133.5022,34.4987],[133.5025,34.4986],[133.5036,34.4977]]],[[[133.5521,34.5998],[133.5552,34.5937],[133.561,34.5923],[133.563,34.5899],[133.5638,34.5868],[133.5723,34.5841],[133.5665,34.5776],[133.567,34.5757],[133.5658,34.5731],[133.5629,34.5713],[133.563,34.57],[133.5614,34.5686],[133.5625,34.5626],[133.5609,34.562],[133.5611,34.5593],[133.5596,34.558],[133.559,34.5555],[133.555,34.5517],[133.5511,34.5499],[133.5462,34.5511],[133.543,34.5503],[133.5423,34.5514],[133.5407,34.5507],[133.5409,34.547],[133.5457,34.5451],[133.5439,34.5438],[133.5446,34.5415],[133.5434,34.5402],[133.5425,34.535],[133.5455,34.5336],[133.5467,34.53],[133.5496,34.5276],[133.5487,34.5246],[133.5464,34.523],[133.5466,34.5185],[133.5437,34.5187],[133.5455,34.516],[133.544,34.5115],[133.5363,34.507],[133.5362,34.5048],[133.5297,34.4968],[133.5368,34.4947],[133.5376,34.4935],[133.5432,34.4932],[133.5473,34.4912],[133.5539,34.4932],[133.5611,34.4935],[133.5622,34.4895],[133.5603,34.4881],[133.5676,34.4863],[133.5691,34.4843],[133.5687,34.4799],[133.5708,34.476],[133.5711,34.4722],[133.5735,34.4681],[133.5732,34.4659],[133.5692,34.4659],[133.5605,34.4683],[133.5592,34.4671],[133.5594,34.4681],[133.5574,34.4672],[133.5589,34.467],[133.5577,34.4668],[133.5568,34.4653],[133.5576,34.465],[133.5557,34.4657],[133.5534,34.4639],[133.5522,34.4644],[133.5496,34.4629],[133.5402,34.4614],[133.5303,34.4704],[133.5305,34.4719],[133.5295,34.4716],[133.5305,34.4719],[133.5293,34.4777],[133.5245,34.4788],[133.5245,34.4747],[133.5223,34.4752],[133.5218,34.4769],[133.5186,34.4788],[133.518,34.4811],[133.5193,34.4816],[133.5184,34.4825],[133.518,34.4818],[133.5155,34.4889],[133.5171,34.4903],[133.5148,34.49],[133.5082,34.4971],[133.51,34.4988],[133.5094,34.4999],[133.5073,34.4995],[133.5078,34.4982],[133.5064,34.4993],[133.5045,34.499],[133.5034,34.5009],[133.5046,34.5021],[133.5026,34.504],[133.5036,34.5048],[133.5034,34.5048],[133.5016,34.5044],[133.502,34.5013],[133.5011,34.5011],[133.4935,34.5057],[133.4894,34.513],[133.4894,34.5122],[133.4868,34.5142],[133.4851,34.5133],[133.4867,34.5131],[133.4904,34.5089],[133.4889,34.5067],[133.5006,34.4991],[133.5012,34.4998],[133.5008,34.499],[133.5109,34.4871],[133.5148,34.48],[133.5182,34.4779],[133.5185,34.4753],[133.5194,34.4752],[133.5187,34.4743],[133.5199,34.4742],[133.5194,34.4731],[133.527,34.4712],[133.528,34.4683],[133.5246,34.4584],[133.5252,34.4589],[133.5249,34.4577],[133.527,34.4563],[133.5275,34.4539],[133.5241,34.4512],[133.5141,34.449],[133.5092,34.4521],[133.5094,34.4502],[133.5073,34.451],[133.5094,34.4494],[133.5075,34.4502],[133.5072,34.4518],[133.5042,34.4509],[133.5012,34.4519],[133.495,34.4443],[133.4892,34.441],[133.4829,34.4424],[133.4809,34.4416],[133.4776,34.4434],[133.4738,34.4415],[133.4729,34.447],[133.4742,34.45],[133.4733,34.4507],[133.4744,34.4503],[133.4782,34.4535],[133.4823,34.454],[133.4827,34.4555],[133.4818,34.4557],[133.4888,34.457],[133.4903,34.46],[133.4895,34.4596],[133.49,34.4603],[133.4844,34.4659],[133.4835,34.4655],[133.4843,34.4647],[133.4808,34.463],[133.4801,34.4637],[133.4628,34.4545],[133.4563,34.4545],[133.4565,34.4706],[133.455,34.4707],[133.4552,34.4774],[133.4492,34.4775],[133.4471,34.4793],[133.4459,34.4831],[133.449,34.4859],[133.4486,34.4883],[133.4513,34.4903],[133.4515,34.492],[133.4554,34.4949],[133.4564,34.4999],[133.4534,34.5067],[133.4449,34.5059],[133.4452,34.5097],[133.4465,34.5118],[133.45,34.5123],[133.448,34.5157],[133.4485,34.5172],[133.4472,34.5205],[133.4487,34.5214],[133.4501,34.5265],[133.4544,34.5315],[133.4514,34.5384],[133.4487,34.5397],[133.4494,34.5428],[133.4547,34.5448],[133.4606,34.5403],[133.4617,34.5416],[133.4652,34.5423],[133.4651,34.5443],[133.4668,34.545],[133.4666,34.5459],[133.4692,34.5455],[133.4737,34.5479],[133.4771,34.5469],[133.4819,34.5513],[133.4854,34.5514],[133.488,34.553],[133.4899,34.5566],[133.4964,34.5599],[133.5006,34.5602],[133.5015,34.5624],[133.5048,34.5629],[133.5058,34.5669],[133.5038,34.5713],[133.5067,34.5733],[133.505,34.5747],[133.5048,34.5788],[133.5098,34.5825],[133.5105,34.585],[133.5096,34.588],[133.5114,34.5911],[133.5153,34.5911],[133.5202,34.5928],[133.5234,34.5921],[133.5238,34.5958],[133.5253,34.5963],[133.5278,34.5997],[133.5342,34.5992],[133.5356,34.6008],[133.5399,34.6018],[133.5424,34.6038],[133.5484,34.6017],[133.5505,34.5994],[133.5521,34.5998]]],[[[133.5292,34.2997],[133.5292,34.2998],[133.5292,34.2998],[133.5292,34.2997]]],[[[133.5291,34.2998],[133.5289,34.2998],[133.5291,34.2999],[133.5291,34.2998]]],[[[133.5261,34.3032],[133.5263,34.3028],[133.5261,34.3028],[133.5261,34.3032]]],[[[133.5263,34.3034],[133.5262,34.3033],[133.5262,34.3034],[133.5263,34.3034]]],[[[133.5385,34.3096],[133.5402,34.3081],[133.5405,34.3073],[133.5389,34.3072],[133.5368,34.3042],[133.5368,34.3005],[133.5338,34.2985],[133.5291,34.2999],[133.5281,34.3022],[133.5263,34.3028],[133.5267,34.3041],[133.5257,34.3051],[133.5269,34.3081],[133.5359,34.3075],[133.5366,34.3076],[133.5362,34.3085],[133.5369,34.3095],[133.5363,34.3085],[133.5373,34.3079],[133.5385,34.3096]]],[[[133.5176,34.3212],[133.5173,34.3197],[133.5162,34.3199],[133.5165,34.3209],[133.5176,34.3212]]],[[[133.5172,34.352],[133.5226,34.3481],[133.5227,34.3433],[133.5187,34.344],[133.5181,34.3457],[133.5188,34.3448],[133.5197,34.3463],[133.5186,34.3471],[133.5179,34.3463],[133.5185,34.3471],[133.5158,34.3508],[133.5172,34.352]]],[[[133.5136,34.3794],[133.5143,34.3793],[133.5136,34.3792],[133.5136,34.3794]]],[[[133.5158,34.3911],[133.516,34.391],[133.5159,34.3909],[133.5158,34.3911]]],[[[133.5215,34.4158],[133.5271,34.4158],[133.5242,34.4129],[133.5259,34.4108],[133.5249,34.4099],[133.5257,34.4091],[133.5257,34.4067],[133.5256,34.4085],[133.524,34.4088],[133.524,34.4068],[133.5252,34.4068],[133.5235,34.4061],[133.5256,34.4021],[133.5258,34.3992],[133.5219,34.3991],[133.519,34.3942],[133.5138,34.3897],[133.5118,34.3901],[133.5112,34.392],[133.5088,34.3939],[133.5094,34.3971],[133.5052,34.4033],[133.5063,34.4057],[133.5049,34.407],[133.5081,34.4073],[133.5102,34.4063],[133.5122,34.4066],[133.5145,34.4098],[133.513,34.4095],[133.5166,34.4113],[133.5179,34.4102],[133.5169,34.4089],[133.5187,34.4085],[133.5196,34.4139],[133.5215,34.4158]]],[[[133.5244,34.406],[133.5244,34.4059],[133.5243,34.4059],[133.5244,34.406]]],[[[133.5245,34.4061],[133.5245,34.4061],[133.5244,34.4061],[133.5245,34.4061]]],[[[133.5111,34.4064],[133.5103,34.4064],[133.5111,34.4065],[133.5116,34.4067],[133.5118,34.4067],[133.5121,34.4067],[133.5111,34.4064]]],[[[133.5141,34.4113],[133.5134,34.4111],[133.5138,34.4118],[133.5141,34.4113]]],[[[133.5183,34.4115],[133.5168,34.4112],[133.5177,34.4115],[133.5183,34.4115]]],[[[133.5141,34.4166],[133.5142,34.4162],[133.5139,34.4164],[133.5141,34.4166]]],[[[133.5163,34.4209],[133.517,34.42],[133.5155,34.4203],[133.5163,34.4209]]],[[[133.5171,34.4238],[133.5131,34.422],[133.5105,34.422],[133.5138,34.4239],[133.5171,34.4238]]],[[[133.5169,34.4247],[133.5171,34.4248],[133.5171,34.4246],[133.5169,34.4247]]],[[[133.518,34.4349],[133.5179,34.435],[133.5181,34.4349],[133.518,34.4349]]],[[[133.5118,34.4497],[133.5104,34.4497],[133.5099,34.45],[133.5118,34.4497]]],[[[133.5266,34.4734],[133.5254,34.4726],[133.5253,34.4732],[133.5266,34.4734]]],[[[133.5199,34.4758],[133.5199,34.4758],[133.52,34.4758],[133.5199,34.4758]]],[[[133.5377,34.3033],[133.5381,34.3036],[133.5381,34.3036],[133.5377,34.3033]]],[[[133.5384,34.3041],[133.5384,34.3041],[133.5379,34.3045],[133.5384,34.3041]]],[[[133.5372,34.3098],[133.5378,34.3096],[133.5371,34.3098],[133.5372,34.3098]]],[[[133.5371,34.3104],[133.5371,34.3103],[133.5363,34.3097],[133.5371,34.3104]]],[[[133.5513,34.3541],[133.5523,34.3535],[133.5515,34.353],[133.5513,34.3541]]],[[[133.5521,34.3547],[133.5523,34.3545],[133.552,34.3546],[133.5521,34.3547]]],[[[133.552,34.355],[133.5523,34.3549],[133.552,34.3548],[133.552,34.355]]],[[[133.5867,34.3636],[133.5911,34.3614],[133.5911,34.3588],[133.5844,34.3582],[133.5826,34.3538],[133.581,34.3531],[133.5807,34.351],[133.5763,34.3501],[133.5736,34.3477],[133.5671,34.3511],[133.5666,34.3532],[133.5692,34.3538],[133.5689,34.3558],[133.5713,34.3568],[133.5734,34.3596],[133.5746,34.3562],[133.5775,34.356],[133.5795,34.3572],[133.5776,34.3553],[133.5792,34.3552],[133.5788,34.3559],[133.5811,34.3573],[133.5792,34.3586],[133.5803,34.3587],[133.5809,34.3614],[133.582,34.3627],[133.5816,34.3619],[133.5842,34.3616],[133.5824,34.3626],[133.5847,34.3621],[133.5867,34.3636]]],[[[133.5814,34.3632],[133.5831,34.3632],[133.5831,34.3632],[133.5814,34.3632]]],[[[133.5831,34.3718],[133.5834,34.3721],[133.5834,34.3719],[133.5831,34.3718]]],[[[133.5925,34.374],[133.5938,34.3724],[133.5923,34.3724],[133.5925,34.374]]],[[[133.5858,34.372],[133.5837,34.3722],[133.5836,34.3735],[133.5861,34.3758],[133.5873,34.3732],[133.5858,34.372]]],[[[133.5887,34.3813],[133.5858,34.3768],[133.5822,34.3787],[133.583,34.3809],[133.5887,34.3813]]],[[[133.5418,34.4008],[133.545,34.4022],[133.5471,34.4005],[133.5518,34.3931],[133.5524,34.3953],[133.5548,34.3945],[133.5563,34.3964],[133.5577,34.3961],[133.5581,34.3933],[133.556,34.3942],[133.5543,34.393],[133.5536,34.3907],[133.5527,34.3922],[133.551,34.3916],[133.5516,34.3916],[133.5524,34.391],[133.5502,34.391],[133.5501,34.3871],[133.5448,34.3801],[133.5453,34.379],[133.5471,34.3784],[133.5477,34.378],[133.548,34.3775],[133.5452,34.379],[133.545,34.3774],[133.5468,34.3773],[133.5485,34.3754],[133.5514,34.3762],[133.5508,34.3776],[133.5549,34.3748],[133.56,34.3768],[133.5576,34.3744],[133.5603,34.3703],[133.5589,34.3671],[133.5524,34.3674],[133.548,34.3691],[133.5453,34.3666],[133.5392,34.3702],[133.5362,34.3738],[133.5323,34.3732],[133.5308,34.3763],[133.5281,34.3786],[133.5257,34.378],[133.5199,34.382],[133.5168,34.3827],[133.5165,34.3861],[133.5184,34.3869],[133.5191,34.3895],[133.5209,34.3909],[133.5237,34.3916],[133.5259,34.3897],[133.5248,34.3897],[133.5246,34.3884],[133.5275,34.388],[133.5274,34.3888],[133.5307,34.3903],[133.527,34.3909],[133.5296,34.3911],[133.5296,34.3928],[133.5311,34.3921],[133.5329,34.393],[133.5347,34.3962],[133.5343,34.3944],[133.5363,34.3942],[133.5353,34.3943],[133.5372,34.3958],[133.5364,34.3995],[133.5376,34.4012],[133.5418,34.4008]]],[[[133.5539,34.3904],[133.5539,34.3904],[133.5532,34.3902],[133.5539,34.3904]]],[[[133.558,34.3929],[133.5579,34.393],[133.558,34.3929],[133.558,34.3929]]],[[[133.5583,34.3931],[133.5585,34.3932],[133.5585,34.393],[133.5583,34.3931]]],[[[133.5362,34.3985],[133.5362,34.3984],[133.5348,34.3969],[133.5362,34.3985]]],[[[133.5457,34.4023],[133.5459,34.4027],[133.546,34.4027],[133.5457,34.4023]]],[[[133.5361,34.4081],[133.5358,34.4083],[133.5362,34.4083],[133.5361,34.4081]]],[[[133.5578,34.4643],[133.5582,34.4643],[133.5582,34.4643],[133.5578,34.4643]]],[[[133.5597,34.4666],[133.558,34.4647],[133.558,34.4647],[133.5592,34.4665],[133.5597,34.4666]]]]}},{"type":"Feature","properties":{"code":"33211","name":"備前市","pref_code":"33","pref":"岡山県"},"geometry":{"type":"MultiPolygon","coordinates":[[[[134.2533,34.6913],[134.2537,34.6905],[134.2526,34.6908],[134.2533,34.6913]]],[[[134.2636,34.6966],[134.2639,34.6955],[134.2634,34.6965],[134.2636,34.6966]]],[[[134.2826,34.697],[134.2837,34.6965],[134.2832,34.6965],[134.2826,34.697]]],[[[134.2593,34.7067],[134.2641,34.7061],[134.2642,34.7051],[134.2619,34.7031],[134.2643,34.7033],[134.2668,34.7008],[134.2687,34.7012],[134.2714,34.6986],[134.2716,34.6961],[134.2684,34.6951],[134.2682,34.6971],[134.2651,34.6973],[134.263,34.6987],[134.2629,34.697],[134.261,34.696],[134.2621,34.6941],[134.2587,34.6934],[134.2618,34.6916],[134.2598,34.6917],[134.2577,34.69],[134.2553,34.6902],[134.2547,34.6921],[134.2507,34.6925],[134.2542,34.6932],[134.2552,34.6947],[134.2495,34.6957],[134.2511,34.6986],[134.2502,34.6994],[134.2533,34.7021],[134.2503,34.7057],[134.2593,34.7067]]],[[[134.2738,34.7038],[134.2732,34.7042],[134.2731,34.7045],[134.2738,34.7038]]],[[[134.2708,34.7044],[134.271,34.7044],[134.2708,34.7043],[134.2708,34.7044]]],[[[134.2707,34.7045],[134.2708,34.7046],[134.2708,34.7045],[134.2707,34.7045]]],[[[134.265,34.7139],[134.2692,34.7101],[134.2688,34.7086],[134.2663,34.7083],[134.2634,34.7095],[134.262,34.708],[134.2594,34.7079],[134.2474,34.7099],[134.2518,34.7127],[134.265,34.7139]]],[[[134.2078,34.7113],[134.2084,34.7117],[134.2085,34.7116],[134.2078,34.7113]]],[[[134.2136,34.7127],[134.2151,34.7125],[134.2154,34.7116],[134.2139,34.712],[134.2136,34.7127]]],[[[134.2248,34.7128],[134.2243,34.7133],[134.2248,34.7133],[134.2248,34.7128]]],[[[134.2132,34.7258],[134.2188,34.7231],[134.2193,34.7213],[134.2171,34.7216],[134.2147,34.7202],[134.2121,34.7221],[134.2112,34.7202],[134.2095,34.7197],[134.2091,34.7216],[134.2112,34.7256],[134.2132,34.7258]]],[[[134.2286,34.7243],[134.2285,34.7244],[134.2286,34.7243],[134.2286,34.7243]]],[[[134.2708,34.7252],[134.2714,34.7257],[134.2738,34.7266],[134.2714,34.7257],[134.2708,34.7252]]],[[[134.25,34.9493],[134.2533,34.9474],[134.2546,34.9455],[134.2533,34.9442],[134.2541,34.9377],[134.2584,34.9357],[134.2588,34.934],[134.2627,34.9377],[134.2635,34.9361],[134.2648,34.937],[134.2672,34.9354],[134.2673,34.9365],[134.2691,34.934],[134.2731,34.9325],[134.275,34.931],[134.2749,34.9298],[134.2761,34.9297],[134.2748,34.9243],[134.2785,34.9216],[134.2845,34.921],[134.2833,34.9186],[134.284,34.917],[134.2874,34.9153],[134.2874,34.9127],[134.2898,34.9108],[134.2928,34.9115],[134.293,34.9083],[134.295,34.9075],[134.2941,34.9028],[134.2883,34.9002],[134.2892,34.8977],[134.2843,34.8971],[134.2834,34.8953],[134.2778,34.8951],[134.2735,34.8926],[134.2722,34.8898],[134.2693,34.8891],[134.2687,34.8864],[134.27,34.8836],[134.2673,34.8833],[134.2645,34.8852],[134.2628,34.8843],[134.2623,34.882],[134.264,34.8781],[134.2658,34.8777],[134.2671,34.8754],[134.2634,34.8711],[134.259,34.8703],[134.2601,34.8671],[134.2585,34.8626],[134.2553,34.8599],[134.256,34.8585],[134.254,34.857],[134.2527,34.8519],[134.2555,34.8483],[134.2576,34.8488],[134.2589,34.8468],[134.2604,34.8472],[134.2627,34.8457],[134.2619,34.8437],[134.2631,34.8414],[134.2653,34.8404],[134.2654,34.8384],[134.2618,34.8358],[134.2634,34.8327],[134.2618,34.8304],[134.2638,34.8267],[134.2663,34.8256],[134.2701,34.8274],[134.2725,34.8265],[134.2749,34.8286],[134.2775,34.828],[134.2825,34.8298],[134.2875,34.8288],[134.2884,34.8282],[134.2879,34.8216],[134.2922,34.8201],[134.2932,34.8184],[134.2953,34.8186],[134.2958,34.8157],[134.2983,34.8135],[134.3021,34.8147],[134.3069,34.8115],[134.3063,34.8086],[134.3087,34.8071],[134.3084,34.8054],[134.3099,34.8048],[134.3108,34.8027],[134.3142,34.803],[134.3171,34.8019],[134.3174,34.799],[134.3165,34.7972],[134.3182,34.7933],[134.316,34.792],[134.3194,34.7873],[134.319,34.785],[134.3158,34.781],[134.3177,34.7781],[134.3206,34.7771],[134.3201,34.776],[134.323,34.7743],[134.3259,34.7752],[134.3295,34.7743],[134.331,34.7726],[134.3308,34.7708],[134.3348,34.7691],[134.3332,34.7657],[134.3305,34.7674],[134.3274,34.7666],[134.3278,34.7642],[134.3215,34.7617],[134.3183,34.7559],[134.3165,34.7439],[134.313,34.7384],[134.3169,34.7352],[134.3207,34.7356],[134.3238,34.7323],[134.3236,34.731],[134.321,34.729],[134.3217,34.7219],[134.3202,34.7238],[134.3195,34.7283],[134.3153,34.7321],[134.3121,34.7338],[134.3033,34.7345],[134.298,34.7366],[134.2857,34.7341],[134.2826,34.7299],[134.2805,34.731],[134.279,34.734],[134.2755,34.7346],[134.274,34.7331],[134.2758,34.732],[134.2763,34.7283],[134.2711,34.7263],[134.2703,34.7278],[134.2709,34.7288],[134.27,34.7285],[134.2695,34.7283],[134.2709,34.7289],[134.2695,34.7305],[134.2703,34.7313],[134.2676,34.7303],[134.269,34.7295],[134.268,34.7292],[134.2691,34.7271],[134.2687,34.7241],[134.2708,34.7225],[134.2686,34.7192],[134.2516,34.7184],[134.2438,34.7153],[134.2414,34.7184],[134.2361,34.7206],[134.2349,34.7199],[134.2355,34.7205],[134.2341,34.7211],[134.2337,34.7191],[134.2283,34.7206],[134.2253,34.7197],[134.2255,34.721],[134.2265,34.7209],[134.2269,34.7222],[134.2283,34.7219],[134.2288,34.7232],[134.2324,34.7231],[134.2325,34.7259],[134.2291,34.7313],[134.2234,34.7317],[134.2232,34.73],[134.2201,34.729],[134.2207,34.7308],[134.2181,34.73],[134.2198,34.7294],[134.2186,34.7293],[134.218,34.7301],[134.218,34.7306],[134.2133,34.7311],[134.2134,34.7302],[134.2117,34.7315],[134.208,34.73],[134.2039,34.7305],[134.187,34.7377],[134.186,34.739],[134.1883,34.7409],[134.1874,34.7406],[134.186,34.7432],[134.1853,34.7404],[134.1841,34.7412],[134.1826,34.7405],[134.1792,34.7368],[134.1798,34.7361],[134.1789,34.7358],[134.1805,34.7352],[134.1785,34.7343],[134.1794,34.733],[134.1819,34.7351],[134.1898,34.7338],[134.1955,34.7298],[134.205,34.7266],[134.2044,34.7228],[134.1968,34.7207],[134.195,34.722],[134.1939,34.7201],[134.1923,34.72],[134.1945,34.7192],[134.1945,34.7168],[134.1974,34.7175],[134.1979,34.7148],[134.2012,34.7145],[134.2046,34.7171],[134.2085,34.7165],[134.2088,34.715],[134.2122,34.7172],[134.2142,34.7161],[134.1974,34.7078],[134.2055,34.7107],[134.2071,34.7095],[134.2185,34.7096],[134.218,34.7078],[134.2232,34.7113],[134.228,34.7122],[134.2288,34.7148],[134.2311,34.7126],[134.2317,34.7069],[134.2219,34.703],[134.2162,34.7041],[134.214,34.7032],[134.2122,34.7044],[134.2071,34.7017],[134.2028,34.7017],[134.1964,34.697],[134.1944,34.6971],[134.1912,34.6935],[134.1876,34.694],[134.185,34.6895],[134.1745,34.6849],[134.1621,34.6844],[134.1602,34.6908],[134.1632,34.6918],[134.1617,34.692],[134.1604,34.6939],[134.1604,34.6978],[134.1587,34.6987],[134.1585,34.7008],[134.1608,34.7038],[134.1612,34.7085],[134.1634,34.7097],[134.1649,34.7151],[134.1608,34.716],[134.1595,34.7184],[134.1536,34.7211],[134.1513,34.7241],[134.1517,34.7266],[134.1483,34.7257],[134.1458,34.7267],[134.1397,34.7223],[134.1369,34.7187],[134.1343,34.7188],[134.1334,34.7174],[134.1265,34.7176],[134.1247,34.7155],[134.1248,34.7135],[134.1216,34.7098],[134.1248,34.708],[134.1224,34.702],[134.1186,34.7046],[134.1184,34.7058],[134.1124,34.709],[134.1132,34.7103],[134.1074,34.7124],[134.1105,34.7181],[134.1098,34.7216],[134.1111,34.7274],[134.1085,34.7282],[134.1066,34.7263],[134.1023,34.7267],[134.1054,34.7361],[134.1062,34.7421],[134.1113,34.7419],[134.1111,34.7459],[134.1163,34.7479],[134.1199,34.7477],[134.1227,34.7503],[134.123,34.7563],[134.1248,34.7559],[134.1258,34.7572],[134.1327,34.7588],[134.1344,34.7613],[134.1395,34.7634],[134.1418,34.7663],[134.1443,34.7658],[134.1455,34.7673],[134.1494,34.7634],[134.1493,34.7617],[134.1553,34.7594],[134.1598,34.7614],[134.162,34.7595],[134.1665,34.7601],[134.169,34.7593],[134.175,34.761],[134.177,34.7604],[134.1822,34.7653],[134.1851,34.7646],[134.1863,34.763],[134.1905,34.7648],[134.1915,34.7634],[134.1938,34.7641],[134.1945,34.7629],[134.1954,34.7648],[134.1995,34.7654],[134.2015,34.767],[134.1974,34.7761],[134.1948,34.7783],[134.191,34.7788],[134.1915,34.7817],[134.1972,34.7837],[134.1998,34.7903],[134.1977,34.7923],[134.1928,34.7937],[134.1918,34.7974],[134.1925,34.7991],[134.1905,34.8005],[134.1935,34.8056],[134.1924,34.809],[134.1953,34.8097],[134.1977,34.8125],[134.1975,34.8172],[134.2008,34.8183],[134.2029,34.8214],[134.2053,34.8218],[134.2082,34.8266],[134.2078,34.8291],[134.2099,34.8301],[134.211,34.8327],[134.2101,34.8342],[134.2121,34.8372],[134.2163,34.84],[134.2105,34.842],[134.2084,34.8439],[134.2106,34.8457],[134.2112,34.8481],[134.2066,34.8529],[134.2055,34.857],[134.1999,34.8567],[134.1962,34.8586],[134.1943,34.8575],[134.1903,34.8589],[134.1891,34.8615],[134.1802,34.8595],[134.1806,34.8638],[134.1828,34.8664],[134.1834,34.868],[134.1827,34.8687],[134.1844,34.8726],[134.1838,34.8761],[134.1848,34.8777],[134.1864,34.8752],[134.1884,34.8747],[134.1927,34.8789],[134.1932,34.8814],[134.195,34.8805],[134.1941,34.8846],[134.1964,34.887],[134.1953,34.8899],[134.198,34.8914],[134.2,34.8952],[134.1986,34.898],[134.1962,34.8993],[134.1965,34.9006],[134.1949,34.9013],[134.197,34.9057],[134.1949,34.911],[134.1959,34.9145],[134.2022,34.9149],[134.2049,34.9126],[134.2059,34.9101],[134.2154,34.9112],[134.2163,34.9087],[134.2206,34.9075],[134.2213,34.906],[134.2249,34.9087],[134.2271,34.9089],[134.2243,34.912],[134.2238,34.9152],[134.2244,34.9166],[134.2269,34.917],[134.2264,34.92],[134.2276,34.9212],[134.2263,34.9235],[134.2299,34.924],[134.2352,34.9279],[134.2356,34.9374],[134.2409,34.9381],[134.2461,34.9415],[134.2459,34.9445],[134.2443,34.945],[134.2439,34.9469],[134.2457,34.9485],[134.25,34.9493]]],[[[134.2945,34.6805],[134.2946,34.6806],[134.2945,34.6804],[134.2945,34.6805]]],[[[134.2922,34.6826],[134.2922,34.6825],[134.2921,34.6825],[134.2922,34.6826]]],[[[134.2917,34.6828],[134.2918,34.6827],[134.2917,34.6827],[134.2917,34.6828]]],[[[134.2907,34.6871],[134.2927,34.684],[134.2943,34.6849],[134.2964,34.6842],[134.2972,34.6859],[134.2973,34.6844],[134.2988,34.6837],[134.3003,34.6843],[134.2999,34.6854],[134.2989,34.6854],[134.2986,34.6855],[134.301,34.6867],[134.3026,34.6825],[134.2949,34.6801],[134.2941,34.6823],[134.2897,34.6844],[134.2907,34.6871]]],[[[134.2886,34.6843],[134.2887,34.6846],[134.2888,34.6844],[134.2886,34.6843]]],[[[134.2858,34.6847],[134.2859,34.6847],[134.2859,34.6846],[134.2858,34.6847]]],[[[134.2986,34.6861],[134.2976,34.6864],[134.2976,34.6864],[134.2986,34.6861]]],[[[134.2904,34.6875],[134.2907,34.6875],[134.2906,34.6874],[134.2904,34.6875]]],[[[134.2852,34.6964],[134.2854,34.6965],[134.2853,34.6964],[134.2852,34.6964]]],[[[134.2867,34.7038],[134.2909,34.7031],[134.2916,34.7019],[134.2903,34.6999],[134.2923,34.6978],[134.2921,34.6965],[134.29,34.6977],[134.2886,34.6963],[134.2835,34.697],[134.2857,34.6971],[134.2868,34.698],[134.2861,34.6986],[134.2856,34.6981],[134.2828,34.6985],[134.283,34.6972],[134.2816,34.6993],[134.2838,34.6986],[134.2842,34.7],[134.2819,34.7007],[134.2817,34.6996],[134.2814,34.6999],[134.282,34.7011],[134.2794,34.703],[134.2867,34.7038]]],[[[134.2916,34.7016],[134.2918,34.7016],[134.2916,34.7015],[134.2916,34.7016]]],[[[134.2921,34.7016],[134.2923,34.7017],[134.2922,34.7016],[134.2921,34.7016]]],[[[134.2982,34.7072],[134.2982,34.7071],[134.2981,34.7072],[134.2982,34.7072]]],[[[134.2977,34.7073],[134.2978,34.7073],[134.2978,34.7072],[134.2977,34.7073]]],[[[134.2966,34.7074],[134.2967,34.7073],[134.2966,34.7073],[134.2966,34.7074]]],[[[134.3212,34.6922],[134.3205,34.6914],[134.3203,34.6915],[134.3203,34.6922],[134.3212,34.6922]]],[[[134.3184,34.6926],[134.3194,34.6928],[134.3194,34.6928],[134.3184,34.6926]]],[[[134.3197,34.6983],[134.3241,34.6978],[134.3242,34.6958],[134.3213,34.6929],[134.3193,34.697],[134.3197,34.6983]]],[[[134.3185,34.699],[134.3176,34.6986],[134.3174,34.6999],[134.3185,34.699]]],[[[134.319,34.6992],[134.3192,34.6993],[134.3191,34.6992],[134.319,34.6992]]],[[[134.3162,34.7],[134.3157,34.7002],[134.3163,34.7004],[134.3162,34.7]]],[[[134.3102,34.7036],[134.3102,34.7043],[134.3107,34.7042],[134.3102,34.7036]]],[[[134.3248,34.704],[134.325,34.7041],[134.3249,34.7039],[134.3248,34.704]]],[[[134.2985,34.7071],[134.2986,34.7071],[134.2986,34.707],[134.2985,34.7071]]],[[[134.3322,34.7071],[134.3319,34.7077],[134.3322,34.7077],[134.3322,34.7071]]],[[[134.3237,34.7091],[134.3238,34.7093],[134.3238,34.709],[134.3237,34.7091]]],[[[134.2988,34.7301],[134.3111,34.7271],[134.3179,34.7165],[134.3229,34.7141],[134.3265,34.7163],[134.3316,34.723],[134.3351,34.7224],[134.3387,34.7199],[134.3391,34.7171],[134.3428,34.714],[134.344,34.7117],[134.3467,34.7103],[134.347,34.7081],[134.3428,34.7064],[134.3428,34.7035],[134.3418,34.7032],[134.3401,34.707],[134.3371,34.7074],[134.338,34.7089],[134.3369,34.7112],[134.3342,34.7114],[134.3339,34.7091],[134.3317,34.7084],[134.3262,34.7123],[134.324,34.7112],[134.3229,34.7082],[134.3251,34.7068],[134.3249,34.7043],[134.3167,34.7029],[134.315,34.7052],[134.3129,34.7035],[134.3111,34.7057],[134.3086,34.7058],[134.3081,34.7069],[134.3095,34.7083],[134.3083,34.7095],[134.3104,34.7106],[134.3069,34.7118],[134.3058,34.7153],[134.3046,34.7135],[134.3017,34.7125],[134.3029,34.7082],[134.2994,34.7087],[134.2989,34.7073],[134.2976,34.7076],[134.2971,34.7073],[134.2951,34.7087],[134.2897,34.7062],[134.2846,34.706],[134.2814,34.7073],[134.2866,34.7105],[134.2869,34.7133],[134.2849,34.7134],[134.2849,34.7115],[134.2818,34.7114],[134.2814,34.71],[134.2797,34.7094],[134.2777,34.7101],[134.277,34.7121],[134.2747,34.7135],[134.277,34.7181],[134.2766,34.7216],[134.2803,34.7223],[134.285,34.7179],[134.2865,34.7182],[134.2873,34.7205],[134.2853,34.7242],[134.2928,34.7297],[134.2988,34.7301]]],[[[134.3819,34.7199],[134.3817,34.72],[134.3817,34.7202],[134.3819,34.7199]]]]}},{"type":"Feature","properties":{"code":"33212","name":"瀬戸内市","pref_code":"33","pref":"岡山県"},"geometry":{"type":"MultiPolygon","coordinates":[[[[134.1157,34.5872],[134.115,34.588],[134.1151,34.5881],[134.1157,34.5872]]],[[[134.118,34.5889],[134.116,34.5878],[134.116,34.5879],[134.118,34.5889]]],[[[134.1899,34.5963],[134.19,34.5966],[134.19,34.5963],[134.1899,34.5963]]],[[[134.1541,34.5981],[134.1533,34.5981],[134.1539,34.5985],[134.1541,34.5981]]],[[[134.1606,34.6005],[134.1632,34.5994],[134.1596,34.597],[134.1579,34.5971],[134.1576,34.599],[134.1606,34.6005]]],[[[134.1518,34.5986],[134.152,34.5988],[134.1521,34.5987],[134.1518,34.5986]]],[[[134.1634,34.5988],[134.1635,34.5989],[134.1635,34.5988],[134.1634,34.5988]]],[[[134.1563,34.5988],[134.1554,34.5992],[134.1562,34.5996],[134.1563,34.5988]]],[[[134.1633,34.5995],[134.1634,34.5996],[134.1635,34.5994],[134.1633,34.5995]]],[[[134.1431,34.6089],[134.1435,34.6091],[134.1436,34.609],[134.1431,34.6089]]],[[[134.1443,34.6093],[134.144,34.6091],[134.1437,34.6091],[134.1443,34.6093]]],[[[134.1993,34.6171],[134.2017,34.6162],[134.2014,34.6147],[134.1947,34.6071],[134.191,34.6055],[134.1849,34.6048],[134.1839,34.6061],[134.1815,34.6064],[134.177,34.6034],[134.1759,34.6044],[134.1721,34.6025],[134.1679,34.6022],[134.1643,34.604],[134.1651,34.606],[134.1642,34.6078],[134.1642,34.6089],[134.1648,34.6069],[134.1668,34.6076],[134.1668,34.6086],[134.1651,34.6086],[134.1674,34.6087],[134.1679,34.6103],[134.1738,34.6128],[134.1737,34.6097],[134.1775,34.6088],[134.1817,34.611],[134.1855,34.6113],[134.1882,34.6147],[134.1913,34.6145],[134.1993,34.6171]]],[[[134.1491,34.6131],[134.1491,34.6121],[134.149,34.6121],[134.1491,34.6131]]],[[[134.1551,34.6148],[134.1628,34.6145],[134.1634,34.6141],[134.1628,34.6144],[134.1551,34.6148]]],[[[134.1709,34.6154],[134.1713,34.6138],[134.171,34.6142],[134.1709,34.6154]]],[[[134.1721,34.6154],[134.1719,34.6153],[134.1731,34.6165],[134.1721,34.6154]]],[[[134.1916,34.6329],[134.1918,34.6331],[134.1918,34.633],[134.1916,34.6329]]],[[[134.1914,34.6519],[134.1915,34.652],[134.1915,34.6519],[134.1914,34.6519]]],[[[134.1108,34.7276],[134.1105,34.7181],[134.1074,34.7124],[134.1132,34.7103],[134.1124,34.709],[134.1184,34.7058],[134.1186,34.7046],[134.1224,34.702],[134.1248,34.708],[134.1216,34.7098],[134.1248,34.7135],[134.1247,34.7155],[134.1266,34.7176],[134.1334,34.7174],[134.1343,34.7188],[134.1369,34.7187],[134.144,34.7259],[134.1519,34.7264],[134.1513,34.7241],[134.1536,34.7211],[134.1595,34.7184],[134.1608,34.716],[134.1652,34.7147],[134.1631,34.711],[134.1634,34.7097],[134.1613,34.7087],[134.1613,34.7051],[134.1585,34.7008],[134.1587,34.6987],[134.1604,34.6978],[134.1604,34.6939],[134.1617,34.692],[134.1632,34.6918],[134.1602,34.6908],[134.161,34.6857],[134.1634,34.6841],[134.1686,34.6852],[134.1745,34.6849],[134.1842,34.6891],[134.1876,34.694],[134.1912,34.6935],[134.1944,34.6971],[134.1964,34.697],[134.2028,34.7017],[134.2071,34.7017],[134.2122,34.7044],[134.214,34.7032],[134.2162,34.7041],[134.2216,34.703],[134.2263,34.7044],[134.227,34.7057],[134.2294,34.7054],[134.2318,34.7072],[134.2307,34.7105],[134.2313,34.7119],[134.2295,34.7139],[134.2298,34.715],[134.236,34.7147],[134.2357,34.7105],[134.2362,34.7111],[134.2417,34.7057],[134.2423,34.7031],[134.245,34.7028],[134.2452,34.7009],[134.2428,34.7011],[134.2423,34.6994],[134.2431,34.6975],[134.245,34.6984],[134.2414,34.6951],[134.2398,34.6986],[134.2373,34.6999],[134.238,34.6951],[134.2362,34.6943],[134.2356,34.6916],[134.231,34.6908],[134.2262,34.6917],[134.2271,34.6905],[134.2265,34.6894],[134.228,34.6894],[134.228,34.6885],[134.2227,34.6865],[134.2231,34.6841],[134.2224,34.6855],[134.2182,34.6838],[134.2137,34.685],[134.2142,34.684],[134.2134,34.6848],[134.2128,34.6837],[134.2177,34.682],[134.2219,34.6836],[134.2232,34.6808],[134.2194,34.6808],[134.2201,34.6784],[134.2216,34.6795],[134.2212,34.6788],[134.2179,34.6758],[134.214,34.6757],[134.2138,34.673],[134.2072,34.673],[134.2045,34.6743],[134.2043,34.6727],[134.2076,34.6697],[134.2067,34.6687],[134.2109,34.67],[134.2099,34.6664],[134.2059,34.6683],[134.2015,34.6633],[134.2003,34.6645],[134.1983,34.6638],[134.1922,34.6653],[134.1911,34.6633],[134.1985,34.6592],[134.1952,34.6582],[134.1943,34.6557],[134.192,34.6553],[134.1902,34.6532],[134.1912,34.652],[134.1885,34.6508],[134.1832,34.6512],[134.1836,34.6535],[134.1802,34.6527],[134.1786,34.6542],[134.1791,34.6562],[134.1778,34.657],[134.1762,34.6561],[134.1764,34.6535],[134.1734,34.652],[134.1715,34.6524],[134.1722,34.6533],[134.1705,34.6529],[134.1698,34.6507],[134.1717,34.6505],[134.1713,34.6495],[134.1731,34.651],[134.1722,34.6483],[134.1746,34.6341],[134.1755,34.6339],[134.1757,34.6336],[134.1757,34.6334],[134.1739,34.6313],[134.1763,34.6305],[134.1786,34.6314],[134.1803,34.6358],[134.184,34.6368],[134.185,34.636],[134.1852,34.6324],[134.1874,34.6319],[134.1867,34.6309],[134.1787,34.63],[134.1773,34.624],[134.1747,34.6233],[134.1729,34.6193],[134.1731,34.6173],[134.1735,34.6172],[134.1735,34.6166],[134.1729,34.6174],[134.1701,34.6156],[134.1706,34.6139],[134.1668,34.613],[134.1622,34.6165],[134.1594,34.6168],[134.1594,34.6158],[134.1592,34.6168],[134.1575,34.6168],[134.1583,34.6157],[134.1563,34.616],[134.1574,34.6168],[134.1554,34.6157],[134.1555,34.6153],[134.1465,34.6172],[134.1475,34.6166],[134.1472,34.6142],[134.1496,34.6143],[134.147,34.6136],[134.1471,34.6118],[134.1485,34.612],[134.1463,34.6117],[134.1454,34.6097],[134.142,34.6093],[134.1414,34.6078],[134.1392,34.6094],[134.14,34.6095],[134.139,34.6113],[134.1344,34.6078],[134.1357,34.6065],[134.1355,34.6037],[134.1382,34.6024],[134.1381,34.5992],[134.1337,34.5967],[134.128,34.5986],[134.124,34.5956],[134.1227,34.5939],[134.1249,34.595],[134.1223,34.5932],[134.1214,34.5917],[134.1222,34.5907],[134.1202,34.5887],[134.118,34.5899],[134.1151,34.5888],[134.1161,34.5882],[134.1123,34.5884],[134.112,34.5913],[134.1137,34.5925],[134.1117,34.5956],[134.1129,34.601],[134.1121,34.6039],[134.1096,34.6056],[134.1083,34.6086],[134.1093,34.6099],[134.1077,34.6135],[134.1092,34.615],[134.1086,34.6169],[134.112,34.6159],[134.1129,34.6196],[134.117,34.6196],[134.1149,34.6207],[134.1146,34.6228],[134.117,34.6223],[134.118,34.6237],[134.1154,34.6263],[134.1163,34.6277],[134.1126,34.6302],[134.1093,34.631],[134.1109,34.6347],[134.1046,34.633],[134.1046,34.6375],[134.1034,34.6365],[134.1034,34.6376],[134.1006,34.6396],[134.0969,34.6371],[134.0944,34.6373],[134.0945,34.6355],[134.0902,34.6329],[134.0885,34.6337],[134.086,34.6324],[134.0824,34.6335],[134.0791,34.6328],[134.0741,34.6351],[134.0728,34.638],[134.075,34.6399],[134.0749,34.6434],[134.0767,34.6447],[134.0749,34.6458],[134.0838,34.6494],[134.0778,34.6501],[134.0668,34.6477],[134.0644,34.6484],[134.0643,34.6499],[134.06,34.65],[134.0582,34.6518],[134.059,34.6561],[134.0613,34.6569],[134.06,34.6575],[134.0603,34.6595],[134.0547,34.6567],[134.0542,34.6583],[134.0519,34.6592],[134.0602,34.6701],[134.0734,34.6772],[134.0769,34.6806],[134.0807,34.6917],[134.0836,34.6964],[134.0834,34.7061],[134.0847,34.7082],[134.093,34.7143],[134.1005,34.723],[134.1023,34.7267],[134.1066,34.7263],[134.1082,34.7281],[134.1108,34.7276]]],[[[134.1901,34.6021],[134.1926,34.6003],[134.1937,34.6011],[134.1974,34.6004],[134.1996,34.6016],[134.2012,34.5992],[134.2007,34.598],[134.1983,34.5979],[134.1981,34.596],[134.1962,34.5973],[134.1941,34.5966],[134.1935,34.5949],[134.1931,34.5973],[134.1915,34.5964],[134.1897,34.5975],[134.1901,34.6021]]],[[[134.2014,34.5992],[134.2015,34.5993],[134.2014,34.5992],[134.2014,34.5992]]],[[[134.2099,34.6125],[134.2107,34.6118],[134.2086,34.6114],[134.2072,34.6096],[134.2054,34.6101],[134.2031,34.6078],[134.2012,34.6075],[134.203,34.6099],[134.2099,34.6125]]],[[[134.21,34.6135],[134.2098,34.6133],[134.2097,34.6133],[134.21,34.6135]]],[[[134.1944,34.6313],[134.194,34.6314],[134.1944,34.6318],[134.1944,34.6313]]],[[[134.2029,34.6377],[134.2032,34.6373],[134.2026,34.6372],[134.2029,34.6377]]],[[[134.1977,34.6402],[134.1982,34.6397],[134.1973,34.6398],[134.1977,34.6402]]],[[[134.2131,34.6634],[134.2129,34.6636],[134.2131,34.6635],[134.2131,34.6634]]],[[[134.2151,34.6641],[134.2152,34.6643],[134.2154,34.664],[134.2151,34.6641]]],[[[134.2153,34.6643],[134.2154,34.6645],[134.2155,34.6643],[134.2153,34.6643]]],[[[134.2112,34.6643],[134.2113,34.6645],[134.2113,34.6645],[134.2112,34.6643]]],[[[134.2155,34.667],[134.2156,34.6646],[134.2123,34.6638],[134.212,34.6652],[134.2134,34.6657],[134.2134,34.6668],[134.2155,34.667]]],[[[134.2119,34.6659],[134.212,34.6658],[134.2118,34.6658],[134.2119,34.6659]]],[[[134.2062,34.667],[134.2062,34.6672],[134.2063,34.6671],[134.2062,34.667]]],[[[134.2157,34.6673],[134.2159,34.6674],[134.2159,34.6674],[134.2157,34.6673]]],[[[134.2079,34.671],[134.2079,34.6709],[134.2079,34.6709],[134.2079,34.671]]],[[[134.2137,34.6728],[134.2137,34.6728],[134.2137,34.6728],[134.2137,34.6728]]],[[[134.2136,34.6729],[134.2135,34.6728],[134.2135,34.6728],[134.2136,34.6729]]],[[[134.214,34.6732],[134.2142,34.6732],[134.2141,34.6731],[134.214,34.6732]]],[[[134.2248,34.6676],[134.2249,34.6677],[134.225,34.6675],[134.2248,34.6676]]],[[[134.2257,34.6678],[134.2259,34.6679],[134.2259,34.6678],[134.2257,34.6678]]],[[[134.224,34.6681],[134.2242,34.6681],[134.2242,34.668],[134.224,34.6681]]],[[[134.2267,34.6683],[134.2268,34.6682],[134.2267,34.6682],[134.2267,34.6683]]],[[[134.2228,34.6684],[134.2229,34.6685],[134.2229,34.6684],[134.2228,34.6684]]],[[[134.2447,34.6788],[134.2458,34.6751],[134.2443,34.6723],[134.2374,34.6732],[134.2353,34.6703],[134.2332,34.6695],[134.2323,34.6714],[134.2302,34.6717],[134.2269,34.6694],[134.2271,34.6684],[134.225,34.6678],[134.2227,34.6687],[134.2225,34.6707],[134.2211,34.6709],[134.2202,34.6733],[134.2184,34.6744],[134.2185,34.6758],[134.2201,34.6766],[134.2244,34.6768],[134.2263,34.6751],[134.226,34.6713],[134.2277,34.6738],[134.2274,34.6766],[134.2295,34.6774],[134.2292,34.6791],[134.2344,34.6791],[134.2357,34.6779],[134.2412,34.6797],[134.2416,34.6784],[134.2447,34.6788]]],[[[134.2518,34.6767],[134.2527,34.6755],[134.2522,34.6752],[134.2511,34.676],[134.2518,34.6767]]],[[[134.2555,34.6775],[134.2557,34.6778],[134.2558,34.6778],[134.2555,34.6775]]],[[[134.2721,34.6788],[134.2722,34.6788],[134.2721,34.6787],[134.2721,34.6788]]],[[[134.2567,34.6788],[134.2567,34.6788],[134.2567,34.6788],[134.2567,34.6788]]],[[[134.2725,34.679],[134.2725,34.6788],[134.2723,34.679],[134.2725,34.679]]],[[[134.272,34.679],[134.2721,34.679],[134.272,34.679],[134.272,34.679]]],[[[134.2722,34.6793],[134.2723,34.6791],[134.2722,34.6792],[134.2722,34.6793]]],[[[134.2722,34.6796],[134.2722,34.6795],[134.2721,34.6796],[134.2722,34.6796]]],[[[134.2238,34.6814],[134.2263,34.6808],[134.2251,34.6796],[134.2238,34.6814]]],[[[134.2558,34.688],[134.2607,34.6865],[134.2641,34.6819],[134.2665,34.682],[134.267,34.6836],[134.2679,34.6815],[134.2687,34.683],[134.2725,34.6836],[134.2734,34.6805],[134.2699,34.6786],[134.2694,34.677],[134.2674,34.678],[134.2619,34.6748],[134.26,34.6754],[134.2595,34.6772],[134.2562,34.6797],[134.2538,34.6795],[134.2518,34.6775],[134.2496,34.6798],[134.2448,34.679],[134.2427,34.6801],[134.2474,34.6816],[134.2463,34.683],[134.2471,34.6841],[134.2504,34.6844],[134.2524,34.6818],[134.2542,34.6869],[134.2558,34.688]]],[[[134.2667,34.6839],[134.2669,34.6838],[134.2667,34.6838],[134.2667,34.6839]]],[[[134.2422,34.6872],[134.2422,34.6868],[134.2419,34.687],[134.2422,34.6872]]],[[[134.2432,34.7054],[134.2427,34.7059],[134.2432,34.7059],[134.2432,34.7054]]]]}},{"type":"Feature","properties":{"code":"33216","name":"浅口市","pref_code":"33","pref":"岡山県"},"geometry":{"type":"MultiPolygon","coordinates":[[[[133.5942,34.4677],[133.5942,34.4678],[133.5942,34.4677],[133.5942,34.4677]]],[[[133.5942,34.4678],[133.5942,34.468],[133.5942,34.468],[133.5942,34.4678]]],[[[133.5942,34.4681],[133.5942,34.4682],[133.5943,34.4682],[133.5942,34.4681]]],[[[133.5903,34.4827],[133.5904,34.4829],[133.5904,34.4829],[133.5903,34.4827]]],[[[133.5996,34.4807],[133.5938,34.4852],[133.5996,34.4807],[133.5996,34.4807]]],[[[133.5937,34.4887],[133.5922,34.4868],[133.5921,34.4866],[133.5921,34.4868],[133.5937,34.4887]]],[[[133.5945,34.4892],[133.5946,34.4883],[133.5946,34.4883],[133.5945,34.4892]]],[[[133.5848,34.5894],[133.5833,34.5825],[133.5861,34.5819],[133.5872,34.5803],[133.5905,34.5798],[133.5911,34.5783],[133.5947,34.5766],[133.6037,34.5763],[133.6058,34.5777],[133.6073,34.5754],[133.6108,34.5736],[133.6124,34.576],[133.6171,34.5779],[133.6178,34.5795],[133.6207,34.5793],[133.6218,34.5809],[133.6233,34.5805],[133.623,34.5788],[133.6261,34.5756],[133.6297,34.5746],[133.6367,34.5694],[133.6371,34.5658],[133.6398,34.5643],[133.6384,34.5627],[133.6386,34.5604],[133.6479,34.5572],[133.6477,34.5542],[133.6461,34.5541],[133.6442,34.5512],[133.6445,34.5498],[133.6427,34.5481],[133.6502,34.5453],[133.6404,34.5393],[133.6402,34.5366],[133.6367,34.5349],[133.6359,34.5303],[133.6309,34.524],[133.631,34.5208],[133.6293,34.5206],[133.6271,34.5222],[133.6238,34.5188],[133.6216,34.5192],[133.6231,34.5132],[133.6218,34.5112],[133.6184,34.5101],[133.6175,34.5073],[133.6093,34.5068],[133.6056,34.5032],[133.6025,34.5028],[133.6037,34.4951],[133.5994,34.494],[133.6002,34.4928],[133.5988,34.4907],[133.6002,34.4928],[133.5995,34.4938],[133.5978,34.4928],[133.5983,34.4907],[133.5968,34.4922],[133.5971,34.4914],[133.5941,34.4891],[133.5951,34.4903],[133.5942,34.4911],[133.5905,34.4868],[133.5919,34.4865],[133.5902,34.4864],[133.59,34.4828],[133.5887,34.4825],[133.5959,34.4758],[133.5969,34.476],[133.5957,34.4768],[133.596,34.4771],[133.6018,34.4732],[133.5966,34.4719],[133.5939,34.4693],[133.592,34.4708],[133.5787,34.4705],[133.5782,34.4695],[133.5799,34.4692],[133.5782,34.4695],[133.5771,34.4662],[133.5745,34.4655],[133.5732,34.4659],[133.5735,34.4681],[133.5711,34.4722],[133.5708,34.476],[133.5687,34.4799],[133.5691,34.4843],[133.5676,34.4863],[133.5603,34.4881],[133.5622,34.4895],[133.5604,34.4938],[133.5635,34.4967],[133.5654,34.4948],[133.5676,34.4962],[133.568,34.4979],[133.566,34.4991],[133.5658,34.5016],[133.563,34.5056],[133.5655,34.5078],[133.567,34.5115],[133.5722,34.5157],[133.5776,34.5174],[133.5748,34.5246],[133.5838,34.5278],[133.5861,34.5299],[133.5861,34.5313],[133.5851,34.5324],[133.5826,34.5288],[133.5802,34.5291],[133.5822,34.5314],[133.5825,34.5339],[133.5795,34.5316],[133.5777,34.532],[133.5731,34.53],[133.5687,34.5359],[133.5669,34.5354],[133.5622,34.5386],[133.5596,34.5368],[133.5605,34.5313],[133.5561,34.5312],[133.5531,34.5299],[133.5508,34.5306],[133.5489,34.528],[133.5467,34.53],[133.5455,34.5336],[133.5425,34.535],[133.5434,34.5402],[133.5446,34.5415],[133.5439,34.5438],[133.5457,34.5451],[133.5409,34.547],[133.5406,34.5505],[133.5423,34.5514],[133.543,34.5503],[133.5462,34.5511],[133.551,34.5499],[133.5559,34.5523],[133.5611,34.5591],[133.5609,34.562],[133.5624,34.5623],[133.5614,34.5686],[133.563,34.57],[133.5629,34.5713],[133.5658,34.5731],[133.567,34.5757],[133.5665,34.5776],[133.5723,34.5839],[133.5701,34.585],[133.5712,34.5872],[133.5783,34.5902],[133.5848,34.5894]]]]}}]}