{"type":"FeatureCollection","pref_code":"41","features":[{"type":"Feature","properties":{"code":"41201","name":"佐賀市","pref_code":"41","pref":"佐賀県"},"geometry":{"type":"Polygon","coordinates":[[[130.2043,33.4813],[130.2128,33.4807],[130.2163,33.4798],[130.2182,33.4782],[130.2233,33.4783],[130.2268,33.4767],[130.2333,33.4789],[130.2369,33.4774],[130.2379,33.4741],[130.2442,33.4744],[130.2467,33.4712],[130.2499,33.4705],[130.2524,33.471],[130.2576,33.4761],[130.2626,33.478],[130.2646,33.4774],[130.271,33.4799],[130.275,33.4797],[130.2883,33.4696],[130.2913,33.4694],[130.2928,33.4665],[130.2969,33.4629],[130.303,33.4612],[130.306,33.4633],[130.3128,33.4612],[130.3139,33.458],[130.3212,33.4583],[130.323,33.456],[130.3348,33.4505],[130.3364,33.4452],[130.3398,33.4446],[130.3391,33.4405],[130.333,33.4399],[130.3344,33.4387],[130.3338,33.4367],[130.3303,33.4339],[130.3273,33.4224],[130.3202,33.4206],[130.3192,33.4165],[130.3176,33.4156],[130.3157,33.4162],[130.313,33.4118],[130.3093,33.4115],[130.3073,33.413],[130.2993,33.41],[130.2971,33.4064],[130.2976,33.4048],[130.2936,33.4027],[130.2901,33.4032],[130.2878,33.4022],[130.2866,33.4037],[130.2857,33.4023],[130.2844,33.4034],[130.2787,33.4028],[130.2775,33.3995],[130.2755,33.398],[130.2765,33.3922],[130.2737,33.3872],[130.2765,33.3847],[130.2768,33.3805],[130.28,33.382],[130.282,33.3796],[130.2847,33.3802],[130.2875,33.3825],[130.2887,33.3809],[130.2918,33.3821],[130.2936,33.3791],[130.2931,33.3719],[130.2887,33.3685],[130.2955,33.3625],[130.2979,33.3635],[130.2991,33.3618],[130.3008,33.3619],[130.3002,33.3596],[130.2977,33.3573],[130.3045,33.3522],[130.3046,33.3483],[130.3065,33.3487],[130.306,33.3513],[130.3075,33.3566],[130.3149,33.3608],[130.3158,33.3605],[130.3158,33.3588],[130.3187,33.3585],[130.3198,33.3596],[130.3257,33.3596],[130.3268,33.3607],[130.3299,33.3567],[130.3311,33.3565],[130.3376,33.3361],[130.3367,33.3313],[130.3372,33.325],[130.3419,33.3102],[130.3436,33.2994],[130.3357,33.2976],[130.3387,33.2895],[130.3399,33.2818],[130.3392,33.2818],[130.3406,33.2785],[130.3403,33.2685],[130.3435,33.2599],[130.3427,33.2596],[130.3435,33.2533],[130.3422,33.2529],[130.3436,33.2499],[130.3504,33.2505],[130.3501,33.256],[130.3591,33.256],[130.3589,33.2571],[130.3636,33.2561],[130.3737,33.2572],[130.3728,33.2538],[130.3738,33.2539],[130.3743,33.2517],[130.3772,33.2511],[130.3767,33.2491],[130.3753,33.2491],[130.3737,33.2467],[130.3739,33.2444],[130.3698,33.2384],[130.3731,33.233],[130.3753,33.2325],[130.3791,33.2292],[130.3784,33.2213],[130.3623,33.2154],[130.356,33.2095],[130.3431,33.2084],[130.3396,33.2045],[130.3406,33.1885],[130.3426,33.1884],[130.3443,33.1866],[130.347,33.1836],[130.3469,33.182],[130.3531,33.1805],[130.3521,33.1695],[130.3559,33.1538],[130.3558,33.1404],[130.3064,33.1461],[130.288,33.1468],[130.284,33.1561],[130.2857,33.1617],[130.2781,33.1643],[130.2773,33.1665],[130.2786,33.1689],[130.26,33.18],[130.2513,33.1902],[130.2554,33.1973],[130.2593,33.1972],[130.2564,33.199],[130.254,33.2025],[130.2464,33.2029],[130.2471,33.1918],[130.2335,33.1942],[130.2312,33.1921],[130.2298,33.1929],[130.2311,33.1979],[130.2349,33.1981],[130.2346,33.2042],[130.2293,33.204],[130.2281,33.2071],[130.2282,33.211],[130.23,33.2116],[130.2286,33.2144],[130.2298,33.215],[130.2262,33.2213],[130.2252,33.2266],[130.2214,33.2293],[130.2228,33.2319],[130.2217,33.2325],[130.2234,33.2402],[130.2201,33.2437],[130.2184,33.2485],[130.2196,33.2497],[130.2196,33.2519],[130.2219,33.2531],[130.2225,33.2551],[130.2273,33.2547],[130.2271,33.2557],[130.2297,33.2565],[130.2348,33.2568],[130.2359,33.2522],[130.2415,33.2516],[130.2413,33.2528],[130.2422,33.2529],[130.2444,33.2515],[130.2437,33.2674],[130.2447,33.2729],[130.2429,33.2801],[130.2405,33.2833],[130.2376,33.2945],[130.2326,33.2966],[130.2315,33.2983],[130.234,33.2989],[130.2325,33.3089],[130.2268,33.3136],[130.2248,33.317],[130.2242,33.323],[130.2259,33.327],[130.2256,33.3291],[130.2275,33.3313],[130.2234,33.3316],[130.2217,33.3349],[130.2203,33.3347],[130.2189,33.3367],[130.2166,33.3367],[130.2085,33.3408],[130.2022,33.3406],[130.1908,33.3421],[130.1821,33.3409],[130.1788,33.3389],[130.1716,33.3398],[130.1717,33.3385],[130.1683,33.3379],[130.1668,33.338],[130.1661,33.3398],[130.1612,33.3403],[130.1428,33.3389],[130.1426,33.3427],[130.1409,33.3467],[130.1423,33.3499],[130.1457,33.352],[130.1462,33.3554],[130.1448,33.3573],[130.1446,33.3646],[130.1425,33.367],[130.1426,33.3689],[130.1394,33.3722],[130.141,33.3806],[130.148,33.3884],[130.1513,33.3892],[130.1524,33.3913],[130.1539,33.3917],[130.1536,33.395],[130.1564,33.3976],[130.1578,33.4008],[130.1559,33.4029],[130.1565,33.4052],[130.1554,33.4066],[130.1564,33.4093],[130.1645,33.4094],[130.1705,33.4158],[130.1705,33.4168],[130.1667,33.4174],[130.1666,33.4156],[130.1626,33.4167],[130.1595,33.4158],[130.1583,33.4191],[130.1564,33.4198],[130.1579,33.4221],[130.1637,33.4235],[130.1636,33.4252],[130.1661,33.4272],[130.1679,33.4316],[130.1665,33.4339],[130.1666,33.4373],[130.1688,33.4382],[130.169,33.4423],[130.1679,33.4445],[130.1701,33.4491],[130.1692,33.4516],[130.1651,33.4534],[130.1645,33.4553],[130.1658,33.4589],[130.1678,33.4592],[130.17,33.4634],[130.1688,33.4676],[130.1748,33.4674],[130.1759,33.4659],[130.1832,33.4668],[130.1865,33.4685],[130.1865,33.4708],[130.1889,33.471],[130.1888,33.4749],[130.1915,33.4764],[130.1945,33.4761],[130.196,33.4781],[130.1985,33.4773],[130.1985,33.4812],[130.2017,33.48],[130.2043,33.4813]]]}},{"type":"Feature","properties":{"code":"41202","name":"唐津市","pref_code":"41","pref":"佐賀県"},"geometry":{"type":"MultiPolygon","coordinates":[[[[129.782,33.477],[129.7818,33.4763],[129.7814,33.4764],[129.782,33.477]]],[[[129.7758,33.4851],[129.7761,33.4849],[129.7759,33.4849],[129.7758,33.4851]]],[[[129.78,33.4903],[129.7799,33.4904],[129.78,33.4903],[129.78,33.4903]]],[[[129.7741,33.4951],[129.7782,33.4937],[129.7799,33.4915],[129.7806,33.4888],[129.7794,33.4883],[129.7805,33.4888],[129.7801,33.4906],[129.7782,33.49],[129.7783,33.489],[129.7781,33.49],[129.7766,33.4896],[129.779,33.4881],[129.7739,33.4883],[129.7749,33.4908],[129.774,33.4926],[129.7726,33.4925],[129.7741,33.4951]]],[[[129.7797,33.4922],[129.7796,33.4922],[129.7797,33.4922],[129.7797,33.4922]]],[[[129.7723,33.4926],[129.7724,33.4926],[129.7722,33.4926],[129.7723,33.4926]]],[[[129.7718,33.4927],[129.7718,33.4928],[129.7719,33.4928],[129.7718,33.4927]]],[[[129.772,33.4929],[129.772,33.493],[129.7721,33.4929],[129.772,33.4929]]],[[[129.7722,33.4929],[129.7722,33.493],[129.7723,33.493],[129.7722,33.4929]]],[[[129.7719,33.493],[129.772,33.4931],[129.7721,33.493],[129.7719,33.493]]],[[[129.7723,33.4931],[129.7723,33.4932],[129.7723,33.4932],[129.7723,33.4931]]],[[[129.7783,33.4938],[129.7783,33.4939],[129.7783,33.4939],[129.7783,33.4938]]],[[[129.7786,33.4941],[129.7785,33.4942],[129.7786,33.4942],[129.7786,33.4941]]],[[[129.7783,33.4942],[129.7782,33.4942],[129.7783,33.4942],[129.7783,33.4942]]],[[[129.7496,33.5641],[129.7497,33.564],[129.7497,33.5639],[129.7496,33.5641]]],[[[129.7543,33.565],[129.7542,33.5649],[129.7542,33.565],[129.7543,33.565]]],[[[129.7542,33.5651],[129.7542,33.5651],[129.7542,33.5651],[129.7542,33.5651]]],[[[129.7495,33.5657],[129.7496,33.5656],[129.7494,33.5656],[129.7495,33.5657]]],[[[129.7541,33.5659],[129.754,33.5658],[129.754,33.5659],[129.7541,33.5659]]],[[[129.7511,33.5663],[129.7504,33.5659],[129.7499,33.5659],[129.7511,33.5663]]],[[[129.754,33.5664],[129.754,33.5662],[129.754,33.5662],[129.754,33.5664]]],[[[129.7518,33.5668],[129.7517,33.5667],[129.7517,33.5668],[129.7518,33.5668]]],[[[129.7511,33.5674],[129.751,33.5673],[129.751,33.5674],[129.7511,33.5674]]],[[[129.7511,33.5677],[129.7512,33.5675],[129.751,33.5677],[129.7511,33.5677]]],[[[129.7508,33.5677],[129.7509,33.5677],[129.7508,33.5677],[129.7508,33.5677]]],[[[129.7668,33.5689],[129.7668,33.569],[129.7669,33.5689],[129.7668,33.5689]]],[[[129.7676,33.5693],[129.7677,33.5693],[129.7677,33.5693],[129.7676,33.5693]]],[[[129.7716,33.5708],[129.7716,33.5707],[129.7715,33.5708],[129.7716,33.5708]]],[[[129.7614,33.5826],[129.7689,33.5821],[129.7735,33.5754],[129.7734,33.5728],[129.7712,33.5708],[129.7711,33.5688],[129.7697,33.5682],[129.771,33.5699],[129.7696,33.5702],[129.766,33.5689],[129.7662,33.5661],[129.7656,33.5654],[129.7655,33.5673],[129.764,33.5655],[129.7641,33.5663],[129.761,33.5673],[129.7634,33.5647],[129.7643,33.565],[129.7649,33.565],[129.7629,33.5637],[129.7603,33.5629],[129.7557,33.5637],[129.754,33.5667],[129.7513,33.5671],[129.7513,33.568],[129.7505,33.5689],[129.746,33.5694],[129.7397,33.5734],[129.7423,33.5738],[129.742,33.5751],[129.7445,33.5757],[129.7449,33.576],[129.7421,33.579],[129.7464,33.5822],[129.7499,33.5818],[129.749,33.5788],[129.7509,33.5795],[129.754,33.5778],[129.7564,33.5814],[129.7614,33.5826]]],[[[129.7738,33.574],[129.7737,33.574],[129.7737,33.574],[129.7738,33.574]]],[[[129.7376,33.5758],[129.7373,33.5752],[129.7368,33.5754],[129.7376,33.5758]]],[[[129.7435,33.5758],[129.7434,33.5757],[129.7434,33.5757],[129.7435,33.5758]]],[[[129.7438,33.5757],[129.7437,33.5758],[129.7438,33.5758],[129.7438,33.5757]]],[[[129.7441,33.5759],[129.744,33.5758],[129.744,33.5758],[129.7441,33.5759]]],[[[129.7433,33.5758],[129.7433,33.5758],[129.7433,33.5758],[129.7433,33.5758]]],[[[129.7444,33.5759],[129.7444,33.5758],[129.7443,33.5759],[129.7444,33.5759]]],[[[129.7431,33.576],[129.743,33.5759],[129.743,33.576],[129.7431,33.576]]],[[[129.7733,33.577],[129.7732,33.5769],[129.7732,33.577],[129.7733,33.577]]],[[[129.773,33.5777],[129.7729,33.5776],[129.7729,33.5776],[129.773,33.5777]]],[[[129.772,33.5793],[129.7719,33.5793],[129.7719,33.5794],[129.772,33.5793]]],[[[129.7712,33.5801],[129.7714,33.58],[129.7712,33.58],[129.7712,33.5801]]],[[[129.7702,33.5809],[129.7701,33.581],[129.7702,33.581],[129.7702,33.5809]]],[[[129.7671,33.5822],[129.7671,33.5823],[129.7672,33.5822],[129.7671,33.5822]]],[[[129.7666,33.5823],[129.7666,33.5823],[129.7666,33.5823],[129.7666,33.5823]]],[[[129.7631,33.5826],[129.7631,33.5825],[129.7631,33.5825],[129.7631,33.5826]]],[[[129.7637,33.5826],[129.7637,33.5827],[129.7637,33.5827],[129.7637,33.5826]]],[[[129.762,33.5828],[129.7619,33.5828],[129.7619,33.5829],[129.762,33.5828]]],[[[129.7608,33.5829],[129.7607,33.5828],[129.7607,33.5829],[129.7608,33.5829]]],[[[129.7605,33.583],[129.7606,33.5829],[129.7605,33.5829],[129.7605,33.583]]],[[[129.8222,33.4213],[129.8223,33.4206],[129.8222,33.4213],[129.8222,33.4213]]],[[[129.8233,33.4218],[129.8233,33.4215],[129.8232,33.4218],[129.8233,33.4218]]],[[[129.821,33.4227],[129.8212,33.4226],[129.8209,33.4226],[129.821,33.4227]]],[[[129.8101,33.4247],[129.8101,33.4249],[129.8103,33.4248],[129.8101,33.4247]]],[[[129.8138,33.4258],[129.8138,33.4259],[129.8138,33.4258],[129.8138,33.4258]]],[[[129.8139,33.4266],[129.8138,33.4266],[129.8139,33.4266],[129.8139,33.4266]]],[[[129.8107,33.4274],[129.8108,33.427],[129.8105,33.4273],[129.8107,33.4274]]],[[[129.8109,33.4283],[129.8105,33.4279],[129.8108,33.4283],[129.8109,33.4283]]],[[[129.813,33.4285],[129.813,33.4284],[129.8129,33.4284],[129.813,33.4285]]],[[[129.8136,33.4297],[129.8137,33.4296],[129.8136,33.4297],[129.8136,33.4297]]],[[[129.8134,33.4308],[129.8133,33.4309],[129.8136,33.4309],[129.8134,33.4308]]],[[[129.8127,33.4318],[129.813,33.4317],[129.8126,33.4317],[129.8127,33.4318]]],[[[129.804,33.432],[129.8056,33.4319],[129.8059,33.4313],[129.804,33.432]]],[[[129.8079,33.4329],[129.8074,33.4327],[129.8074,33.4329],[129.8079,33.4329]]],[[[129.811,33.4331],[129.8101,33.4327],[129.81,33.4327],[129.811,33.4331]]],[[[129.7901,33.4443],[129.7902,33.4444],[129.7902,33.4443],[129.7901,33.4443]]],[[[129.7892,33.4445],[129.7893,33.4445],[129.7893,33.4445],[129.7892,33.4445]]],[[[129.7906,33.4445],[129.7906,33.4446],[129.7907,33.4446],[129.7906,33.4445]]],[[[129.7898,33.4446],[129.7898,33.4447],[129.7899,33.4447],[129.7898,33.4446]]],[[[129.7896,33.4452],[129.7895,33.4452],[129.7896,33.4453],[129.7896,33.4452]]],[[[129.7893,33.4453],[129.7893,33.4454],[129.7893,33.4454],[129.7893,33.4453]]],[[[129.7856,33.448],[129.7859,33.447],[129.7856,33.448],[129.7856,33.448]]],[[[129.7996,33.4564],[129.7995,33.4562],[129.7994,33.4563],[129.7996,33.4564]]],[[[129.7932,33.466],[129.793,33.4659],[129.7931,33.466],[129.7932,33.466]]],[[[129.826,33.4727],[129.826,33.4726],[129.826,33.4727],[129.826,33.4727]]],[[[129.7945,33.4737],[129.7945,33.4735],[129.7944,33.4736],[129.7945,33.4737]]],[[[129.8254,33.4739],[129.8255,33.4738],[129.8254,33.4737],[129.8254,33.4739]]],[[[129.7959,33.4756],[129.7959,33.4756],[129.7958,33.4756],[129.7959,33.4756]]],[[[129.7956,33.4757],[129.7955,33.4757],[129.7956,33.4757],[129.7956,33.4757]]],[[[129.7961,33.4761],[129.7961,33.476],[129.796,33.4761],[129.7961,33.4761]]],[[[129.8265,33.477],[129.8264,33.477],[129.8264,33.477],[129.8265,33.477]]],[[[129.8023,33.4777],[129.8023,33.4778],[129.8023,33.4777],[129.8023,33.4777]]],[[[129.8029,33.4789],[129.8029,33.479],[129.803,33.4789],[129.8029,33.4789]]],[[[129.8233,33.4805],[129.8233,33.4805],[129.8233,33.4805],[129.8233,33.4805]]],[[[129.7917,33.4807],[129.7919,33.4805],[129.7917,33.4805],[129.7917,33.4807]]],[[[129.823,33.4806],[129.823,33.4806],[129.823,33.4806],[129.823,33.4806]]],[[[129.8225,33.4808],[129.8225,33.4809],[129.8225,33.4809],[129.8225,33.4808]]],[[[129.823,33.481],[129.8229,33.4809],[129.8229,33.4811],[129.823,33.481]]],[[[129.8209,33.4823],[129.821,33.4824],[129.821,33.4823],[129.8209,33.4823]]],[[[129.821,33.4836],[129.8211,33.4836],[129.821,33.4835],[129.821,33.4836]]],[[[129.8147,33.4838],[129.8149,33.4837],[129.8148,33.4837],[129.8147,33.4838]]],[[[129.82,33.4841],[129.8201,33.4841],[129.82,33.4841],[129.82,33.4841]]],[[[129.8214,33.4841],[129.8214,33.4842],[129.8215,33.4842],[129.8214,33.4841]]],[[[129.8146,33.4844],[129.8145,33.4844],[129.8146,33.4845],[129.8146,33.4844]]],[[[129.8227,33.4851],[129.8228,33.4851],[129.8227,33.4851],[129.8227,33.4851]]],[[[129.8058,33.4853],[129.8057,33.4852],[129.8057,33.4853],[129.8058,33.4853]]],[[[129.8055,33.4855],[129.8054,33.4854],[129.8054,33.4855],[129.8055,33.4855]]],[[[129.8064,33.4859],[129.8062,33.4858],[129.8062,33.4859],[129.8064,33.4859]]],[[[129.8066,33.4858],[129.8066,33.4859],[129.8066,33.4859],[129.8066,33.4858]]],[[[129.8599,33.3991],[129.8595,33.399],[129.8594,33.3992],[129.8599,33.3991]]],[[[129.8562,33.401],[129.8565,33.401],[129.8562,33.4009],[129.8562,33.401]]],[[[129.8568,33.4015],[129.8571,33.4015],[129.8568,33.4014],[129.8568,33.4015]]],[[[129.856,33.4046],[129.8584,33.4034],[129.8592,33.4038],[129.8588,33.4021],[129.8555,33.4031],[129.856,33.4046]]],[[[129.8479,33.4516],[129.8477,33.4516],[129.8477,33.4517],[129.8479,33.4516]]],[[[129.8454,33.4548],[129.8475,33.4532],[129.8487,33.4539],[129.8471,33.4518],[129.8455,33.453],[129.8466,33.4532],[129.8454,33.4548]]],[[[129.8395,33.456],[129.8382,33.4536],[129.8381,33.4537],[129.8395,33.456]]],[[[129.8449,33.4554],[129.8436,33.4543],[129.8428,33.4541],[129.844,33.4558],[129.8449,33.4554]]],[[[129.8473,33.455],[129.8475,33.4553],[129.8476,33.4549],[129.8473,33.455]]],[[[129.8482,33.4571],[129.85,33.456],[129.8491,33.4551],[129.849,33.4559],[129.8459,33.4554],[129.8482,33.4571]]],[[[129.8499,33.4577],[129.8499,33.4575],[129.8498,33.4576],[129.8499,33.4577]]],[[[129.8482,33.4582],[129.8482,33.4581],[129.8481,33.4581],[129.8482,33.4582]]],[[[129.8383,33.4634],[129.8383,33.4634],[129.8383,33.4634],[129.8383,33.4634]]],[[[129.8265,33.4768],[129.8265,33.4768],[129.8265,33.4768],[129.8265,33.4768]]],[[[129.8523,33.5273],[129.8523,33.5272],[129.8522,33.5272],[129.8523,33.5273]]],[[[129.8467,33.5389],[129.8465,33.5394],[129.8464,33.5404],[129.8467,33.5389]]],[[[129.8457,33.5413],[129.8469,33.5422],[129.8469,33.5422],[129.8457,33.5413]]],[[[129.8461,33.5417],[129.8455,33.5415],[129.8465,33.5421],[129.8461,33.5417]]],[[[129.8488,33.542],[129.8485,33.5422],[129.8488,33.5422],[129.8488,33.542]]],[[[129.8498,33.5502],[129.8499,33.5504],[129.8499,33.5501],[129.8498,33.5502]]],[[[129.85,33.5523],[129.8501,33.5523],[129.85,33.5522],[129.85,33.5523]]],[[[129.8562,33.5523],[129.8564,33.5525],[129.8562,33.5522],[129.8562,33.5523]]],[[[129.8484,33.5533],[129.8485,33.553],[129.8482,33.5533],[129.8484,33.5533]]],[[[129.8507,33.5538],[129.8506,33.5537],[129.8506,33.5537],[129.8507,33.5538]]],[[[129.845,33.5543],[129.8449,33.5542],[129.8449,33.5543],[129.845,33.5543]]],[[[129.8455,33.5545],[129.8454,33.5545],[129.8455,33.5545],[129.8455,33.5545]]],[[[129.8453,33.5546],[129.8453,33.5546],[129.8453,33.5547],[129.8453,33.5546]]],[[[129.8458,33.5548],[129.8457,33.5549],[129.8458,33.5548],[129.8458,33.5548]]],[[[129.8458,33.5551],[129.8457,33.555],[129.8457,33.5551],[129.8458,33.5551]]],[[[129.852,33.5559],[129.8519,33.5558],[129.8519,33.5559],[129.852,33.5559]]],[[[129.8447,33.5564],[129.8445,33.5564],[129.8447,33.5564],[129.8447,33.5564]]],[[[129.8455,33.5563],[129.8455,33.5566],[129.8457,33.5566],[129.8455,33.5563]]],[[[129.838,33.5829],[129.838,33.5824],[129.8375,33.5827],[129.838,33.5829]]],[[[129.8357,33.5827],[129.8356,33.5827],[129.8356,33.5827],[129.8357,33.5827]]],[[[129.8352,33.5829],[129.8352,33.5827],[129.8351,33.5827],[129.8352,33.5829]]],[[[129.8356,33.583],[129.8355,33.583],[129.8355,33.583],[129.8356,33.583]]],[[[129.8336,33.5831],[129.8335,33.5829],[129.8335,33.5831],[129.8336,33.5831]]],[[[129.834,33.5831],[129.834,33.5832],[129.834,33.5832],[129.834,33.5831]]],[[[129.8406,33.5845],[129.8408,33.5843],[129.8406,33.5844],[129.8406,33.5845]]],[[[129.8461,33.5919],[129.8478,33.5903],[129.8446,33.585],[129.841,33.5846],[129.8404,33.5857],[129.8393,33.584],[129.8371,33.5838],[129.8354,33.5851],[129.8366,33.5895],[129.84,33.5881],[129.8421,33.591],[129.8461,33.5919]]],[[[129.8488,33.5907],[129.8486,33.5907],[129.8487,33.5907],[129.8488,33.5907]]],[[[129.8486,33.5908],[129.8486,33.5909],[129.8487,33.5908],[129.8486,33.5908]]],[[[129.8484,33.591],[129.8486,33.5909],[129.8484,33.5909],[129.8484,33.591]]],[[[129.8484,33.5912],[129.8484,33.5912],[129.8484,33.5913],[129.8484,33.5912]]],[[[129.8483,33.5914],[129.8483,33.5914],[129.8483,33.5914],[129.8483,33.5914]]],[[[129.8559,33.5927],[129.8558,33.5927],[129.8558,33.5928],[129.8559,33.5927]]],[[[129.8555,33.5928],[129.8557,33.5927],[129.8555,33.5927],[129.8555,33.5928]]],[[[129.8625,33.619],[129.8647,33.6174],[129.8649,33.6147],[129.8627,33.6133],[129.8637,33.6131],[129.8635,33.6111],[129.8589,33.6093],[129.8611,33.6101],[129.8633,33.6086],[129.8622,33.6062],[129.8605,33.6055],[129.8595,33.6031],[129.8615,33.5975],[129.8627,33.5976],[129.8623,33.5968],[129.8684,33.5963],[129.8648,33.5917],[129.8659,33.5905],[129.8643,33.5864],[129.8642,33.5875],[129.8609,33.5864],[129.8618,33.5871],[129.8587,33.5887],[129.8578,33.5876],[129.8602,33.5871],[129.8604,33.5866],[129.8604,33.5861],[129.8575,33.5878],[129.8586,33.5922],[129.8518,33.5949],[129.8481,33.5994],[129.8491,33.6006],[129.8519,33.5994],[129.8508,33.6015],[129.851,33.6036],[129.8534,33.6041],[129.8524,33.607],[129.8548,33.6102],[129.8597,33.6128],[129.8559,33.6167],[129.8623,33.6175],[129.8625,33.619]]],[[[129.8503,33.6047],[129.8499,33.604],[129.8495,33.6043],[129.8503,33.6047]]],[[[129.8626,33.3976],[129.8623,33.3971],[129.8621,33.3973],[129.8626,33.3976]]],[[[129.8642,33.3985],[129.8638,33.3971],[129.8631,33.3974],[129.8642,33.3985]]],[[[129.8628,33.4004],[129.863,33.4004],[129.863,33.4003],[129.8628,33.4004]]],[[[129.8662,33.4022],[129.8654,33.4025],[129.8645,33.401],[129.8601,33.3994],[129.8607,33.4009],[129.864,33.4016],[129.8651,33.4037],[129.8662,33.4022]]],[[[129.8604,33.4052],[129.8604,33.4044],[129.8598,33.4049],[129.8604,33.4052]]],[[[129.8617,33.4074],[129.8622,33.4074],[129.8622,33.4073],[129.8617,33.4074]]],[[[129.8823,33.5409],[129.8824,33.5409],[129.8824,33.5408],[129.8823,33.5409]]],[[[129.8819,33.5413],[129.8816,33.5418],[129.882,33.542],[129.8819,33.5413]]],[[[129.881,33.5417],[129.881,33.5423],[129.8814,33.5421],[129.881,33.5417]]],[[[129.8812,33.5425],[129.8811,33.5424],[129.881,33.5425],[129.8812,33.5425]]],[[[129.8926,33.5491],[129.8927,33.5491],[129.8926,33.549],[129.8926,33.5491]]],[[[129.8613,33.5498],[129.8633,33.55],[129.8664,33.5503],[129.8664,33.5501],[129.8613,33.5498]]],[[[129.8947,33.5528],[129.893,33.5536],[129.8955,33.5528],[129.8947,33.5528]]],[[[129.882,33.5677],[129.8856,33.5631],[129.8901,33.559],[129.8897,33.5578],[129.8907,33.5576],[129.8896,33.5578],[129.8883,33.5561],[129.8893,33.5555],[129.8903,33.5572],[129.8926,33.5562],[129.8936,33.5544],[129.8913,33.5535],[129.8916,33.5543],[129.8905,33.5547],[129.8901,33.5518],[129.8852,33.5482],[129.8807,33.5471],[129.8812,33.5442],[129.8781,33.5449],[129.8756,33.5437],[129.8734,33.5444],[129.873,33.5468],[129.8721,33.5465],[129.8683,33.5466],[129.8736,33.5469],[129.8751,33.5494],[129.8764,33.5497],[129.8742,33.5515],[129.8756,33.5544],[129.8742,33.5558],[129.8739,33.5596],[129.8787,33.5632],[129.8787,33.5665],[129.882,33.5677]]],[[[129.8918,33.5574],[129.8917,33.5575],[129.891,33.5579],[129.8918,33.5574]]],[[[129.8858,33.5639],[129.8857,33.5638],[129.8857,33.5638],[129.8858,33.5639]]],[[[129.8963,33.5648],[129.8971,33.5642],[129.8961,33.5644],[129.8963,33.5648]]],[[[129.881,33.5677],[129.881,33.5676],[129.8809,33.5677],[129.881,33.5677]]],[[[129.881,33.5677],[129.8811,33.5677],[129.8811,33.5677],[129.881,33.5677]]],[[[129.8811,33.5677],[129.8812,33.5677],[129.8811,33.5677],[129.8811,33.5677]]],[[[129.8685,33.5852],[129.8684,33.5855],[129.8686,33.5852],[129.8685,33.5852]]],[[[129.8685,33.5908],[129.869,33.5899],[129.8683,33.5906],[129.8685,33.5908]]],[[[129.8914,33.594],[129.8921,33.5939],[129.8915,33.5931],[129.8914,33.594]]],[[[129.8914,33.5944],[129.8915,33.5942],[129.8913,33.5943],[129.8914,33.5944]]],[[[129.8938,33.595],[129.8938,33.595],[129.8937,33.595],[129.8937,33.595],[129.8938,33.595]]],[[[129.8944,33.5952],[129.8944,33.5952],[129.8944,33.5952],[129.8944,33.5952]]],[[[129.8641,33.5971],[129.8641,33.597],[129.864,33.597],[129.8641,33.5971]]],[[[129.8638,33.5971],[129.8638,33.597],[129.8637,33.597],[129.8638,33.5971]]],[[[129.863,33.5973],[129.863,33.5971],[129.8629,33.5971],[129.863,33.5973]]],[[[129.8628,33.5973],[129.8627,33.5973],[129.8628,33.5973],[129.8628,33.5973]]],[[[129.8635,33.5973],[129.8634,33.5974],[129.8635,33.5974],[129.8635,33.5973]]],[[[129.863,33.5974],[129.8629,33.5974],[129.863,33.5975],[129.863,33.5974]]],[[[129.893,33.5978],[129.893,33.5977],[129.893,33.5977],[129.893,33.5978]]],[[[129.8619,33.5979],[129.8617,33.5979],[129.8617,33.5979],[129.8619,33.5979]]],[[[129.8985,33.604],[129.9008,33.6023],[129.9034,33.6024],[129.9026,33.6008],[129.903,33.5993],[129.9012,33.598],[129.9032,33.5957],[129.9015,33.5919],[129.9014,33.5934],[129.8994,33.5932],[129.9007,33.5936],[129.8988,33.5955],[129.8977,33.5942],[129.8991,33.5935],[129.8989,33.5931],[129.8952,33.5943],[129.8948,33.593],[129.8977,33.5929],[129.8988,33.5926],[129.8934,33.593],[129.8933,33.5945],[129.8941,33.5946],[129.8951,33.5961],[129.8929,33.5978],[129.894,33.6013],[129.8985,33.604]]],[[[129.8618,33.5982],[129.8617,33.5982],[129.8617,33.5982],[129.8618,33.5982]]],[[[129.8613,33.5984],[129.8614,33.5983],[129.8613,33.5983],[129.8613,33.5984]]],[[[129.8615,33.5987],[129.8615,33.5988],[129.8615,33.5987],[129.8615,33.5987]]],[[[129.8611,33.5996],[129.8611,33.5994],[129.8611,33.5994],[129.8611,33.5996]]],[[[129.8609,33.5998],[129.8609,33.5999],[129.861,33.5997],[129.8609,33.5998]]],[[[129.8936,33.6011],[129.8936,33.601],[129.8935,33.6011],[129.8936,33.6011]]],[[[129.8944,33.6017],[129.8941,33.6015],[129.8941,33.6015],[129.8944,33.6017]]],[[[129.8956,33.603],[129.8956,33.6029],[129.8953,33.6029],[129.8956,33.603]]],[[[129.896,33.603],[129.896,33.6032],[129.8961,33.6031],[129.896,33.603]]],[[[129.9,33.6037],[129.9002,33.6037],[129.9001,33.6036],[129.9,33.6037]]],[[[129.8602,33.6039],[129.8601,33.6039],[129.8601,33.604],[129.8602,33.6039]]],[[[129.8607,33.6045],[129.8607,33.6046],[129.8608,33.6046],[129.8607,33.6045]]],[[[129.8632,33.6074],[129.8632,33.6075],[129.8632,33.6075],[129.8632,33.6074]]],[[[129.8631,33.6075],[129.863,33.6076],[129.8631,33.6076],[129.8631,33.6075]]],[[[129.8459,33.556],[129.8517,33.5558],[129.8522,33.5536],[129.858,33.5514],[129.8592,33.5496],[129.8608,33.5498],[129.8583,33.5493],[129.8595,33.5486],[129.8587,33.5469],[129.8595,33.5461],[129.8596,33.5451],[129.8587,33.5468],[129.8564,33.5466],[129.8581,33.5442],[129.859,33.5448],[129.8582,33.5442],[129.8588,33.5434],[129.8604,33.5434],[129.8613,33.5421],[129.8643,33.5423],[129.8658,33.5393],[129.8694,33.5371],[129.8734,33.5362],[129.874,33.5372],[129.8783,33.5382],[129.8763,33.5372],[129.8794,33.5337],[129.8787,33.5333],[129.8806,33.5282],[129.8786,33.527],[129.8782,33.5236],[129.8754,33.523],[129.8761,33.5219],[129.8742,33.5202],[129.8743,33.516],[129.876,33.5163],[129.8788,33.5226],[129.884,33.5207],[129.8867,33.5222],[129.8821,33.5237],[129.882,33.5256],[129.8841,33.5262],[129.8822,33.5277],[129.8823,33.5294],[129.8836,33.5303],[129.8819,33.5344],[129.8847,33.5379],[129.8828,33.5406],[129.8861,33.5404],[129.8861,33.5417],[129.8906,33.5418],[129.8932,33.5396],[129.8914,33.537],[129.8946,33.5379],[129.8948,33.5399],[129.8917,33.5431],[129.8918,33.545],[129.8913,33.5431],[129.8911,33.546],[129.8903,33.5446],[129.8911,33.5466],[129.89,33.548],[129.891,33.5469],[129.8927,33.5479],[129.891,33.5483],[129.8923,33.5488],[129.8935,33.5473],[129.8965,33.5495],[129.8951,33.5511],[129.901,33.5454],[129.9022,33.5463],[129.9036,33.5451],[129.906,33.545],[129.9065,33.5463],[129.9045,33.546],[129.9055,33.5475],[129.9047,33.5482],[129.9034,33.547],[129.9025,33.5469],[129.905,33.5485],[129.9092,33.5494],[129.9116,33.5435],[129.9179,33.5418],[129.9283,33.5458],[129.9281,33.5506],[129.9302,33.551],[129.93,33.5496],[129.932,33.5499],[129.9314,33.5488],[129.933,33.5494],[129.9306,33.5453],[129.9289,33.5387],[129.9292,33.5375],[129.9306,33.5374],[129.9294,33.5375],[129.9299,33.5365],[129.9459,33.5284],[129.9503,33.5283],[129.9515,33.5308],[129.9528,33.5297],[129.9576,33.5294],[129.9573,33.5268],[129.9591,33.5246],[129.9578,33.5261],[129.956,33.5254],[129.9567,33.5251],[129.9559,33.5251],[129.956,33.5233],[129.9573,33.5241],[129.9575,33.522],[129.9585,33.5228],[129.9576,33.5245],[129.9579,33.525],[129.9586,33.5228],[129.9574,33.5218],[129.958,33.5207],[129.9562,33.52],[129.9566,33.5182],[129.9605,33.5146],[129.9682,33.5134],[129.9693,33.5114],[129.9658,33.5067],[129.9613,33.5039],[129.9597,33.5035],[129.9616,33.5045],[129.9599,33.5043],[129.959,33.506],[129.9534,33.5035],[129.9499,33.4983],[129.944,33.4933],[129.9465,33.4874],[129.9455,33.4844],[129.9442,33.4838],[129.9438,33.4824],[129.9427,33.4813],[129.9439,33.4832],[129.9405,33.4828],[129.942,33.4814],[129.94,33.4826],[129.9397,33.4811],[129.9392,33.4834],[129.9376,33.4821],[129.939,33.4813],[129.9375,33.48],[129.9425,33.4746],[129.9477,33.4724],[129.9483,33.4757],[129.9476,33.4778],[129.9502,33.4785],[129.9518,33.474],[129.955,33.471],[129.9541,33.4698],[129.9558,33.4688],[129.9557,33.47],[129.9573,33.4699],[129.9537,33.4746],[129.9566,33.4762],[129.958,33.4738],[129.9569,33.4726],[129.9583,33.4707],[129.9604,33.4731],[129.9577,33.4779],[129.9584,33.4783],[129.9568,33.4796],[129.958,33.4796],[129.96,33.4835],[129.9652,33.4832],[129.969,33.4796],[129.9711,33.4755],[129.9686,33.4719],[129.9667,33.4721],[129.9671,33.4699],[129.96,33.4687],[129.9616,33.4668],[129.9624,33.4685],[129.9626,33.4674],[129.9615,33.4667],[129.9644,33.4633],[129.9613,33.4614],[129.9595,33.4654],[129.9586,33.4651],[129.9606,33.4606],[129.9656,33.4633],[129.9669,33.4618],[129.9661,33.4623],[129.9662,33.4615],[129.9679,33.4622],[129.9671,33.4616],[129.9693,33.4614],[129.9676,33.4602],[129.9664,33.4615],[129.9635,33.4597],[129.9678,33.4558],[129.978,33.4551],[129.9788,33.4564],[129.9798,33.4534],[129.9832,33.4527],[129.9837,33.4536],[129.9821,33.4538],[129.9837,33.4537],[129.9838,33.4536],[129.9838,33.4535],[129.9835,33.4528],[129.9836,33.4526],[129.9933,33.4479],[130.0025,33.4464],[130.0187,33.4463],[130.0266,33.4476],[130.0344,33.4508],[130.0389,33.4534],[130.0398,33.4556],[130.0413,33.4561],[130.0407,33.4579],[130.0375,33.4594],[130.0382,33.46],[130.0374,33.4594],[130.0371,33.4593],[130.0368,33.4594],[130.0381,33.4601],[130.037,33.461],[130.0365,33.4595],[130.036,33.4605],[130.0368,33.4632],[130.0355,33.4659],[130.0386,33.4683],[130.039,33.47],[130.0449,33.4674],[130.0511,33.4695],[130.052,33.4686],[130.0551,33.4694],[130.0574,33.4712],[130.0606,33.4704],[130.0681,33.4725],[130.0736,33.4691],[130.0764,33.47],[130.0795,33.4684],[130.0858,33.4697],[130.0906,33.4686],[130.1009,33.4709],[130.1031,33.4759],[130.1054,33.4761],[130.1069,33.4778],[130.1136,33.4752],[130.1296,33.4756],[130.139,33.4704],[130.1428,33.4744],[130.1459,33.4745],[130.1486,33.4774],[130.1507,33.4776],[130.1568,33.4767],[130.1639,33.4723],[130.1646,33.4693],[130.1688,33.4676],[130.1701,33.4637],[130.1678,33.4592],[130.1658,33.4589],[130.1645,33.4553],[130.1651,33.4534],[130.1692,33.4516],[130.1701,33.4491],[130.1679,33.4445],[130.169,33.4423],[130.1688,33.4382],[130.1666,33.4373],[130.1665,33.4339],[130.1679,33.4316],[130.1661,33.4272],[130.1636,33.4252],[130.1637,33.4235],[130.1579,33.4221],[130.1564,33.4198],[130.1583,33.4191],[130.1595,33.4158],[130.1626,33.4167],[130.1666,33.4156],[130.1667,33.4174],[130.1705,33.4168],[130.1705,33.4158],[130.1645,33.4094],[130.1564,33.4093],[130.1554,33.4066],[130.1565,33.4052],[130.1559,33.4029],[130.1578,33.4008],[130.1564,33.3976],[130.1536,33.395],[130.1539,33.3917],[130.1524,33.3913],[130.1513,33.3892],[130.148,33.3884],[130.141,33.3806],[130.1394,33.3722],[130.1426,33.3689],[130.1425,33.367],[130.1446,33.3646],[130.1448,33.3573],[130.1462,33.3554],[130.1457,33.352],[130.1423,33.3499],[130.1409,33.3467],[130.143,33.339],[130.1386,33.3384],[130.1275,33.3398],[130.1198,33.3332],[130.1168,33.3269],[130.1119,33.3251],[130.0978,33.3144],[130.0861,33.3122],[130.0836,33.3101],[130.0823,33.3067],[130.0782,33.3061],[130.0777,33.3022],[130.0738,33.2997],[130.0633,33.2972],[130.0609,33.2952],[130.0594,33.2918],[130.0554,33.289],[130.0519,33.2888],[130.0507,33.2862],[130.0493,33.287],[130.045,33.2861],[130.0375,33.28],[130.0368,33.278],[130.0345,33.2776],[130.0297,33.2807],[130.0275,33.2809],[130.0272,33.2824],[130.0219,33.2865],[130.0195,33.293],[130.0177,33.2942],[130.0146,33.2943],[130.0119,33.298],[130.0077,33.3088],[130.0091,33.3153],[130.0078,33.3168],[130.0035,33.3196],[130.0002,33.3203],[129.9941,33.3267],[129.9925,33.3266],[129.991,33.3283],[129.989,33.3255],[129.9821,33.3264],[129.9789,33.3309],[129.9753,33.3314],[129.9718,33.3349],[129.9678,33.3362],[129.9644,33.3406],[129.9654,33.3428],[129.9638,33.343],[129.9628,33.3463],[129.9596,33.3478],[129.9555,33.3456],[129.9552,33.3416],[129.9566,33.3382],[129.9581,33.3374],[129.9567,33.3355],[129.9586,33.3336],[129.9598,33.3278],[129.9582,33.3252],[129.9546,33.3228],[129.9502,33.3352],[129.9453,33.3412],[129.9451,33.3453],[129.9425,33.3446],[129.938,33.3459],[129.9385,33.3472],[129.9359,33.3475],[129.934,33.3503],[129.9322,33.351],[129.9325,33.353],[129.9299,33.3552],[129.9301,33.3573],[129.9259,33.3576],[129.923,33.3619],[129.9231,33.3656],[129.9193,33.3644],[129.9202,33.3671],[129.9171,33.3737],[129.9176,33.3746],[129.9147,33.3773],[129.9176,33.3826],[129.9166,33.3843],[129.9171,33.3884],[129.9185,33.3891],[129.9203,33.3944],[129.9176,33.3984],[129.9166,33.3978],[129.9151,33.3993],[129.9131,33.4028],[129.9056,33.4069],[129.904,33.4096],[129.9042,33.4118],[129.903,33.4126],[129.9009,33.4119],[129.8991,33.41],[129.8911,33.4063],[129.8839,33.4081],[129.8819,33.4074],[129.8819,33.402],[129.8796,33.4001],[129.8803,33.3965],[129.8817,33.3958],[129.8819,33.3928],[129.8837,33.3903],[129.882,33.3887],[129.878,33.3889],[129.8763,33.3872],[129.8748,33.3873],[129.873,33.3903],[129.8706,33.3906],[129.8682,33.3932],[129.8648,33.3933],[129.8701,33.3937],[129.8698,33.3918],[129.8706,33.3915],[129.8703,33.3927],[129.8718,33.3936],[129.8696,33.3956],[129.8707,33.3967],[129.8663,33.3962],[129.8668,33.3974],[129.8658,33.3988],[129.8687,33.3999],[129.8687,33.401],[129.8666,33.4013],[129.868,33.4025],[129.8666,33.4042],[129.8707,33.4048],[129.8666,33.4051],[129.8686,33.4059],[129.8677,33.4063],[129.869,33.4077],[129.8678,33.4083],[129.8639,33.4061],[129.8667,33.4095],[129.8639,33.4082],[129.863,33.409],[129.8641,33.4088],[129.8647,33.4106],[129.8628,33.4124],[129.859,33.4115],[129.8608,33.4102],[129.8602,33.4078],[129.8588,33.4074],[129.86,33.4066],[129.8613,33.4073],[129.8614,33.4059],[129.8554,33.406],[129.8554,33.4042],[129.8538,33.4031],[129.8523,33.4054],[129.8471,33.4058],[129.846,33.407],[129.8447,33.4065],[129.8426,33.4083],[129.8407,33.4072],[129.8378,33.4078],[129.8383,33.4112],[129.8348,33.4123],[129.8331,33.414],[129.8306,33.4143],[129.8303,33.4128],[129.8282,33.4119],[129.8235,33.412],[129.8221,33.4146],[129.8236,33.4209],[129.8242,33.4195],[129.8291,33.42],[129.8316,33.422],[129.828,33.421],[129.8245,33.4228],[129.8245,33.4245],[129.8227,33.4231],[129.8234,33.422],[129.8215,33.4234],[129.8219,33.4243],[129.8189,33.4243],[129.8186,33.4258],[129.82,33.427],[129.8167,33.4265],[129.8139,33.4285],[129.8138,33.43],[129.8148,33.4304],[129.814,33.431],[129.8149,33.4313],[129.8134,33.432],[129.8146,33.4331],[129.8112,33.433],[129.8119,33.4339],[129.811,33.4354],[129.8109,33.4341],[129.8028,33.4361],[129.8009,33.4377],[129.8013,33.4409],[129.7995,33.4419],[129.7962,33.4409],[129.7979,33.4425],[129.7973,33.4436],[129.792,33.4435],[129.7894,33.442],[129.7911,33.4449],[129.7885,33.4468],[129.7912,33.4484],[129.7897,33.4514],[129.789,33.449],[129.7862,33.4482],[129.783,33.4513],[129.7845,33.456],[129.79,33.459],[129.7929,33.4585],[129.7941,33.46],[129.7952,33.4588],[129.7944,33.4573],[129.7988,33.4572],[129.7988,33.4529],[129.8002,33.4548],[129.8035,33.4533],[129.8036,33.4552],[129.808,33.4582],[129.8082,33.4592],[129.8058,33.4599],[129.807,33.4613],[129.8063,33.4619],[129.8048,33.4617],[129.8051,33.4604],[129.8043,33.4623],[129.7983,33.4637],[129.7983,33.4654],[129.7947,33.4682],[129.7958,33.4712],[129.7937,33.472],[129.7962,33.4755],[129.8007,33.4746],[129.8014,33.4776],[129.8041,33.4776],[129.8038,33.4791],[129.8065,33.4857],[129.813,33.4794],[129.814,33.4809],[129.8154,33.4796],[129.8152,33.4834],[129.8192,33.4826],[129.8202,33.4838],[129.821,33.4812],[129.8265,33.4794],[129.8256,33.4761],[129.8265,33.4747],[129.8255,33.4761],[129.8236,33.4743],[129.825,33.4726],[129.8246,33.4738],[129.8257,33.4734],[129.8249,33.471],[129.826,33.4684],[129.8333,33.4657],[129.8345,33.4639],[129.8374,33.4643],[129.8393,33.4622],[129.839,33.4589],[129.8404,33.4576],[129.839,33.4587],[129.8365,33.4564],[129.8351,33.4528],[129.8367,33.4453],[129.835,33.4423],[129.8359,33.4422],[129.8379,33.4453],[129.8368,33.4477],[129.8378,33.4479],[129.8366,33.4492],[129.8388,33.4506],[129.8418,33.4492],[129.8434,33.447],[129.8433,33.4449],[129.8446,33.4441],[129.8475,33.4462],[129.8495,33.4448],[129.8515,33.4472],[129.8556,33.447],[129.8583,33.4488],[129.8634,33.4455],[129.8599,33.4427],[129.8598,33.4399],[129.8585,33.4388],[129.8596,33.4362],[129.8587,33.4333],[129.8611,33.4348],[129.865,33.4339],[129.8664,33.4365],[129.8675,33.435],[129.8712,33.4347],[129.8707,33.4332],[129.8721,33.4308],[129.8749,33.4305],[129.8791,33.4327],[129.8808,33.4361],[129.8807,33.4411],[129.8864,33.441],[129.8899,33.4419],[129.8916,33.4431],[129.8894,33.4421],[129.887,33.4432],[129.8868,33.4451],[129.8893,33.4497],[129.888,33.4515],[129.889,33.4545],[129.8907,33.4547],[129.891,33.4528],[129.8923,33.4522],[129.8945,33.4554],[129.8966,33.4546],[129.8957,33.4558],[129.8962,33.4569],[129.8943,33.4583],[129.8965,33.4603],[129.8982,33.4602],[129.8989,33.4632],[129.8979,33.4644],[129.896,33.4632],[129.8945,33.4638],[129.8947,33.4655],[129.8963,33.4674],[129.8988,33.4684],[129.8999,33.4673],[129.9051,33.4711],[129.9029,33.4787],[129.9037,33.4802],[129.9017,33.4813],[129.9024,33.4829],[129.9012,33.4834],[129.9013,33.4854],[129.8981,33.4862],[129.8973,33.4895],[129.8889,33.4922],[129.886,33.4965],[129.8844,33.4969],[129.8829,33.5008],[129.8769,33.5013],[129.873,33.5038],[129.8685,33.5091],[129.8639,33.5101],[129.8632,33.5089],[129.8605,33.5089],[129.8569,33.5114],[129.858,33.5119],[129.8571,33.5135],[129.8531,33.5133],[129.8502,33.5145],[129.8474,33.5176],[129.8493,33.5209],[129.8486,33.5221],[129.8399,33.5223],[129.8402,33.5248],[129.8424,33.5251],[129.8439,33.524],[129.847,33.5252],[129.8526,33.5227],[129.8519,33.5221],[129.8529,33.5204],[129.857,33.5193],[129.8571,33.5203],[129.8536,33.5219],[129.8544,33.5246],[129.8524,33.526],[129.8534,33.5286],[129.856,33.5309],[129.8564,33.5333],[129.8488,33.5368],[129.8481,33.5379],[129.8507,33.5389],[129.8501,33.5398],[129.85,33.5405],[129.8506,33.5392],[129.8519,33.5397],[129.8509,33.5406],[129.8515,33.5416],[129.8487,33.5432],[129.8466,33.5425],[129.8484,33.544],[129.8472,33.5474],[129.8489,33.547],[129.8477,33.5485],[129.8501,33.5495],[129.8514,33.5536],[129.8482,33.5554],[129.8462,33.5546],[129.8459,33.556]]],[[[129.981,33.4549],[129.9808,33.4547],[129.9808,33.455],[129.981,33.4549]]],[[[129.9789,33.4566],[129.9783,33.4572],[129.9762,33.4578],[129.9785,33.4572],[129.9788,33.4569],[129.9789,33.4566]]],[[[129.9754,33.4581],[129.9722,33.4579],[129.9722,33.4579],[129.9744,33.4581],[129.9749,33.4581],[129.9754,33.4581]]],[[[129.9782,33.4674],[129.9768,33.4649],[129.9786,33.465],[129.9783,33.4642],[129.9751,33.4651],[129.9782,33.4674]]],[[[129.9746,33.4687],[129.9755,33.4678],[129.9762,33.467],[129.9759,33.4673],[129.9746,33.4687]]],[[[129.9733,33.4702],[129.9698,33.4722],[129.9698,33.4723],[129.9698,33.4723],[129.9733,33.4702]]],[[[129.991,33.4714],[129.9899,33.4713],[129.9899,33.4713],[129.991,33.4714]]],[[[129.9918,33.4802],[129.9945,33.4767],[129.9942,33.4729],[129.9937,33.4723],[129.993,33.4718],[129.9908,33.4719],[129.9938,33.4724],[129.9925,33.473],[129.9899,33.4729],[129.9901,33.4718],[129.9864,33.4721],[129.9893,33.473],[129.9864,33.4734],[129.9859,33.473],[129.986,33.4721],[129.9856,33.4718],[129.9857,33.4789],[129.9881,33.4806],[129.9918,33.4802]]],[[[129.9936,33.4786],[129.9935,33.4786],[129.9935,33.4786],[129.9936,33.4786]]],[[[129.9933,33.479],[129.9932,33.479],[129.9932,33.479],[129.9933,33.479]]],[[[129.9922,33.4802],[129.9922,33.48],[129.9921,33.4801],[129.9922,33.4802]]],[[[129.9607,33.4849],[129.957,33.4881],[129.9569,33.4881],[129.957,33.4882],[129.9607,33.4849]]],[[[129.9641,33.5297],[129.964,33.5297],[129.9641,33.5298],[129.9641,33.5297]]],[[[129.9655,33.5313],[129.9655,33.5312],[129.9654,33.5312],[129.9655,33.5313]]],[[[129.9657,33.5316],[129.9657,33.5314],[129.9656,33.5315],[129.9657,33.5316]]],[[[129.9739,33.5436],[129.9777,33.5399],[129.9773,33.5325],[129.974,33.5278],[129.9732,33.5276],[129.974,33.5289],[129.9729,33.5279],[129.9711,33.5287],[129.967,33.5271],[129.9644,33.53],[129.9701,33.5362],[129.9669,33.5377],[129.9692,33.5371],[129.9711,33.5389],[129.9704,33.5398],[129.9718,33.5392],[129.9696,33.5409],[129.9671,33.5388],[129.966,33.539],[129.9654,33.5373],[129.9639,33.5383],[129.9683,33.542],[129.9739,33.5436]]],[[[129.9036,33.5596],[129.9037,33.5588],[129.9032,33.5578],[129.9023,33.5581],[129.9036,33.5596]]],[[[129.9039,33.5587],[129.9039,33.5587],[129.9039,33.5587],[129.9039,33.5587]]],[[[129.9039,33.5792],[129.9035,33.5791],[129.9036,33.5793],[129.9039,33.5792]]],[[[129.9041,33.5793],[129.9044,33.5791],[129.9041,33.5791],[129.9041,33.5793]]],[[[129.9097,33.5812],[129.9096,33.5813],[129.9097,33.5812],[129.9097,33.5812]]],[[[129.9042,33.5812],[129.9044,33.5813],[129.9043,33.5811],[129.9042,33.5812]]],[[[129.9094,33.5813],[129.9094,33.5812],[129.9094,33.5813],[129.9094,33.5813]]],[[[129.9098,33.5814],[129.9097,33.5813],[129.9097,33.5814],[129.9098,33.5814]]],[[[129.9114,33.5814],[129.9112,33.5818],[129.9115,33.5815],[129.9114,33.5814]]],[[[129.9103,33.5818],[129.9106,33.582],[129.9103,33.5818],[129.9103,33.5818]]],[[[129.9116,33.582],[129.9117,33.5819],[129.9116,33.5819],[129.9116,33.582]]],[[[129.9109,33.5824],[129.911,33.5825],[129.9111,33.5825],[129.9109,33.5824]]],[[[129.9109,33.5829],[129.9109,33.5825],[129.9105,33.5829],[129.9109,33.5829]]],[[[129.9098,33.5831],[129.9097,33.583],[129.9098,33.5831],[129.9098,33.5831]]],[[[129.9101,33.5832],[129.9099,33.5833],[129.9102,33.5833],[129.9101,33.5832]]],[[[129.9108,33.5838],[129.9107,33.5834],[129.9105,33.5837],[129.9108,33.5838]]],[[[129.9101,33.5836],[129.9098,33.584],[129.9101,33.5841],[129.9101,33.5836]]],[[[129.9089,33.5839],[129.9091,33.5838],[129.9089,33.5838],[129.9089,33.5839]]],[[[129.9108,33.584],[129.9108,33.5839],[129.9107,33.5839],[129.9108,33.584]]],[[[129.9087,33.5853],[129.9088,33.5853],[129.9087,33.5853],[129.9087,33.5853]]],[[[129.9087,33.5854],[129.9087,33.5859],[129.9089,33.5856],[129.9087,33.5854]]],[[[129.9031,33.5994],[129.9032,33.5993],[129.9031,33.5993],[129.9031,33.5994]]],[[[129.9031,33.5997],[129.9034,33.5997],[129.903,33.5996],[129.9031,33.5997]]],[[[129.903,33.6003],[129.903,33.6002],[129.903,33.6003],[129.903,33.6003]]],[[[129.9036,33.6011],[129.9035,33.6011],[129.9037,33.6011],[129.9036,33.6011]]],[[[129.9033,33.6013],[129.9033,33.6012],[129.9033,33.6013],[129.9033,33.6013]]],[[[129.9034,33.6013],[129.9034,33.6013],[129.9033,33.6013],[129.9034,33.6013]]],[[[129.9035,33.6021],[129.9034,33.6018],[129.9033,33.6018],[129.9035,33.6021]]],[[[129.9034,33.6027],[129.9034,33.6025],[129.9033,33.6026],[129.9034,33.6027]]],[[[129.9027,33.6028],[129.9027,33.6028],[129.9027,33.6028],[129.9027,33.6028]]],[[[129.9025,33.6029],[129.9025,33.6028],[129.9025,33.6028],[129.9025,33.6029]]]]}},{"type":"Feature","properties":{"code":"41205","name":"伊万里市","pref_code":"41","pref":"佐賀県"},"geometry":{"type":"MultiPolygon","coordinates":[[[[129.8417,33.2926],[129.8415,33.2926],[129.8416,33.2927],[129.8417,33.2926]]],[[[129.8392,33.2928],[129.8391,33.2929],[129.8391,33.2929],[129.8392,33.2928]]],[[[129.8381,33.2959],[129.8391,33.2955],[129.8395,33.2948],[129.8381,33.2959]]],[[[129.8378,33.3292],[129.8378,33.3293],[129.8379,33.3292],[129.8378,33.3292]]],[[[129.8378,33.3298],[129.8381,33.3297],[129.8377,33.3295],[129.8378,33.3298]]],[[[129.8381,33.3304],[129.8381,33.3304],[129.8382,33.3304],[129.8381,33.3304]]],[[[129.8407,33.3317],[129.8407,33.3315],[129.8406,33.3316],[129.8407,33.3317]]],[[[129.8439,33.3421],[129.8432,33.3417],[129.8431,33.342],[129.8439,33.3421]]],[[[129.8422,33.3435],[129.844,33.3432],[129.842,33.3432],[129.8422,33.3435]]],[[[129.9043,33.4117],[129.904,33.4096],[129.9056,33.4069],[129.9131,33.4028],[129.9151,33.3993],[129.9166,33.3978],[129.9176,33.3984],[129.9203,33.3944],[129.9185,33.3891],[129.9171,33.3884],[129.9166,33.3843],[129.9176,33.3826],[129.9147,33.3773],[129.9176,33.3746],[129.9171,33.3737],[129.9202,33.3671],[129.9193,33.3644],[129.9231,33.3656],[129.923,33.3619],[129.9259,33.3576],[129.9301,33.3573],[129.9299,33.3552],[129.9325,33.353],[129.9322,33.351],[129.934,33.3503],[129.9359,33.3475],[129.9385,33.3472],[129.938,33.3459],[129.9425,33.3446],[129.9451,33.3453],[129.9453,33.3412],[129.9502,33.3352],[129.9546,33.3228],[129.9582,33.3252],[129.9598,33.3278],[129.9586,33.3336],[129.9567,33.3355],[129.9581,33.3374],[129.9566,33.3382],[129.9552,33.3416],[129.9555,33.3456],[129.9596,33.3478],[129.9628,33.3463],[129.9638,33.343],[129.9654,33.3428],[129.9644,33.3406],[129.9678,33.3362],[129.9718,33.3349],[129.9753,33.3314],[129.9789,33.3309],[129.9821,33.3264],[129.989,33.3255],[129.991,33.3283],[129.9925,33.3266],[129.9941,33.3267],[130.0002,33.3203],[130.0035,33.3196],[130.0078,33.3168],[130.0091,33.3153],[130.0077,33.3088],[130.0119,33.298],[130.0146,33.2943],[130.0177,33.2942],[130.0195,33.293],[130.0219,33.2865],[130.0254,33.283],[130.0223,33.281],[130.0133,33.2821],[130.0084,33.2795],[130.0021,33.2808],[130.0012,33.2797],[129.992,33.2785],[129.9894,33.2762],[129.9792,33.2738],[129.9724,33.2686],[129.9729,33.267],[129.9711,33.2617],[129.9654,33.2605],[129.9648,33.2578],[129.9611,33.2548],[129.9506,33.257],[129.951,33.2544],[129.9485,33.2518],[129.9466,33.2515],[129.9468,33.249],[129.9418,33.2446],[129.9399,33.2408],[129.938,33.2412],[129.9363,33.2385],[129.9366,33.2372],[129.9344,33.2357],[129.9312,33.2299],[129.9243,33.2297],[129.921,33.2259],[129.9153,33.2278],[129.9098,33.2269],[129.9038,33.2278],[129.9,33.2268],[129.8966,33.2236],[129.8912,33.2252],[129.8875,33.2244],[129.885,33.2257],[129.8793,33.2255],[129.8771,33.2298],[129.8727,33.2311],[129.8695,33.2411],[129.8662,33.2392],[129.8639,33.2411],[129.8605,33.2413],[129.8545,33.2387],[129.8512,33.2418],[129.849,33.2381],[129.8443,33.2362],[129.8404,33.2365],[129.8366,33.2351],[129.8319,33.235],[129.8253,33.2368],[129.8141,33.2364],[129.8154,33.2391],[129.8143,33.2424],[129.8097,33.2428],[129.7984,33.2533],[129.7905,33.2577],[129.7841,33.2639],[129.784,33.2652],[129.7801,33.2672],[129.7785,33.2692],[129.7682,33.2858],[129.7662,33.2862],[129.7633,33.2903],[129.759,33.2908],[129.764,33.306],[129.7669,33.3074],[129.7662,33.3113],[129.7699,33.3171],[129.7693,33.3198],[129.7763,33.3305],[129.7766,33.333],[129.7816,33.3354],[129.7821,33.3371],[129.7908,33.3404],[129.7908,33.3393],[129.7917,33.3399],[129.7927,33.3394],[129.7918,33.3396],[129.7912,33.3381],[129.7935,33.3384],[129.7927,33.3377],[129.7963,33.3342],[129.7992,33.3341],[129.7942,33.3372],[129.8041,33.3384],[129.8111,33.3327],[129.8088,33.33],[129.811,33.3327],[129.8072,33.3358],[129.8028,33.332],[129.8039,33.3291],[129.8086,33.3266],[129.8089,33.3234],[129.8079,33.3238],[129.8077,33.3228],[129.8112,33.3221],[129.8143,33.323],[129.8183,33.3212],[129.8156,33.322],[129.8106,33.3202],[129.8131,33.3169],[129.8134,33.3148],[129.8121,33.3144],[129.8178,33.315],[129.8188,33.3163],[129.8175,33.3212],[129.8157,33.3219],[129.8176,33.3213],[129.8189,33.3164],[129.8179,33.3204],[129.819,33.3165],[129.8205,33.316],[129.8179,33.3121],[129.8132,33.3116],[129.8137,33.3087],[129.8156,33.309],[129.8153,33.3109],[129.8155,33.3098],[129.8214,33.3105],[129.8314,33.2965],[129.8284,33.2957],[129.8298,33.2947],[129.8312,33.2952],[129.8338,33.2908],[129.8356,33.2915],[129.8378,33.2881],[129.8364,33.2874],[129.8368,33.2867],[129.8424,33.2866],[129.8441,33.2932],[129.8478,33.2925],[129.8509,33.2898],[129.8537,33.2916],[129.8537,33.2937],[129.8466,33.3016],[129.839,33.3044],[129.8355,33.3035],[129.8311,33.3042],[129.8278,33.312],[129.8294,33.3127],[129.8359,33.3116],[129.8365,33.3163],[129.8386,33.3162],[129.8394,33.3175],[129.8392,33.3183],[129.8385,33.3175],[129.8366,33.3188],[129.8358,33.3172],[129.8361,33.3229],[129.8377,33.3227],[129.839,33.3189],[129.841,33.3169],[129.8422,33.3172],[129.843,33.3195],[129.8418,33.3234],[129.8435,33.3235],[129.8434,33.3255],[129.8471,33.3261],[129.8468,33.3278],[129.8489,33.3279],[129.8492,33.3295],[129.8459,33.3284],[129.8433,33.3309],[129.8422,33.3305],[129.841,33.3324],[129.8364,33.3305],[129.838,33.3278],[129.8335,33.3285],[129.8305,33.3359],[129.8289,33.3352],[129.8277,33.3373],[129.8328,33.3394],[129.8357,33.3344],[129.8385,33.3356],[129.837,33.3388],[129.8427,33.3413],[129.8486,33.3367],[129.8488,33.339],[129.8472,33.3382],[129.8458,33.34],[129.8468,33.3409],[129.844,33.3422],[129.8479,33.3429],[129.8477,33.3437],[129.846,33.3448],[129.8443,33.3442],[129.845,33.3456],[129.8431,33.3454],[129.8422,33.3469],[129.844,33.3473],[129.8442,33.3484],[129.8431,33.3489],[129.8439,33.3517],[129.8437,33.3492],[129.8451,33.3482],[129.8474,33.3493],[129.8486,33.3475],[129.8505,33.3481],[129.8498,33.3489],[129.851,33.3517],[129.8496,33.3528],[129.8481,33.352],[129.8483,33.3529],[129.8452,33.3542],[129.8455,33.3555],[129.8477,33.3557],[129.8479,33.3569],[129.8488,33.3543],[129.8509,33.3544],[129.8487,33.3578],[129.8511,33.3593],[129.8509,33.3602],[129.8499,33.3596],[129.8494,33.3621],[129.8468,33.3626],[129.8491,33.364],[129.8498,33.366],[129.8526,33.3635],[129.8535,33.3656],[129.8584,33.3678],[129.8582,33.3691],[129.8594,33.3701],[129.8585,33.3726],[129.8596,33.3739],[129.8625,33.3736],[129.863,33.3762],[129.8655,33.3764],[129.8668,33.3741],[129.8688,33.3728],[129.8689,33.3729],[129.8664,33.3758],[129.866,33.3787],[129.8646,33.3777],[129.865,33.3784],[129.8666,33.3789],[129.8658,33.3813],[129.8671,33.3813],[129.8676,33.3834],[129.8656,33.3826],[129.8647,33.385],[129.8667,33.3872],[129.8656,33.3886],[129.8694,33.3861],[129.871,33.3882],[129.8692,33.389],[129.8701,33.3899],[129.8686,33.3922],[129.865,33.3932],[129.869,33.3927],[129.8706,33.3906],[129.8731,33.3902],[129.8748,33.3873],[129.8763,33.3872],[129.878,33.3889],[129.882,33.3887],[129.8837,33.3906],[129.8819,33.3928],[129.8817,33.3958],[129.8803,33.3965],[129.8796,33.4002],[129.8819,33.402],[129.8819,33.4074],[129.8839,33.4081],[129.8911,33.4063],[129.8991,33.41],[129.9009,33.4119],[129.903,33.4126],[129.9043,33.4117]]],[[[129.8456,33.3433],[129.8451,33.3435],[129.8458,33.3434],[129.8456,33.3433]]],[[[129.8437,33.3543],[129.8451,33.3544],[129.8448,33.3533],[129.8437,33.3543]]],[[[129.8454,33.3565],[129.8451,33.3567],[129.8454,33.3566],[129.8454,33.3565]]],[[[129.8461,33.3578],[129.846,33.357],[129.8459,33.3586],[129.8461,33.3578]]],[[[129.8499,33.3594],[129.8501,33.3595],[129.85,33.3593],[129.8499,33.3594]]],[[[129.8481,33.3604],[129.8492,33.3597],[129.8481,33.3592],[129.8481,33.3604]]],[[[129.8616,33.3749],[129.8614,33.3744],[129.8609,33.3744],[129.8616,33.3749]]]]}},{"type":"Feature","properties":{"code":"41207","name":"鹿島市","pref_code":"41","pref":"佐賀県"},"geometry":{"type":"MultiPolygon","coordinates":[[[[130.1105,33.1316],[130.1127,33.1285],[130.1208,33.1285],[130.1213,33.1245],[130.1227,33.1233],[130.1267,33.1246],[130.1287,33.1234],[130.1295,33.1178],[130.1261,33.1172],[130.1262,33.115],[130.1286,33.1124],[130.1287,33.1099],[130.1263,33.1069],[130.1277,33.1036],[130.1321,33.1042],[130.1353,33.0974],[130.1374,33.0971],[130.1377,33.0968],[130.1352,33.0973],[130.1313,33.0954],[130.1292,33.0941],[130.1291,33.0919],[130.1359,33.0955],[130.1407,33.0944],[130.1458,33.0866],[130.143,33.0831],[130.1427,33.0807],[130.1462,33.0769],[130.1463,33.0741],[130.1447,33.073],[130.1479,33.0712],[130.1492,33.0716],[130.1501,33.0691],[130.1495,33.0677],[130.1535,33.0657],[130.1558,33.0634],[130.1551,33.0627],[130.1558,33.0619],[130.1589,33.0609],[130.1587,33.0592],[130.1603,33.0583],[130.1587,33.0592],[130.1581,33.0572],[130.1604,33.0566],[130.1614,33.0578],[130.1606,33.0583],[130.1619,33.0584],[130.1601,33.056],[130.1611,33.0552],[130.1651,33.0548],[130.1664,33.052],[130.1683,33.0512],[130.1698,33.0526],[130.1697,33.0511],[130.1708,33.052],[130.1644,33.0464],[130.1564,33.0427],[130.1536,33.0401],[130.1429,33.0371],[130.135,33.0318],[130.1258,33.0279],[130.1214,33.0243],[130.1153,33.0227],[130.1141,33.0268],[130.1133,33.0234],[130.1104,33.0236],[130.1081,33.0206],[130.1043,33.0194],[130.0969,33.0142],[130.0962,33.0121],[130.0971,33.0078],[130.0955,33.0014],[130.0886,32.9942],[130.0805,32.9931],[130.0761,32.9876],[130.0729,32.9878],[130.0695,32.9864],[130.0652,32.9871],[130.0612,32.9858],[130.054,32.9917],[130.0513,32.9926],[130.0518,32.9944],[130.0493,32.9979],[130.0468,32.9984],[130.0471,33.0015],[130.0452,33.0026],[130.044,33.0056],[130.0474,33.0077],[130.0456,33.0118],[130.0427,33.0144],[130.0423,33.0177],[130.0447,33.0244],[130.0434,33.0258],[130.0399,33.0256],[130.0378,33.0297],[130.0391,33.0352],[130.0404,33.0371],[130.0425,33.0378],[130.045,33.0432],[130.0446,33.0465],[130.0463,33.0526],[130.0455,33.054],[130.048,33.0625],[130.0457,33.067],[130.0415,33.0694],[130.0425,33.073],[130.0394,33.0792],[130.0422,33.08],[130.0502,33.0868],[130.0544,33.0873],[130.0586,33.0917],[130.0629,33.0939],[130.0611,33.097],[130.0616,33.0991],[130.0659,33.0994],[130.0662,33.0977],[130.0673,33.0983],[130.0674,33.0973],[130.071,33.0994],[130.0754,33.098],[130.0749,33.101],[130.0725,33.101],[130.0709,33.104],[130.0759,33.1033],[130.0803,33.106],[130.0806,33.1072],[130.0788,33.1075],[130.0797,33.1092],[130.0848,33.1118],[130.0821,33.1129],[130.0808,33.1165],[130.0785,33.1173],[130.0814,33.1229],[130.084,33.1229],[130.084,33.1243],[130.082,33.1249],[130.0822,33.1274],[130.0808,33.1277],[130.0824,33.1308],[130.0921,33.1291],[130.096,33.1313],[130.1006,33.1304],[130.1105,33.1316]]],[[[130.1435,33.0804],[130.1434,33.0809],[130.1434,33.0809],[130.1435,33.0804]]],[[[130.1437,33.0814],[130.1437,33.0809],[130.1437,33.0809],[130.1437,33.0814]]],[[[130.1434,33.0812],[130.1435,33.0821],[130.1436,33.0821],[130.1434,33.0812]]],[[[130.1441,33.0825],[130.144,33.082],[130.144,33.082],[130.1441,33.0825]]],[[[130.1436,33.0826],[130.1436,33.0823],[130.1436,33.0823],[130.1436,33.0826]]]]}},{"type":"Feature","properties":{"code":"41387","name":"玄海町","pref_code":"41","pref":"佐賀県"},"geometry":{"type":"MultiPolygon","coordinates":[[[[129.831,33.4746],[129.8311,33.4746],[129.8311,33.4745],[129.831,33.4746]]],[[[129.8311,33.4748],[129.8311,33.4747],[129.831,33.4747],[129.8311,33.4748]]],[[[129.8312,33.4752],[129.8312,33.4751],[129.8312,33.4751],[129.8312,33.4752]]],[[[129.8322,33.4863],[129.8323,33.4864],[129.8323,33.4863],[129.8322,33.4863]]],[[[129.8325,33.4863],[129.8325,33.4865],[129.8325,33.4863],[129.8325,33.4863]]],[[[129.8364,33.4875],[129.8366,33.4875],[129.8365,33.4874],[129.8364,33.4875]]],[[[129.8329,33.4893],[129.8333,33.4888],[129.8328,33.4883],[129.8329,33.4893]]],[[[129.8384,33.4929],[129.8385,33.4929],[129.8384,33.4929],[129.8384,33.4929]]],[[[129.8382,33.4929],[129.8383,33.4929],[129.8383,33.4929],[129.8382,33.4929]]],[[[129.8383,33.4931],[129.8383,33.493],[129.8383,33.493],[129.8383,33.4931]]],[[[129.8384,33.4946],[129.8381,33.4948],[129.8382,33.4949],[129.8384,33.4946]]],[[[129.8375,33.4962],[129.8375,33.4961],[129.8375,33.4962],[129.8375,33.4962]]],[[[129.8374,33.4963],[129.8374,33.4963],[129.8374,33.4962],[129.8374,33.4963]]],[[[129.8563,33.4588],[129.8565,33.4588],[129.8564,33.4587],[129.8563,33.4588]]],[[[129.8563,33.4606],[129.8563,33.4605],[129.8563,33.4605],[129.8563,33.4606]]],[[[129.8548,33.4606],[129.8546,33.461],[129.8549,33.4611],[129.8548,33.4606]]],[[[129.8559,33.4611],[129.8556,33.4616],[129.8557,33.4616],[129.8559,33.4611]]],[[[129.8568,33.4633],[129.8568,33.4632],[129.8568,33.4632],[129.8568,33.4633]]],[[[129.8474,33.4692],[129.8468,33.4684],[129.8461,33.4688],[129.8474,33.4692]]],[[[129.8477,33.4732],[129.8508,33.471],[129.8505,33.4693],[129.8487,33.4684],[129.8502,33.4707],[129.8477,33.4732]]],[[[129.8312,33.5196],[129.838,33.5185],[129.8398,33.5166],[129.8426,33.5179],[129.8435,33.5165],[129.8454,33.5172],[129.8456,33.5159],[129.8479,33.5147],[129.8481,33.5123],[129.8502,33.5126],[129.8511,33.5114],[129.8509,33.5065],[129.8529,33.5074],[129.8559,33.5054],[129.8574,33.5057],[129.8558,33.5088],[129.8569,33.5114],[129.8614,33.5086],[129.8639,33.5101],[129.8685,33.5091],[129.873,33.5038],[129.8769,33.5013],[129.8829,33.5008],[129.8844,33.4969],[129.886,33.4965],[129.8889,33.4922],[129.8929,33.4902],[129.8949,33.4907],[129.8968,33.4899],[129.8981,33.4862],[129.9013,33.4854],[129.9012,33.4834],[129.9024,33.4829],[129.9017,33.4813],[129.9037,33.4802],[129.9029,33.4787],[129.905,33.471],[129.8999,33.4673],[129.8988,33.4684],[129.8963,33.4674],[129.8947,33.4655],[129.8945,33.4638],[129.896,33.4632],[129.8979,33.4644],[129.8989,33.4632],[129.8982,33.4602],[129.8965,33.4603],[129.8943,33.4583],[129.8962,33.4569],[129.8957,33.4558],[129.8966,33.4546],[129.8945,33.4554],[129.8923,33.4522],[129.891,33.4528],[129.8907,33.4547],[129.889,33.4545],[129.888,33.4515],[129.8892,33.449],[129.8868,33.445],[129.887,33.4431],[129.8892,33.4422],[129.8916,33.4431],[129.8879,33.4413],[129.8805,33.4409],[129.8807,33.4357],[129.8772,33.4314],[129.8721,33.4308],[129.8707,33.4332],[129.8712,33.4347],[129.8675,33.435],[129.8664,33.4365],[129.865,33.4339],[129.8611,33.4348],[129.8587,33.4333],[129.8596,33.4362],[129.8585,33.4388],[129.8598,33.4399],[129.8599,33.4427],[129.8634,33.4455],[129.8583,33.4488],[129.853,33.4467],[129.8515,33.4472],[129.8527,33.4486],[129.8514,33.4502],[129.8487,33.4496],[129.8517,33.4514],[129.8506,33.4528],[129.8547,33.4573],[129.859,33.4541],[129.8567,33.4583],[129.8579,33.46],[129.8564,33.4621],[129.8575,33.4622],[129.8572,33.4648],[129.8526,33.4686],[129.8574,33.4691],[129.8544,33.4703],[129.8529,33.4699],[129.8492,33.4731],[129.8497,33.4754],[129.8482,33.4755],[129.8432,33.4725],[129.8445,33.4718],[129.8433,33.4711],[129.8404,33.4713],[129.8406,33.4698],[129.8371,33.4728],[129.8367,33.4718],[129.8351,33.4721],[129.8355,33.474],[129.8345,33.4747],[129.8318,33.4749],[129.8321,33.4763],[129.8358,33.4763],[129.8379,33.4785],[129.8407,33.4794],[129.845,33.4787],[129.8455,33.4796],[129.841,33.4825],[129.841,33.4847],[129.8381,33.4856],[129.8367,33.4872],[129.8375,33.4886],[129.8367,33.4897],[129.8347,33.4894],[129.8365,33.4921],[129.8381,33.4909],[129.8409,33.4905],[129.8416,33.4913],[129.8404,33.4946],[129.8398,33.4948],[129.8385,33.4948],[129.8386,33.4958],[129.8342,33.4997],[129.8335,33.5025],[129.8296,33.5052],[129.8302,33.5064],[129.834,33.508],[129.8329,33.508],[129.8337,33.5086],[129.8328,33.5118],[129.8356,33.5109],[129.8365,33.5137],[129.8305,33.5149],[129.8306,33.5167],[129.8281,33.5182],[129.8312,33.5196]]],[[[129.8394,33.4927],[129.8395,33.4928],[129.8396,33.4927],[129.8394,33.4927]]],[[[129.8401,33.4935],[129.84,33.4934],[129.84,33.4935],[129.8401,33.4935]]],[[[129.8403,33.4944],[129.8402,33.4944],[129.8402,33.4944],[129.8403,33.4944]]],[[[129.8397,33.4948],[129.8397,33.4947],[129.8396,33.4947],[129.8397,33.4948]]],[[[129.8561,33.5112],[129.8554,33.5114],[129.8558,33.5116],[129.8561,33.5112]]]]}},{"type":"Feature","properties":{"code":"41425","name":"白石町","pref_code":"41","pref":"佐賀県"},"geometry":{"type":"MultiPolygon","coordinates":[[[[130.1559,33.1174],[130.156,33.1171],[130.1558,33.1173],[130.1559,33.1174]]],[[[130.1113,33.2026],[130.1155,33.2018],[130.1188,33.1989],[130.1222,33.1987],[130.1253,33.1966],[130.1281,33.1963],[130.1306,33.201],[130.1262,33.2021],[130.126,33.2041],[130.1279,33.2059],[130.135,33.2086],[130.142,33.2048],[130.1412,33.2027],[130.1378,33.2021],[130.1358,33.2002],[130.1355,33.1983],[130.1369,33.1962],[130.1446,33.1956],[130.1537,33.193],[130.159,33.189],[130.1611,33.1885],[130.1674,33.1922],[130.1679,33.1947],[130.1663,33.2],[130.1681,33.2025],[130.1735,33.2028],[130.1781,33.2002],[130.1817,33.2],[130.184,33.201],[130.1877,33.2058],[130.1902,33.2061],[130.2024,33.1941],[130.2182,33.1971],[130.2238,33.1959],[130.2312,33.1921],[130.2295,33.1904],[130.2316,33.1886],[130.2324,33.1838],[130.2228,33.1648],[130.1901,33.1461],[130.1926,33.1424],[130.1917,33.1404],[130.1911,33.141],[130.1826,33.1367],[130.1831,33.136],[130.1826,33.1366],[130.17,33.1302],[130.1713,33.128],[130.1699,33.1302],[130.1688,33.1297],[130.1701,33.1287],[130.1697,33.1284],[130.1703,33.1283],[130.1693,33.1283],[130.1694,33.1292],[130.1688,33.1297],[130.1491,33.1124],[130.1295,33.1178],[130.1279,33.1241],[130.1227,33.1233],[130.1213,33.1245],[130.1208,33.1285],[130.1127,33.1285],[130.1108,33.1316],[130.1006,33.1304],[130.0956,33.1312],[130.0921,33.1291],[130.0807,33.1313],[130.0808,33.1293],[130.0779,33.1292],[130.0779,33.1309],[130.0724,33.1311],[130.0705,33.1343],[130.078,33.1406],[130.0838,33.1416],[130.0882,33.152],[130.0844,33.1543],[130.0838,33.1584],[130.0822,33.1589],[130.0794,33.1631],[130.0795,33.17],[130.0767,33.172],[130.077,33.1743],[130.0747,33.1773],[130.0712,33.1795],[130.0703,33.1816],[130.0734,33.1842],[130.0792,33.1833],[130.084,33.1841],[130.0838,33.1874],[130.0858,33.1886],[130.0868,33.1913],[130.0866,33.1953],[130.0883,33.1971],[130.0886,33.1993],[130.0909,33.2018],[130.0925,33.2007],[130.0967,33.2053],[130.0982,33.2049],[130.0996,33.2026],[130.1056,33.2028],[130.1062,33.2087],[130.1098,33.2106],[130.1111,33.2096],[130.1113,33.2068],[130.1096,33.2042],[130.1113,33.2026]]]]}},{"type":"Feature","properties":{"code":"41441","name":"太良町","pref_code":"41","pref":"佐賀県"},"geometry":{"type":"MultiPolygon","coordinates":[[[[130.2208,32.9524],[130.2216,32.953],[130.2216,32.953],[130.2208,32.9524]]],[[[130.2239,32.9577],[130.2251,32.9571],[130.225,32.9558],[130.2208,32.9532],[130.2212,32.954],[130.2193,32.955],[130.2184,32.954],[130.2203,32.9529],[130.218,32.9505],[130.2126,32.9547],[130.216,32.9562],[130.217,32.9592],[130.2217,32.9583],[130.2228,32.9585],[130.2231,32.9601],[130.2239,32.9577]]],[[[130.2206,32.9763],[130.2208,32.9764],[130.2207,32.9762],[130.2206,32.9763]]],[[[130.2048,32.991],[130.2046,32.9912],[130.2047,32.9912],[130.2048,32.991]]],[[[130.169,33.0453],[130.1702,33.0426],[130.1716,33.0433],[130.1723,33.043],[130.171,33.0429],[130.1717,33.0421],[130.1727,33.0425],[130.1709,33.0415],[130.1722,33.0392],[130.1715,33.0355],[130.1752,33.0329],[130.1764,33.0302],[130.1758,33.0324],[130.1781,33.0308],[130.1791,33.031],[130.1823,33.0305],[130.1777,33.0302],[130.179,33.0296],[130.1801,33.0251],[130.1827,33.0248],[130.1795,33.0243],[130.1789,33.0234],[130.1811,33.0239],[130.1794,33.0211],[130.181,33.0208],[130.1823,33.0178],[130.181,33.0183],[130.1792,33.0179],[130.1817,33.0168],[130.1853,33.0197],[130.1812,33.0151],[130.1838,33.0123],[130.1879,33.0117],[130.1875,33.0049],[130.1899,33.0004],[130.1868,32.9999],[130.1873,32.9991],[130.1925,32.9995],[130.1938,32.9954],[130.1912,32.9901],[130.1954,32.9885],[130.2004,32.9916],[130.2046,32.9899],[130.2051,32.9909],[130.2054,32.9885],[130.2078,32.9882],[130.2073,32.9873],[130.2109,32.9855],[130.2105,32.9826],[130.2097,32.9834],[130.2073,32.9818],[130.2095,32.9802],[130.2093,32.9791],[130.2097,32.9804],[130.212,32.9791],[130.2152,32.9799],[130.2145,32.9825],[130.2164,32.9785],[130.2184,32.9769],[130.2206,32.9768],[130.2194,32.9765],[130.2204,32.9763],[130.2203,32.9757],[130.2227,32.9738],[130.224,32.9736],[130.2243,32.9731],[130.2247,32.9722],[130.2239,32.9735],[130.2226,32.9725],[130.2245,32.9722],[130.2228,32.9719],[130.225,32.9668],[130.2242,32.9639],[130.2244,32.9622],[130.2249,32.9615],[130.2249,32.9608],[130.2243,32.9621],[130.2228,32.962],[130.2229,32.9609],[130.2219,32.9633],[130.221,32.9607],[130.2192,32.9618],[130.2208,32.9597],[130.2139,32.9593],[130.2125,32.9574],[130.2103,32.9564],[130.2119,32.9551],[130.2102,32.9565],[130.2123,32.9574],[130.2126,32.958],[130.2074,32.9566],[130.2036,32.9571],[130.2029,32.9584],[130.1986,32.9596],[130.1876,32.9588],[130.1786,32.9602],[130.1731,32.9622],[130.1654,32.9609],[130.1549,32.9634],[130.1501,32.9626],[130.1473,32.9688],[130.1441,32.9717],[130.1385,32.9683],[130.1313,32.9683],[130.1227,32.9709],[130.1188,32.9704],[130.1145,32.9724],[130.1092,32.9718],[130.103,32.9747],[130.1002,32.9742],[130.095,32.9754],[130.0887,32.974],[130.0862,32.9754],[130.0858,32.9792],[130.0818,32.9828],[130.0776,32.9845],[130.0761,32.9876],[130.0776,32.9885],[130.0798,32.9927],[130.0825,32.9938],[130.0881,32.9939],[130.0953,33.0011],[130.0971,33.0078],[130.0962,33.0121],[130.0969,33.0142],[130.1043,33.0194],[130.1081,33.0206],[130.1104,33.0236],[130.1133,33.0234],[130.1141,33.0268],[130.1153,33.0227],[130.1214,33.0243],[130.1258,33.0279],[130.135,33.0318],[130.1429,33.0371],[130.1536,33.0401],[130.1564,33.0427],[130.1644,33.0464],[130.1697,33.051],[130.169,33.0453]]],[[[130.2261,33.0649],[130.2258,33.0652],[130.2262,33.0651],[130.2261,33.0649]]]]}}]}